<?xml version="1.0" encoding="utf-8"?>
<gpx xmlns="http://www.topografix.com/GPX/1/1" version="1.1" creator="https://mapy.com/">
	<trk>
		<name>201</name>
		<trkseg>
			<trkpt lat="49.928370" lon="17.884883">
				<ele>280.993073</ele>
			</trkpt>
			<trkpt lat="49.928370" lon="17.884883">
				<ele>280.993073</ele>
			</trkpt>
			<trkpt lat="49.928399" lon="17.884909">
				<ele>280.927917</ele>
			</trkpt>
			<trkpt lat="49.928439" lon="17.884936">
				<ele>280.826233</ele>
			</trkpt>
			<trkpt lat="49.928503" lon="17.884946">
				<ele>280.570892</ele>
			</trkpt>
			<trkpt lat="49.928711" lon="17.884596">
				<ele>278.743286</ele>
			</trkpt>
			<trkpt lat="49.929388" lon="17.883391">
				<ele>271.044556</ele>
			</trkpt>
			<trkpt lat="49.929509" lon="17.883175">
				<ele>270.345734</ele>
			</trkpt>
			<trkpt lat="49.929775" lon="17.882709">
				<ele>268.681976</ele>
			</trkpt>
			<trkpt lat="49.929775" lon="17.882709">
				<ele>268.681976</ele>
			</trkpt>
			<trkpt lat="49.930047" lon="17.882223">
				<ele>267.784973</ele>
			</trkpt>
			<trkpt lat="49.930134" lon="17.882062">
				<ele>267.737762</ele>
			</trkpt>
			<trkpt lat="49.930209" lon="17.881936">
				<ele>267.565674</ele>
			</trkpt>
			<trkpt lat="49.930267" lon="17.881846">
				<ele>267.484741</ele>
			</trkpt>
			<trkpt lat="49.930585" lon="17.881280">
				<ele>266.608276</ele>
			</trkpt>
			<trkpt lat="49.930649" lon="17.881172">
				<ele>266.286713</ele>
			</trkpt>
			<trkpt lat="49.931220" lon="17.880158">
				<ele>266.310303</ele>
			</trkpt>
			<trkpt lat="49.931308" lon="17.880013">
				<ele>266.465668</ele>
			</trkpt>
			<trkpt lat="49.931383" lon="17.879879">
				<ele>267.083710</ele>
			</trkpt>
			<trkpt lat="49.931458" lon="17.879780">
				<ele>267.400024</ele>
			</trkpt>
			<trkpt lat="49.931880" lon="17.879393">
				<ele>267.214813</ele>
			</trkpt>
			<trkpt lat="49.932192" lon="17.879097">
				<ele>267.148499</ele>
			</trkpt>
			<trkpt lat="49.932192" lon="17.879097">
				<ele>267.148499</ele>
			</trkpt>
			<trkpt lat="49.932655" lon="17.878667">
				<ele>267.199982</ele>
			</trkpt>
			<trkpt lat="49.932822" lon="17.878522">
				<ele>267.268463</ele>
			</trkpt>
			<trkpt lat="49.932915" lon="17.878451">
				<ele>267.433044</ele>
			</trkpt>
			<trkpt lat="49.933308" lon="17.879456">
				<ele>266.839294</ele>
			</trkpt>
			<trkpt lat="49.933360" lon="17.879592">
				<ele>266.653412</ele>
			</trkpt>
			<trkpt lat="49.934308" lon="17.881972">
				<ele>265.215088</ele>
			</trkpt>
			<trkpt lat="49.934308" lon="17.881972">
				<ele>265.215088</ele>
			</trkpt>
			<trkpt lat="49.934528" lon="17.882529">
				<ele>265.400024</ele>
			</trkpt>
			<trkpt lat="49.935130" lon="17.884047">
				<ele>265.298798</ele>
			</trkpt>
			<trkpt lat="49.935511" lon="17.884999">
				<ele>264.633484</ele>
			</trkpt>
			<trkpt lat="49.935853" lon="17.885844">
				<ele>264.200012</ele>
			</trkpt>
			<trkpt lat="49.936656" lon="17.887936">
				<ele>263.600037</ele>
			</trkpt>
			<trkpt lat="49.936656" lon="17.887936">
				<ele>263.600037</ele>
			</trkpt>
			<trkpt lat="49.936772" lon="17.888242">
				<ele>263.462006</ele>
			</trkpt>
			<trkpt lat="49.937049" lon="17.888951">
				<ele>263.200012</ele>
			</trkpt>
			<trkpt lat="49.937119" lon="17.889114">
				<ele>263.143372</ele>
			</trkpt>
			<trkpt lat="49.937188" lon="17.889293">
				<ele>263.077820</ele>
			</trkpt>
			<trkpt lat="49.937315" lon="17.889607">
				<ele>263.842224</ele>
			</trkpt>
			<trkpt lat="49.937633" lon="17.890433">
				<ele>263.400055</ele>
			</trkpt>
			<trkpt lat="49.937708" lon="17.890622">
				<ele>263.600037</ele>
			</trkpt>
			<trkpt lat="49.937905" lon="17.891125">
				<ele>263.600037</ele>
			</trkpt>
			<trkpt lat="49.938356" lon="17.892240">
				<ele>263.425995</ele>
			</trkpt>
			<trkpt lat="49.938547" lon="17.892733">
				<ele>263.419342</ele>
			</trkpt>
			<trkpt lat="49.938749" lon="17.893246">
				<ele>263.400024</ele>
			</trkpt>
			<trkpt lat="49.939362" lon="17.894791">
				<ele>262.400024</ele>
			</trkpt>
			<trkpt lat="49.939449" lon="17.895007">
				<ele>262.400024</ele>
			</trkpt>
			<trkpt lat="49.939449" lon="17.895007">
				<ele>262.400024</ele>
			</trkpt>
			<trkpt lat="49.939507" lon="17.895150">
				<ele>262.214294</ele>
			</trkpt>
			<trkpt lat="49.939911" lon="17.896165">
				<ele>262.200012</ele>
			</trkpt>
			<trkpt lat="49.940206" lon="17.896920">
				<ele>262.039154</ele>
			</trkpt>
			<trkpt lat="49.940322" lon="17.897243">
				<ele>262.000000</ele>
			</trkpt>
			<trkpt lat="49.940477" lon="17.897674">
				<ele>261.799988</ele>
			</trkpt>
			<trkpt lat="49.940570" lon="17.897917">
				<ele>261.734650</ele>
			</trkpt>
			<trkpt lat="49.940304" lon="17.898483">
				<ele>261.208069</ele>
			</trkpt>
			<trkpt lat="49.940229" lon="17.898636">
				<ele>260.896393</ele>
			</trkpt>
			<trkpt lat="49.940131" lon="17.898851">
				<ele>260.965088</ele>
			</trkpt>
			<trkpt lat="49.939981" lon="17.899148">
				<ele>260.945770</ele>
			</trkpt>
			<trkpt lat="49.939836" lon="17.899435">
				<ele>260.796509</ele>
			</trkpt>
			<trkpt lat="49.939755" lon="17.899615">
				<ele>260.570801</ele>
			</trkpt>
			<trkpt lat="49.939610" lon="17.899938">
				<ele>260.162323</ele>
			</trkpt>
			<trkpt lat="49.939507" lon="17.900207">
				<ele>260.000000</ele>
			</trkpt>
			<trkpt lat="49.939420" lon="17.900441">
				<ele>260.000000</ele>
			</trkpt>
			<trkpt lat="49.939368" lon="17.900630">
				<ele>259.600067</ele>
			</trkpt>
			<trkpt lat="49.939327" lon="17.900809">
				<ele>259.229950</ele>
			</trkpt>
			<trkpt lat="49.939327" lon="17.900809">
				<ele>259.229950</ele>
			</trkpt>
			<trkpt lat="49.939298" lon="17.900953">
				<ele>258.684174</ele>
			</trkpt>
			<trkpt lat="49.939240" lon="17.901393">
				<ele>257.999969</ele>
			</trkpt>
			<trkpt lat="49.939183" lon="17.901852">
				<ele>257.800018</ele>
			</trkpt>
			<trkpt lat="49.939096" lon="17.902444">
				<ele>257.400024</ele>
			</trkpt>
			<trkpt lat="49.939079" lon="17.902570">
				<ele>257.200012</ele>
			</trkpt>
			<trkpt lat="49.939021" lon="17.903056">
				<ele>257.000000</ele>
			</trkpt>
			<trkpt lat="49.939009" lon="17.903173">
				<ele>257.000000</ele>
			</trkpt>
			<trkpt lat="49.939015" lon="17.903262">
				<ele>256.979248</ele>
			</trkpt>
			<trkpt lat="49.939021" lon="17.903333">
				<ele>256.893005</ele>
			</trkpt>
			<trkpt lat="49.939044" lon="17.903469">
				<ele>256.799988</ele>
			</trkpt>
			<trkpt lat="49.939084" lon="17.903586">
				<ele>256.799988</ele>
			</trkpt>
			<trkpt lat="49.939374" lon="17.904358">
				<ele>256.600037</ele>
			</trkpt>
			<trkpt lat="49.939408" lon="17.904457">
				<ele>256.587128</ele>
			</trkpt>
			<trkpt lat="49.939431" lon="17.904555">
				<ele>256.313019</ele>
			</trkpt>
			<trkpt lat="49.939437" lon="17.904654">
				<ele>256.200012</ele>
			</trkpt>
			<trkpt lat="49.939437" lon="17.904754">
				<ele>256.121368</ele>
			</trkpt>
			<trkpt lat="49.939414" lon="17.904915">
				<ele>255.992737</ele>
			</trkpt>
			<trkpt lat="49.939374" lon="17.905050">
				<ele>255.904114</ele>
			</trkpt>
			<trkpt lat="49.939344" lon="17.905148">
				<ele>255.831665</ele>
			</trkpt>
			<trkpt lat="49.939183" lon="17.905507">
				<ele>255.267349</ele>
			</trkpt>
			<trkpt lat="49.939183" lon="17.905507">
				<ele>255.267349</ele>
			</trkpt>
			<trkpt lat="49.939114" lon="17.905660">
				<ele>255.030899</ele>
			</trkpt>
			<trkpt lat="49.938772" lon="17.906370">
				<ele>255.199997</ele>
			</trkpt>
			<trkpt lat="49.938697" lon="17.906505">
				<ele>255.014984</ele>
			</trkpt>
			<trkpt lat="49.938616" lon="17.906639">
				<ele>254.800003</ele>
			</trkpt>
			<trkpt lat="49.938426" lon="17.906999">
				<ele>254.423004</ele>
			</trkpt>
			<trkpt lat="49.938292" lon="17.907259">
				<ele>254.199997</ele>
			</trkpt>
			<trkpt lat="49.938153" lon="17.907125">
				<ele>254.200012</ele>
			</trkpt>
			<trkpt lat="49.937905" lon="17.906873">
				<ele>254.400009</ele>
			</trkpt>
			<trkpt lat="49.937448" lon="17.906415">
				<ele>254.399994</ele>
			</trkpt>
			<trkpt lat="49.937344" lon="17.906316">
				<ele>254.416534</ele>
			</trkpt>
			<trkpt lat="49.937344" lon="17.906316">
				<ele>254.416534</ele>
			</trkpt>
			<trkpt lat="49.937229" lon="17.906209">
				<ele>254.638718</ele>
			</trkpt>
			<trkpt lat="49.937038" lon="17.906037">
				<ele>255.056488</ele>
			</trkpt>
			<trkpt lat="49.936841" lon="17.905903">
				<ele>255.441315</ele>
			</trkpt>
			<trkpt lat="49.936621" lon="17.905796">
				<ele>255.854004</ele>
			</trkpt>
			<trkpt lat="49.936407" lon="17.905741">
				<ele>256.399994</ele>
			</trkpt>
			<trkpt lat="49.936263" lon="17.905714">
				<ele>256.645386</ele>
			</trkpt>
			<trkpt lat="49.936089" lon="17.905706">
				<ele>256.866852</ele>
			</trkpt>
			<trkpt lat="49.935991" lon="17.905696">
				<ele>257.093750</ele>
			</trkpt>
			<trkpt lat="49.935812" lon="17.905706">
				<ele>257.410400</ele>
			</trkpt>
			<trkpt lat="49.935748" lon="17.905723">
				<ele>257.533997</ele>
			</trkpt>
			<trkpt lat="49.935673" lon="17.905796">
				<ele>257.730469</ele>
			</trkpt>
			<trkpt lat="49.935517" lon="17.906029">
				<ele>256.841614</ele>
			</trkpt>
			<trkpt lat="49.935135" lon="17.906595">
				<ele>255.599792</ele>
			</trkpt>
			<trkpt lat="49.934974" lon="17.906783">
				<ele>255.297501</ele>
			</trkpt>
			<trkpt lat="49.934800" lon="17.907035">
				<ele>254.524078</ele>
			</trkpt>
			<trkpt lat="49.934656" lon="17.907259">
				<ele>254.200592</ele>
			</trkpt>
			<trkpt lat="49.934262" lon="17.908050">
				<ele>253.736069</ele>
			</trkpt>
			<trkpt lat="49.934262" lon="17.908050">
				<ele>253.736069</ele>
			</trkpt>
			<trkpt lat="49.934233" lon="17.908104">
				<ele>253.782806</ele>
			</trkpt>
			<trkpt lat="49.933985" lon="17.908597">
				<ele>253.692230</ele>
			</trkpt>
			<trkpt lat="49.933863" lon="17.908832">
				<ele>253.799988</ele>
			</trkpt>
			<trkpt lat="49.933759" lon="17.909047">
				<ele>253.747101</ele>
			</trkpt>
			<trkpt lat="49.933592" lon="17.909299">
				<ele>253.799805</ele>
			</trkpt>
			<trkpt lat="49.933493" lon="17.909496">
				<ele>253.792038</ele>
			</trkpt>
			<trkpt lat="49.932649" lon="17.911230">
				<ele>253.529037</ele>
			</trkpt>
			<trkpt lat="49.931817" lon="17.912945">
				<ele>254.461990</ele>
			</trkpt>
			<trkpt lat="49.931145" lon="17.914312">
				<ele>254.106842</ele>
			</trkpt>
			<trkpt lat="49.931047" lon="17.914463">
				<ele>253.701935</ele>
			</trkpt>
			<trkpt lat="49.931001" lon="17.914509">
				<ele>253.692184</ele>
			</trkpt>
			<trkpt lat="49.930949" lon="17.914563">
				<ele>253.875061</ele>
			</trkpt>
			<trkpt lat="49.930903" lon="17.914589">
				<ele>254.133011</ele>
			</trkpt>
			<trkpt lat="49.930839" lon="17.914599">
				<ele>254.498489</ele>
			</trkpt>
			<trkpt lat="49.930712" lon="17.914608">
				<ele>254.688416</ele>
			</trkpt>
			<trkpt lat="49.930573" lon="17.914553">
				<ele>255.203339</ele>
			</trkpt>
			<trkpt lat="49.930250" lon="17.914410">
				<ele>256.358765</ele>
			</trkpt>
			<trkpt lat="49.930111" lon="17.914347">
				<ele>256.923035</ele>
			</trkpt>
			<trkpt lat="49.929474" lon="17.914069">
				<ele>259.302734</ele>
			</trkpt>
			<trkpt lat="49.929283" lon="17.913987">
				<ele>260.200684</ele>
			</trkpt>
			<trkpt lat="49.929283" lon="17.913987">
				<ele>260.200684</ele>
			</trkpt>
			<trkpt lat="49.929191" lon="17.913943">
				<ele>260.400024</ele>
			</trkpt>
			<trkpt lat="49.928676" lon="17.913719">
				<ele>262.332764</ele>
			</trkpt>
			<trkpt lat="49.928451" lon="17.913620">
				<ele>263.000000</ele>
			</trkpt>
			<trkpt lat="49.928266" lon="17.913584">
				<ele>262.998383</ele>
			</trkpt>
			<trkpt lat="49.928104" lon="17.913584">
				<ele>262.780212</ele>
			</trkpt>
			<trkpt lat="49.927832" lon="17.913637">
				<ele>262.180664</ele>
			</trkpt>
			<trkpt lat="49.927387" lon="17.913727">
				<ele>260.590546</ele>
			</trkpt>
			<trkpt lat="49.927011" lon="17.913773">
				<ele>258.797394</ele>
			</trkpt>
			<trkpt lat="49.926936" lon="17.913763">
				<ele>258.499939</ele>
			</trkpt>
			<trkpt lat="49.926722" lon="17.913763">
				<ele>257.652771</ele>
			</trkpt>
			<trkpt lat="49.926409" lon="17.913736">
				<ele>256.411957</ele>
			</trkpt>
			<trkpt lat="49.925993" lon="17.913691">
				<ele>255.589005</ele>
			</trkpt>
			<trkpt lat="49.925589" lon="17.913656">
				<ele>254.649628</ele>
			</trkpt>
			<trkpt lat="49.924970" lon="17.913574">
				<ele>254.108307</ele>
			</trkpt>
			<trkpt lat="49.924727" lon="17.913547">
				<ele>254.000031</ele>
			</trkpt>
			<trkpt lat="49.924727" lon="17.913547">
				<ele>254.000031</ele>
			</trkpt>
			<trkpt lat="49.924622" lon="17.913539">
				<ele>253.730179</ele>
			</trkpt>
			<trkpt lat="49.924530" lon="17.913539">
				<ele>253.600021</ele>
			</trkpt>
			<trkpt lat="49.923582" lon="17.913440">
				<ele>251.795731</ele>
			</trkpt>
			<trkpt lat="49.923472" lon="17.913421">
				<ele>251.561798</ele>
			</trkpt>
			<trkpt lat="49.923333" lon="17.913394">
				<ele>251.297058</ele>
			</trkpt>
			<trkpt lat="49.922731" lon="17.913331">
				<ele>250.198761</ele>
			</trkpt>
			<trkpt lat="49.922506" lon="17.913287">
				<ele>250.000015</ele>
			</trkpt>
			<trkpt lat="49.922291" lon="17.913233">
				<ele>250.000015</ele>
			</trkpt>
			<trkpt lat="49.922165" lon="17.913188">
				<ele>250.000015</ele>
			</trkpt>
			<trkpt lat="49.921898" lon="17.913071">
				<ele>250.000000</ele>
			</trkpt>
			<trkpt lat="49.921586" lon="17.912901">
				<ele>249.999329</ele>
			</trkpt>
			<trkpt lat="49.921418" lon="17.912802">
				<ele>250.000015</ele>
			</trkpt>
			<trkpt lat="49.921066" lon="17.912614">
				<ele>250.000397</ele>
			</trkpt>
			<trkpt lat="49.921088" lon="17.912478">
				<ele>250.176743</ele>
			</trkpt>
			<trkpt lat="49.921083" lon="17.912379">
				<ele>250.199997</ele>
			</trkpt>
			<trkpt lat="49.921019" lon="17.912182">
				<ele>250.199997</ele>
			</trkpt>
		</trkseg>
	</trk>
</gpx>

