<?xml version="1.0" encoding="utf-8"?>
<gpx xmlns="http://www.topografix.com/GPX/1/1" version="1.1" creator="https://mapy.com/">
	<trk>
		<name>203</name>
		<trkseg>
			<trkpt lat="49.928254" lon="17.938368">
				<ele>245.199982</ele>
			</trkpt>
			<trkpt lat="49.928271" lon="17.938342">
				<ele>245.200012</ele>
			</trkpt>
			<trkpt lat="49.928346" lon="17.938206">
				<ele>245.200012</ele>
			</trkpt>
			<trkpt lat="49.928422" lon="17.938072">
				<ele>245.256073</ele>
			</trkpt>
			<trkpt lat="49.928515" lon="17.937955">
				<ele>245.293503</ele>
			</trkpt>
			<trkpt lat="49.928752" lon="17.937757">
				<ele>245.400040</ele>
			</trkpt>
			<trkpt lat="49.928879" lon="17.937631">
				<ele>245.130859</ele>
			</trkpt>
			<trkpt lat="49.928965" lon="17.937541">
				<ele>245.000031</ele>
			</trkpt>
			<trkpt lat="49.929023" lon="17.937434">
				<ele>244.977417</ele>
			</trkpt>
			<trkpt lat="49.929058" lon="17.937308">
				<ele>244.553009</ele>
			</trkpt>
			<trkpt lat="49.929069" lon="17.937227">
				<ele>244.200012</ele>
			</trkpt>
			<trkpt lat="49.929081" lon="17.937128">
				<ele>244.009811</ele>
			</trkpt>
			<trkpt lat="49.929087" lon="17.937011">
				<ele>243.743469</ele>
			</trkpt>
			<trkpt lat="49.929069" lon="17.936931">
				<ele>243.600037</ele>
			</trkpt>
			<trkpt lat="49.929053" lon="17.936850">
				<ele>243.600006</ele>
			</trkpt>
			<trkpt lat="49.929029" lon="17.936760">
				<ele>243.645630</ele>
			</trkpt>
			<trkpt lat="49.929006" lon="17.936707">
				<ele>243.719452</ele>
			</trkpt>
			<trkpt lat="49.928971" lon="17.936644">
				<ele>243.800018</ele>
			</trkpt>
			<trkpt lat="49.928873" lon="17.936545">
				<ele>243.986084</ele>
			</trkpt>
			<trkpt lat="49.928740" lon="17.936464">
				<ele>244.061111</ele>
			</trkpt>
			<trkpt lat="49.928532" lon="17.936401">
				<ele>244.452301</ele>
			</trkpt>
			<trkpt lat="49.928491" lon="17.936365">
				<ele>244.570541</ele>
			</trkpt>
			<trkpt lat="49.928456" lon="17.936338">
				<ele>244.600037</ele>
			</trkpt>
			<trkpt lat="49.928422" lon="17.936292">
				<ele>244.600021</ele>
			</trkpt>
			<trkpt lat="49.928393" lon="17.936239">
				<ele>244.639252</ele>
			</trkpt>
			<trkpt lat="49.928346" lon="17.935979">
				<ele>244.796799</ele>
			</trkpt>
			<trkpt lat="49.928300" lon="17.935682">
				<ele>245.000000</ele>
			</trkpt>
			<trkpt lat="49.928277" lon="17.935583">
				<ele>245.070709</ele>
			</trkpt>
			<trkpt lat="49.928260" lon="17.935512">
				<ele>245.199997</ele>
			</trkpt>
			<trkpt lat="49.928237" lon="17.935449">
				<ele>245.200012</ele>
			</trkpt>
			<trkpt lat="49.928202" lon="17.935386">
				<ele>245.200012</ele>
			</trkpt>
			<trkpt lat="49.928139" lon="17.935233">
				<ele>245.359436</ele>
			</trkpt>
			<trkpt lat="49.928110" lon="17.935134">
				<ele>245.400009</ele>
			</trkpt>
			<trkpt lat="49.928092" lon="17.935036">
				<ele>245.400009</ele>
			</trkpt>
			<trkpt lat="49.928086" lon="17.934919">
				<ele>245.399994</ele>
			</trkpt>
			<trkpt lat="49.928353" lon="17.934021">
				<ele>245.757492</ele>
			</trkpt>
			<trkpt lat="49.928549" lon="17.933392">
				<ele>246.055740</ele>
			</trkpt>
			<trkpt lat="49.928752" lon="17.932717">
				<ele>246.594193</ele>
			</trkpt>
			<trkpt lat="49.928780" lon="17.932627">
				<ele>246.600006</ele>
			</trkpt>
			<trkpt lat="49.928780" lon="17.932627">
				<ele>246.600006</ele>
			</trkpt>
			<trkpt lat="49.928890" lon="17.932296">
				<ele>246.600021</ele>
			</trkpt>
			<trkpt lat="49.929006" lon="17.931910">
				<ele>246.732788</ele>
			</trkpt>
			<trkpt lat="49.929174" lon="17.931361">
				<ele>246.846481</ele>
			</trkpt>
			<trkpt lat="49.929324" lon="17.930885">
				<ele>247.125839</ele>
			</trkpt>
			<trkpt lat="49.929561" lon="17.930103">
				<ele>247.200012</ele>
			</trkpt>
			<trkpt lat="49.929561" lon="17.930103">
				<ele>247.200012</ele>
			</trkpt>
			<trkpt lat="49.929862" lon="17.929143">
				<ele>247.399994</ele>
			</trkpt>
			<trkpt lat="49.929948" lon="17.928855">
				<ele>247.413849</ele>
			</trkpt>
			<trkpt lat="49.930174" lon="17.928136">
				<ele>247.662369</ele>
			</trkpt>
			<trkpt lat="49.930290" lon="17.927742">
				<ele>247.799973</ele>
			</trkpt>
			<trkpt lat="49.931024" lon="17.925396">
				<ele>248.000031</ele>
			</trkpt>
			<trkpt lat="49.931556" lon="17.923690">
				<ele>247.728485</ele>
			</trkpt>
			<trkpt lat="49.931817" lon="17.922855">
				<ele>247.597565</ele>
			</trkpt>
			<trkpt lat="49.931817" lon="17.922855">
				<ele>247.597565</ele>
			</trkpt>
			<trkpt lat="49.931967" lon="17.922378">
				<ele>247.600021</ele>
			</trkpt>
			<trkpt lat="49.932013" lon="17.922199">
				<ele>247.600037</ele>
			</trkpt>
			<trkpt lat="49.932238" lon="17.921471">
				<ele>247.799988</ele>
			</trkpt>
			<trkpt lat="49.932348" lon="17.921121">
				<ele>248.019440</ele>
			</trkpt>
			<trkpt lat="49.932464" lon="17.920734">
				<ele>248.200012</ele>
			</trkpt>
			<trkpt lat="49.932602" lon="17.920294">
				<ele>248.400009</ele>
			</trkpt>
			<trkpt lat="49.932776" lon="17.919746">
				<ele>248.400009</ele>
			</trkpt>
			<trkpt lat="49.933019" lon="17.918973">
				<ele>248.400009</ele>
			</trkpt>
			<trkpt lat="49.933019" lon="17.918973">
				<ele>248.400009</ele>
			</trkpt>
			<trkpt lat="49.933060" lon="17.918857">
				<ele>248.404800</ele>
			</trkpt>
			<trkpt lat="49.933250" lon="17.918245">
				<ele>248.400024</ele>
			</trkpt>
			<trkpt lat="49.933464" lon="17.917545">
				<ele>248.716949</ele>
			</trkpt>
			<trkpt lat="49.933580" lon="17.917176">
				<ele>248.768417</ele>
			</trkpt>
			<trkpt lat="49.933649" lon="17.916970">
				<ele>248.800003</ele>
			</trkpt>
			<trkpt lat="49.933858" lon="17.916306">
				<ele>249.000031</ele>
			</trkpt>
			<trkpt lat="49.933962" lon="17.915973">
				<ele>249.043320</ele>
			</trkpt>
			<trkpt lat="49.934112" lon="17.915478">
				<ele>249.200012</ele>
			</trkpt>
			<trkpt lat="49.934187" lon="17.915245">
				<ele>249.200012</ele>
			</trkpt>
			<trkpt lat="49.934303" lon="17.914905">
				<ele>249.389328</ele>
			</trkpt>
			<trkpt lat="49.934442" lon="17.914553">
				<ele>249.400024</ele>
			</trkpt>
			<trkpt lat="49.934581" lon="17.914230">
				<ele>249.595383</ele>
			</trkpt>
			<trkpt lat="49.934742" lon="17.913897">
				<ele>249.600021</ele>
			</trkpt>
			<trkpt lat="49.935025" lon="17.913431">
				<ele>249.778976</ele>
			</trkpt>
			<trkpt lat="49.935153" lon="17.913215">
				<ele>249.799988</ele>
			</trkpt>
			<trkpt lat="49.935153" lon="17.913215">
				<ele>249.799988</ele>
			</trkpt>
			<trkpt lat="49.935257" lon="17.913044">
				<ele>249.800003</ele>
			</trkpt>
			<trkpt lat="49.935390" lon="17.912838">
				<ele>249.874130</ele>
			</trkpt>
			<trkpt lat="49.935979" lon="17.911876">
				<ele>250.200012</ele>
			</trkpt>
			<trkpt lat="49.936176" lon="17.911553">
				<ele>250.400024</ele>
			</trkpt>
			<trkpt lat="49.936332" lon="17.911266">
				<ele>250.400009</ele>
			</trkpt>
			<trkpt lat="49.936673" lon="17.910574">
				<ele>250.379150</ele>
			</trkpt>
			<trkpt lat="49.936974" lon="17.909964">
				<ele>250.399994</ele>
			</trkpt>
			<trkpt lat="49.937066" lon="17.909775">
				<ele>250.403122</ele>
			</trkpt>
			<trkpt lat="49.937229" lon="17.909442">
				<ele>251.055054</ele>
			</trkpt>
			<trkpt lat="49.937506" lon="17.908886">
				<ele>252.039734</ele>
			</trkpt>
			<trkpt lat="49.937639" lon="17.908616">
				<ele>252.405182</ele>
			</trkpt>
			<trkpt lat="49.937842" lon="17.908194">
				<ele>253.189819</ele>
			</trkpt>
			<trkpt lat="49.937842" lon="17.908194">
				<ele>253.189819</ele>
			</trkpt>
			<trkpt lat="49.938188" lon="17.907475">
				<ele>254.000000</ele>
			</trkpt>
			<trkpt lat="49.938292" lon="17.907259">
				<ele>254.199997</ele>
			</trkpt>
			<trkpt lat="49.938426" lon="17.906999">
				<ele>254.423004</ele>
			</trkpt>
			<trkpt lat="49.938616" lon="17.906639">
				<ele>254.800003</ele>
			</trkpt>
			<trkpt lat="49.938697" lon="17.906505">
				<ele>255.014984</ele>
			</trkpt>
			<trkpt lat="49.938772" lon="17.906370">
				<ele>255.199997</ele>
			</trkpt>
			<trkpt lat="49.939114" lon="17.905660">
				<ele>255.030899</ele>
			</trkpt>
			<trkpt lat="49.939327" lon="17.905184">
				<ele>255.722000</ele>
			</trkpt>
			<trkpt lat="49.939327" lon="17.905184">
				<ele>255.722000</ele>
			</trkpt>
			<trkpt lat="49.939344" lon="17.905148">
				<ele>255.831665</ele>
			</trkpt>
			<trkpt lat="49.939374" lon="17.905050">
				<ele>255.904114</ele>
			</trkpt>
			<trkpt lat="49.939414" lon="17.904915">
				<ele>255.992737</ele>
			</trkpt>
			<trkpt lat="49.939437" lon="17.904754">
				<ele>256.121368</ele>
			</trkpt>
			<trkpt lat="49.939437" lon="17.904654">
				<ele>256.200012</ele>
			</trkpt>
			<trkpt lat="49.939431" lon="17.904555">
				<ele>256.313019</ele>
			</trkpt>
			<trkpt lat="49.939408" lon="17.904457">
				<ele>256.587128</ele>
			</trkpt>
			<trkpt lat="49.939374" lon="17.904358">
				<ele>256.600037</ele>
			</trkpt>
			<trkpt lat="49.939084" lon="17.903586">
				<ele>256.799988</ele>
			</trkpt>
			<trkpt lat="49.939044" lon="17.903469">
				<ele>256.799988</ele>
			</trkpt>
			<trkpt lat="49.939021" lon="17.903333">
				<ele>256.893005</ele>
			</trkpt>
			<trkpt lat="49.939015" lon="17.903262">
				<ele>256.979248</ele>
			</trkpt>
			<trkpt lat="49.939009" lon="17.903173">
				<ele>257.000000</ele>
			</trkpt>
			<trkpt lat="49.939021" lon="17.903056">
				<ele>257.000000</ele>
			</trkpt>
			<trkpt lat="49.939079" lon="17.902570">
				<ele>257.200012</ele>
			</trkpt>
			<trkpt lat="49.939096" lon="17.902444">
				<ele>257.400024</ele>
			</trkpt>
			<trkpt lat="49.939183" lon="17.901852">
				<ele>257.800018</ele>
			</trkpt>
			<trkpt lat="49.939240" lon="17.901393">
				<ele>257.999969</ele>
			</trkpt>
			<trkpt lat="49.939298" lon="17.900953">
				<ele>258.684174</ele>
			</trkpt>
			<trkpt lat="49.939368" lon="17.900630">
				<ele>259.600067</ele>
			</trkpt>
			<trkpt lat="49.939420" lon="17.900441">
				<ele>260.000000</ele>
			</trkpt>
			<trkpt lat="49.939437" lon="17.900406">
				<ele>260.000000</ele>
			</trkpt>
			<trkpt lat="49.939437" lon="17.900406">
				<ele>260.000000</ele>
			</trkpt>
			<trkpt lat="49.939507" lon="17.900207">
				<ele>260.000000</ele>
			</trkpt>
			<trkpt lat="49.939610" lon="17.899938">
				<ele>260.162323</ele>
			</trkpt>
			<trkpt lat="49.939755" lon="17.899615">
				<ele>260.570801</ele>
			</trkpt>
			<trkpt lat="49.939836" lon="17.899435">
				<ele>260.796509</ele>
			</trkpt>
			<trkpt lat="49.939981" lon="17.899148">
				<ele>260.945770</ele>
			</trkpt>
			<trkpt lat="49.940131" lon="17.898851">
				<ele>260.965088</ele>
			</trkpt>
			<trkpt lat="49.940229" lon="17.898636">
				<ele>260.896393</ele>
			</trkpt>
			<trkpt lat="49.940304" lon="17.898483">
				<ele>261.208069</ele>
			</trkpt>
			<trkpt lat="49.940570" lon="17.897917">
				<ele>261.734650</ele>
			</trkpt>
			<trkpt lat="49.940738" lon="17.897567">
				<ele>261.945374</ele>
			</trkpt>
			<trkpt lat="49.941090" lon="17.896821">
				<ele>263.100891</ele>
			</trkpt>
			<trkpt lat="49.941357" lon="17.896246">
				<ele>263.600037</ele>
			</trkpt>
			<trkpt lat="49.941813" lon="17.895249">
				<ele>264.400024</ele>
			</trkpt>
			<trkpt lat="49.942021" lon="17.894773">
				<ele>264.644409</ele>
			</trkpt>
			<trkpt lat="49.942235" lon="17.894251">
				<ele>264.799988</ele>
			</trkpt>
			<trkpt lat="49.942340" lon="17.894009">
				<ele>265.149750</ele>
			</trkpt>
			<trkpt lat="49.942657" lon="17.893291">
				<ele>264.849365</ele>
			</trkpt>
			<trkpt lat="49.942657" lon="17.893291">
				<ele>264.849365</ele>
			</trkpt>
			<trkpt lat="49.942709" lon="17.893183">
				<ele>264.775665</ele>
			</trkpt>
			<trkpt lat="49.942946" lon="17.892689">
				<ele>264.579712</ele>
			</trkpt>
			<trkpt lat="49.943397" lon="17.891728">
				<ele>263.799988</ele>
			</trkpt>
			<trkpt lat="49.943692" lon="17.891108">
				<ele>263.336426</ele>
			</trkpt>
			<trkpt lat="49.943727" lon="17.891027">
				<ele>263.211304</ele>
			</trkpt>
			<trkpt lat="49.944004" lon="17.890416">
				<ele>261.621338</ele>
			</trkpt>
			<trkpt lat="49.944299" lon="17.889706">
				<ele>261.379761</ele>
			</trkpt>
			<trkpt lat="49.944750" lon="17.888592">
				<ele>261.296509</ele>
			</trkpt>
			<trkpt lat="49.945051" lon="17.887856">
				<ele>260.619690</ele>
			</trkpt>
			<trkpt lat="49.945357" lon="17.887101">
				<ele>258.878326</ele>
			</trkpt>
			<trkpt lat="49.945357" lon="17.887101">
				<ele>258.878326</ele>
			</trkpt>
			<trkpt lat="49.945461" lon="17.886850">
				<ele>258.496735</ele>
			</trkpt>
			<trkpt lat="49.945721" lon="17.886212">
				<ele>257.418091</ele>
			</trkpt>
			<trkpt lat="49.945854" lon="17.885871">
				<ele>257.041809</ele>
			</trkpt>
			<trkpt lat="49.945999" lon="17.885529">
				<ele>256.569122</ele>
			</trkpt>
			<trkpt lat="49.946160" lon="17.885116">
				<ele>256.781921</ele>
			</trkpt>
			<trkpt lat="49.946276" lon="17.884864">
				<ele>256.798828</ele>
			</trkpt>
			<trkpt lat="49.946444" lon="17.884550">
				<ele>256.761200</ele>
			</trkpt>
			<trkpt lat="49.946478" lon="17.884567">
				<ele>256.577118</ele>
			</trkpt>
			<trkpt lat="49.946531" lon="17.884567">
				<ele>256.370819</ele>
			</trkpt>
			<trkpt lat="49.946571" lon="17.884541">
				<ele>256.327820</ele>
			</trkpt>
			<trkpt lat="49.946600" lon="17.884487">
				<ele>256.345825</ele>
			</trkpt>
			<trkpt lat="49.946617" lon="17.884406">
				<ele>256.336853</ele>
			</trkpt>
			<trkpt lat="49.946612" lon="17.884334">
				<ele>256.444855</ele>
			</trkpt>
			<trkpt lat="49.946594" lon="17.884280">
				<ele>256.556580</ele>
			</trkpt>
			<trkpt lat="49.946559" lon="17.884254">
				<ele>256.683411</ele>
			</trkpt>
			<trkpt lat="49.946675" lon="17.883858">
				<ele>256.820129</ele>
			</trkpt>
			<trkpt lat="49.946814" lon="17.883499">
				<ele>256.743866</ele>
			</trkpt>
			<trkpt lat="49.946947" lon="17.883185">
				<ele>256.600037</ele>
			</trkpt>
			<trkpt lat="49.947045" lon="17.882942">
				<ele>256.604675</ele>
			</trkpt>
			<trkpt lat="49.947045" lon="17.882942">
				<ele>256.604675</ele>
			</trkpt>
			<trkpt lat="49.947195" lon="17.882573">
				<ele>256.492126</ele>
			</trkpt>
			<trkpt lat="49.947426" lon="17.881990">
				<ele>256.513794</ele>
			</trkpt>
			<trkpt lat="49.947634" lon="17.881469">
				<ele>256.600006</ele>
			</trkpt>
			<trkpt lat="49.948086" lon="17.880355">
				<ele>256.600037</ele>
			</trkpt>
			<trkpt lat="49.948975" lon="17.878154">
				<ele>256.649323</ele>
			</trkpt>
			<trkpt lat="49.949120" lon="17.877795">
				<ele>256.440826</ele>
			</trkpt>
			<trkpt lat="49.949582" lon="17.876663">
				<ele>258.280457</ele>
			</trkpt>
			<trkpt lat="49.949704" lon="17.876357">
				<ele>258.436310</ele>
			</trkpt>
			<trkpt lat="49.949808" lon="17.876106">
				<ele>258.165497</ele>
			</trkpt>
			<trkpt lat="49.949808" lon="17.876106">
				<ele>258.165497</ele>
			</trkpt>
			<trkpt lat="49.950080" lon="17.875432">
				<ele>258.332123</ele>
			</trkpt>
			<trkpt lat="49.950270" lon="17.874965">
				<ele>258.394714</ele>
			</trkpt>
			<trkpt lat="49.951172" lon="17.872728">
				<ele>259.664703</ele>
			</trkpt>
			<trkpt lat="49.951843" lon="17.871057">
				<ele>260.766144</ele>
			</trkpt>
			<trkpt lat="49.951912" lon="17.870896">
				<ele>260.772675</ele>
			</trkpt>
			<trkpt lat="49.951935" lon="17.870923">
				<ele>260.708191</ele>
			</trkpt>
			<trkpt lat="49.951981" lon="17.870958">
				<ele>260.559540</ele>
			</trkpt>
			<trkpt lat="49.952028" lon="17.870958">
				<ele>260.444702</ele>
			</trkpt>
			<trkpt lat="49.952074" lon="17.870950">
				<ele>260.399841</ele>
			</trkpt>
			<trkpt lat="49.952120" lon="17.870896">
				<ele>260.400024</ele>
			</trkpt>
			<trkpt lat="49.952167" lon="17.870814">
				<ele>260.581116</ele>
			</trkpt>
			<trkpt lat="49.952183" lon="17.870743">
				<ele>260.785309</ele>
			</trkpt>
			<trkpt lat="49.952195" lon="17.870690">
				<ele>260.799988</ele>
			</trkpt>
			<trkpt lat="49.952207" lon="17.870617">
				<ele>260.940002</ele>
			</trkpt>
			<trkpt lat="49.952195" lon="17.870564">
				<ele>261.000000</ele>
			</trkpt>
			<trkpt lat="49.952172" lon="17.870491">
				<ele>261.074951</ele>
			</trkpt>
			<trkpt lat="49.952149" lon="17.870464">
				<ele>261.079681</ele>
			</trkpt>
			<trkpt lat="49.952149" lon="17.870464">
				<ele>261.079681</ele>
			</trkpt>
			<trkpt lat="49.952138" lon="17.870447">
				<ele>261.074219</ele>
			</trkpt>
			<trkpt lat="49.952074" lon="17.870420">
				<ele>260.972351</ele>
			</trkpt>
			<trkpt lat="49.952028" lon="17.870411">
				<ele>260.890228</ele>
			</trkpt>
			<trkpt lat="49.951987" lon="17.870438">
				<ele>260.809540</ele>
			</trkpt>
			<trkpt lat="49.951947" lon="17.870482">
				<ele>260.753845</ele>
			</trkpt>
			<trkpt lat="49.951912" lon="17.870564">
				<ele>260.799988</ele>
			</trkpt>
			<trkpt lat="49.951889" lon="17.870600">
				<ele>260.802155</ele>
			</trkpt>
			<trkpt lat="49.951871" lon="17.870680">
				<ele>260.911285</ele>
			</trkpt>
			<trkpt lat="49.951871" lon="17.870751">
				<ele>261.000000</ele>
			</trkpt>
			<trkpt lat="49.951883" lon="17.870833">
				<ele>260.952454</ele>
			</trkpt>
			<trkpt lat="49.951912" lon="17.870896">
				<ele>260.772675</ele>
			</trkpt>
			<trkpt lat="49.951843" lon="17.871057">
				<ele>260.766144</ele>
			</trkpt>
			<trkpt lat="49.951582" lon="17.871704">
				<ele>259.839417</ele>
			</trkpt>
		</trkseg>
	</trk>
</gpx>

