<?xml version="1.0" encoding="utf-8"?>
<gpx xmlns="http://www.topografix.com/GPX/1/1" version="1.1" creator="https://mapy.com/">
	<trk>
		<name>211</name>
		<trkseg>
			<trkpt lat="49.937679" lon="17.906649">
				<ele>254.400024</ele>
			</trkpt>
			<trkpt lat="49.937540" lon="17.906505">
				<ele>254.400009</ele>
			</trkpt>
			<trkpt lat="49.937905" lon="17.906873">
				<ele>254.400009</ele>
			</trkpt>
			<trkpt lat="49.938153" lon="17.907125">
				<ele>254.200012</ele>
			</trkpt>
			<trkpt lat="49.938292" lon="17.907259">
				<ele>254.199997</ele>
			</trkpt>
			<trkpt lat="49.938188" lon="17.907475">
				<ele>254.000000</ele>
			</trkpt>
			<trkpt lat="49.937639" lon="17.908616">
				<ele>252.405182</ele>
			</trkpt>
			<trkpt lat="49.937506" lon="17.908886">
				<ele>252.039734</ele>
			</trkpt>
			<trkpt lat="49.937229" lon="17.909442">
				<ele>251.055054</ele>
			</trkpt>
			<trkpt lat="49.937066" lon="17.909775">
				<ele>250.403122</ele>
			</trkpt>
			<trkpt lat="49.936974" lon="17.909964">
				<ele>250.399994</ele>
			</trkpt>
			<trkpt lat="49.936731" lon="17.910448">
				<ele>250.400009</ele>
			</trkpt>
			<trkpt lat="49.936673" lon="17.910574">
				<ele>250.379150</ele>
			</trkpt>
			<trkpt lat="49.936332" lon="17.911266">
				<ele>250.400009</ele>
			</trkpt>
			<trkpt lat="49.936176" lon="17.911553">
				<ele>250.400024</ele>
			</trkpt>
			<trkpt lat="49.935979" lon="17.911876">
				<ele>250.200012</ele>
			</trkpt>
			<trkpt lat="49.935390" lon="17.912838">
				<ele>249.874130</ele>
			</trkpt>
			<trkpt lat="49.935257" lon="17.913044">
				<ele>249.800003</ele>
			</trkpt>
			<trkpt lat="49.935025" lon="17.913431">
				<ele>249.778976</ele>
			</trkpt>
			<trkpt lat="49.934742" lon="17.913897">
				<ele>249.600021</ele>
			</trkpt>
			<trkpt lat="49.934581" lon="17.914230">
				<ele>249.595383</ele>
			</trkpt>
			<trkpt lat="49.934442" lon="17.914553">
				<ele>249.400024</ele>
			</trkpt>
			<trkpt lat="49.934349" lon="17.914796">
				<ele>249.300659</ele>
			</trkpt>
			<trkpt lat="49.934349" lon="17.914796">
				<ele>249.300659</ele>
			</trkpt>
			<trkpt lat="49.934303" lon="17.914905">
				<ele>249.389328</ele>
			</trkpt>
			<trkpt lat="49.934187" lon="17.915245">
				<ele>249.200012</ele>
			</trkpt>
			<trkpt lat="49.934112" lon="17.915478">
				<ele>249.200012</ele>
			</trkpt>
			<trkpt lat="49.933962" lon="17.915973">
				<ele>249.043320</ele>
			</trkpt>
			<trkpt lat="49.933858" lon="17.916306">
				<ele>249.000031</ele>
			</trkpt>
			<trkpt lat="49.933649" lon="17.916970">
				<ele>248.800003</ele>
			</trkpt>
			<trkpt lat="49.933580" lon="17.917176">
				<ele>248.768417</ele>
			</trkpt>
			<trkpt lat="49.933464" lon="17.917545">
				<ele>248.716949</ele>
			</trkpt>
			<trkpt lat="49.933250" lon="17.918245">
				<ele>248.400024</ele>
			</trkpt>
			<trkpt lat="49.933060" lon="17.918857">
				<ele>248.404800</ele>
			</trkpt>
			<trkpt lat="49.932904" lon="17.919350">
				<ele>248.400009</ele>
			</trkpt>
			<trkpt lat="49.932904" lon="17.919350">
				<ele>248.400009</ele>
			</trkpt>
			<trkpt lat="49.932776" lon="17.919746">
				<ele>248.400009</ele>
			</trkpt>
			<trkpt lat="49.932602" lon="17.920294">
				<ele>248.400009</ele>
			</trkpt>
			<trkpt lat="49.932464" lon="17.920734">
				<ele>248.200012</ele>
			</trkpt>
			<trkpt lat="49.932348" lon="17.921121">
				<ele>248.019440</ele>
			</trkpt>
			<trkpt lat="49.932238" lon="17.921471">
				<ele>247.799988</ele>
			</trkpt>
			<trkpt lat="49.932013" lon="17.922199">
				<ele>247.600037</ele>
			</trkpt>
			<trkpt lat="49.931967" lon="17.922378">
				<ele>247.600021</ele>
			</trkpt>
			<trkpt lat="49.931556" lon="17.923690">
				<ele>247.728485</ele>
			</trkpt>
			<trkpt lat="49.931151" lon="17.925002">
				<ele>248.000015</ele>
			</trkpt>
			<trkpt lat="49.931151" lon="17.925002">
				<ele>248.000015</ele>
			</trkpt>
			<trkpt lat="49.931024" lon="17.925396">
				<ele>248.000031</ele>
			</trkpt>
			<trkpt lat="49.930290" lon="17.927742">
				<ele>247.799973</ele>
			</trkpt>
			<trkpt lat="49.930174" lon="17.928136">
				<ele>247.662369</ele>
			</trkpt>
			<trkpt lat="49.929948" lon="17.928855">
				<ele>247.413849</ele>
			</trkpt>
			<trkpt lat="49.929862" lon="17.929143">
				<ele>247.399994</ele>
			</trkpt>
			<trkpt lat="49.929590" lon="17.930023">
				<ele>247.200012</ele>
			</trkpt>
			<trkpt lat="49.929590" lon="17.930023">
				<ele>247.200012</ele>
			</trkpt>
			<trkpt lat="49.929324" lon="17.930885">
				<ele>247.125839</ele>
			</trkpt>
			<trkpt lat="49.929174" lon="17.931361">
				<ele>246.846481</ele>
			</trkpt>
			<trkpt lat="49.929006" lon="17.931910">
				<ele>246.732788</ele>
			</trkpt>
			<trkpt lat="49.928890" lon="17.932296">
				<ele>246.600021</ele>
			</trkpt>
			<trkpt lat="49.928752" lon="17.932717">
				<ele>246.594193</ele>
			</trkpt>
			<trkpt lat="49.928549" lon="17.933392">
				<ele>246.055740</ele>
			</trkpt>
			<trkpt lat="49.928353" lon="17.934021">
				<ele>245.757492</ele>
			</trkpt>
			<trkpt lat="49.928086" lon="17.934919">
				<ele>245.399994</ele>
			</trkpt>
			<trkpt lat="49.928000" lon="17.935206">
				<ele>245.399994</ele>
			</trkpt>
			<trkpt lat="49.928121" lon="17.935313">
				<ele>245.400009</ele>
			</trkpt>
			<trkpt lat="49.928202" lon="17.935386">
				<ele>245.200012</ele>
			</trkpt>
			<trkpt lat="49.928237" lon="17.935449">
				<ele>245.200012</ele>
			</trkpt>
			<trkpt lat="49.928260" lon="17.935512">
				<ele>245.199997</ele>
			</trkpt>
			<trkpt lat="49.928277" lon="17.935583">
				<ele>245.070709</ele>
			</trkpt>
			<trkpt lat="49.928300" lon="17.935682">
				<ele>245.000000</ele>
			</trkpt>
			<trkpt lat="49.928346" lon="17.935979">
				<ele>244.796799</ele>
			</trkpt>
			<trkpt lat="49.928393" lon="17.936239">
				<ele>244.639252</ele>
			</trkpt>
			<trkpt lat="49.928422" lon="17.936292">
				<ele>244.600021</ele>
			</trkpt>
			<trkpt lat="49.928456" lon="17.936338">
				<ele>244.600037</ele>
			</trkpt>
			<trkpt lat="49.928491" lon="17.936365">
				<ele>244.570541</ele>
			</trkpt>
			<trkpt lat="49.928532" lon="17.936401">
				<ele>244.452301</ele>
			</trkpt>
			<trkpt lat="49.928740" lon="17.936464">
				<ele>244.061111</ele>
			</trkpt>
			<trkpt lat="49.928873" lon="17.936545">
				<ele>243.986084</ele>
			</trkpt>
			<trkpt lat="49.928971" lon="17.936644">
				<ele>243.800018</ele>
			</trkpt>
			<trkpt lat="49.929006" lon="17.936707">
				<ele>243.719452</ele>
			</trkpt>
			<trkpt lat="49.929029" lon="17.936760">
				<ele>243.645630</ele>
			</trkpt>
			<trkpt lat="49.929053" lon="17.936850">
				<ele>243.600006</ele>
			</trkpt>
			<trkpt lat="49.929069" lon="17.936931">
				<ele>243.600037</ele>
			</trkpt>
			<trkpt lat="49.929087" lon="17.937011">
				<ele>243.743469</ele>
			</trkpt>
			<trkpt lat="49.929081" lon="17.937128">
				<ele>244.009811</ele>
			</trkpt>
			<trkpt lat="49.929069" lon="17.937227">
				<ele>244.200012</ele>
			</trkpt>
			<trkpt lat="49.929058" lon="17.937308">
				<ele>244.553009</ele>
			</trkpt>
			<trkpt lat="49.929023" lon="17.937434">
				<ele>244.977417</ele>
			</trkpt>
			<trkpt lat="49.928965" lon="17.937541">
				<ele>245.000031</ele>
			</trkpt>
			<trkpt lat="49.928879" lon="17.937631">
				<ele>245.130859</ele>
			</trkpt>
			<trkpt lat="49.928752" lon="17.937757">
				<ele>245.400040</ele>
			</trkpt>
			<trkpt lat="49.928515" lon="17.937955">
				<ele>245.293503</ele>
			</trkpt>
			<trkpt lat="49.928469" lon="17.937927">
				<ele>245.400024</ele>
			</trkpt>
			<trkpt lat="49.928422" lon="17.937919">
				<ele>245.400024</ele>
			</trkpt>
			<trkpt lat="49.928376" lon="17.937946">
				<ele>245.400009</ele>
			</trkpt>
			<trkpt lat="49.928324" lon="17.938000">
				<ele>245.400009</ele>
			</trkpt>
			<trkpt lat="49.928202" lon="17.938143">
				<ele>245.384811</ele>
			</trkpt>
			<trkpt lat="49.928115" lon="17.938279">
				<ele>245.400009</ele>
			</trkpt>
			<trkpt lat="49.928092" lon="17.938315">
				<ele>245.392105</ele>
			</trkpt>
			<trkpt lat="49.928092" lon="17.938315">
				<ele>245.392105</ele>
			</trkpt>
			<trkpt lat="49.928081" lon="17.938332">
				<ele>245.375183</ele>
			</trkpt>
			<trkpt lat="49.928064" lon="17.938386">
				<ele>245.374390</ele>
			</trkpt>
			<trkpt lat="49.928029" lon="17.938539">
				<ele>245.271118</ele>
			</trkpt>
			<trkpt lat="49.927994" lon="17.938583">
				<ele>245.367874</ele>
			</trkpt>
			<trkpt lat="49.927960" lon="17.938602">
				<ele>245.374298</ele>
			</trkpt>
			<trkpt lat="49.927884" lon="17.938611">
				<ele>245.368347</ele>
			</trkpt>
			<trkpt lat="49.927797" lon="17.938583">
				<ele>245.400009</ele>
			</trkpt>
			<trkpt lat="49.927699" lon="17.938449">
				<ele>245.208618</ele>
			</trkpt>
			<trkpt lat="49.927624" lon="17.938323">
				<ele>245.353821</ele>
			</trkpt>
			<trkpt lat="49.927555" lon="17.938162">
				<ele>245.411804</ele>
			</trkpt>
			<trkpt lat="49.927462" lon="17.937910">
				<ele>245.800018</ele>
			</trkpt>
			<trkpt lat="49.927508" lon="17.937866">
				<ele>245.749329</ele>
			</trkpt>
			<trkpt lat="49.927543" lon="17.937803">
				<ele>245.800018</ele>
			</trkpt>
			<trkpt lat="49.927572" lon="17.937730">
				<ele>245.800003</ele>
			</trkpt>
			<trkpt lat="49.927595" lon="17.937667">
				<ele>245.803757</ele>
			</trkpt>
			<trkpt lat="49.927607" lon="17.937569">
				<ele>245.853516</ele>
			</trkpt>
			<trkpt lat="49.927607" lon="17.937451">
				<ele>246.000015</ele>
			</trkpt>
			<trkpt lat="49.927583" lon="17.937344">
				<ele>245.956772</ele>
			</trkpt>
			<trkpt lat="49.927543" lon="17.937227">
				<ele>246.036255</ele>
			</trkpt>
			<trkpt lat="49.927479" lon="17.937155">
				<ele>246.132629</ele>
			</trkpt>
			<trkpt lat="49.927410" lon="17.937093">
				<ele>245.998398</ele>
			</trkpt>
			<trkpt lat="49.927329" lon="17.937074">
				<ele>245.897751</ele>
			</trkpt>
			<trkpt lat="49.927260" lon="17.937084">
				<ele>245.800018</ele>
			</trkpt>
			<trkpt lat="49.927178" lon="17.937120">
				<ele>245.730530</ele>
			</trkpt>
			<trkpt lat="49.927109" lon="17.937200">
				<ele>245.676788</ele>
			</trkpt>
			<trkpt lat="49.927074" lon="17.937281">
				<ele>245.563477</ele>
			</trkpt>
			<trkpt lat="49.927046" lon="17.937380">
				<ele>245.692078</ele>
			</trkpt>
			<trkpt lat="49.927034" lon="17.937451">
				<ele>245.715607</ele>
			</trkpt>
			<trkpt lat="49.927028" lon="17.937533">
				<ele>245.912674</ele>
			</trkpt>
			<trkpt lat="49.927040" lon="17.937613">
				<ele>245.944931</ele>
			</trkpt>
			<trkpt lat="49.927052" lon="17.937703">
				<ele>245.893600</ele>
			</trkpt>
			<trkpt lat="49.926982" lon="17.937721">
				<ele>245.800003</ele>
			</trkpt>
			<trkpt lat="49.926924" lon="17.937776">
				<ele>245.788940</ele>
			</trkpt>
			<trkpt lat="49.926872" lon="17.937856">
				<ele>245.547668</ele>
			</trkpt>
			<trkpt lat="49.926785" lon="17.937990">
				<ele>244.409866</ele>
			</trkpt>
			<trkpt lat="49.926468" lon="17.938556">
				<ele>245.667435</ele>
			</trkpt>
			<trkpt lat="49.926230" lon="17.939005">
				<ele>246.080994</ele>
			</trkpt>
			<trkpt lat="49.926010" lon="17.939419">
				<ele>246.146164</ele>
			</trkpt>
			<trkpt lat="49.925820" lon="17.939824">
				<ele>246.036499</ele>
			</trkpt>
			<trkpt lat="49.925646" lon="17.940237">
				<ele>245.756805</ele>
			</trkpt>
			<trkpt lat="49.925496" lon="17.940659">
				<ele>245.784088</ele>
			</trkpt>
			<trkpt lat="49.925369" lon="17.941055">
				<ele>245.549347</ele>
			</trkpt>
			<trkpt lat="49.924975" lon="17.942267">
				<ele>244.929810</ele>
			</trkpt>
			<trkpt lat="49.924750" lon="17.942950">
				<ele>244.800003</ele>
			</trkpt>
			<trkpt lat="49.924408" lon="17.944045">
				<ele>244.600006</ele>
			</trkpt>
			<trkpt lat="49.924373" lon="17.944019">
				<ele>244.600037</ele>
			</trkpt>
			<trkpt lat="49.924327" lon="17.944001">
				<ele>244.307495</ele>
			</trkpt>
			<trkpt lat="49.924287" lon="17.944001">
				<ele>243.984268</ele>
			</trkpt>
			<trkpt lat="49.924241" lon="17.944019">
				<ele>243.855270</ele>
			</trkpt>
			<trkpt lat="49.924194" lon="17.944045">
				<ele>243.726288</ele>
			</trkpt>
			<trkpt lat="49.924154" lon="17.944091">
				<ele>243.608063</ele>
			</trkpt>
			<trkpt lat="49.924125" lon="17.944145">
				<ele>243.629089</ele>
			</trkpt>
			<trkpt lat="49.924102" lon="17.944198">
				<ele>243.666367</ele>
			</trkpt>
			<trkpt lat="49.924079" lon="17.944261">
				<ele>243.603851</ele>
			</trkpt>
			<trkpt lat="49.924079" lon="17.944315">
				<ele>243.603836</ele>
			</trkpt>
			<trkpt lat="49.924079" lon="17.944387">
				<ele>243.730164</ele>
			</trkpt>
			<trkpt lat="49.924084" lon="17.944458">
				<ele>243.823700</ele>
			</trkpt>
			<trkpt lat="49.924102" lon="17.944531">
				<ele>244.066040</ele>
			</trkpt>
			<trkpt lat="49.924125" lon="17.944584">
				<ele>244.292465</ele>
			</trkpt>
			<trkpt lat="49.924160" lon="17.944648">
				<ele>244.429565</ele>
			</trkpt>
			<trkpt lat="49.924194" lon="17.944674">
				<ele>244.526306</ele>
			</trkpt>
			<trkpt lat="49.923610" lon="17.946533">
				<ele>244.000031</ele>
			</trkpt>
			<trkpt lat="49.923333" lon="17.947405">
				<ele>243.986115</ele>
			</trkpt>
			<trkpt lat="49.923234" lon="17.947693">
				<ele>243.800003</ele>
			</trkpt>
			<trkpt lat="49.922939" lon="17.948663">
				<ele>243.223007</ele>
			</trkpt>
			<trkpt lat="49.922835" lon="17.948969">
				<ele>242.846756</ele>
			</trkpt>
			<trkpt lat="49.922627" lon="17.949426">
				<ele>243.199997</ele>
			</trkpt>
			<trkpt lat="49.922199" lon="17.950351">
				<ele>242.198761</ele>
			</trkpt>
			<trkpt lat="49.922026" lon="17.950747">
				<ele>243.379059</ele>
			</trkpt>
			<trkpt lat="49.921881" lon="17.951106">
				<ele>243.327118</ele>
			</trkpt>
			<trkpt lat="49.921707" lon="17.951619">
				<ele>243.340546</ele>
			</trkpt>
			<trkpt lat="49.921493" lon="17.952248">
				<ele>243.473007</ele>
			</trkpt>
			<trkpt lat="49.921493" lon="17.952248">
				<ele>243.473007</ele>
			</trkpt>
			<trkpt lat="49.921337" lon="17.952705">
				<ele>243.199997</ele>
			</trkpt>
			<trkpt lat="49.921066" lon="17.953514">
				<ele>243.181183</ele>
			</trkpt>
			<trkpt lat="49.920759" lon="17.954456">
				<ele>242.400024</ele>
			</trkpt>
			<trkpt lat="49.919504" lon="17.958167">
				<ele>242.000000</ele>
			</trkpt>
			<trkpt lat="49.919163" lon="17.959190">
				<ele>241.800003</ele>
			</trkpt>
			<trkpt lat="49.918492" lon="17.961213">
				<ele>241.600037</ele>
			</trkpt>
			<trkpt lat="49.918336" lon="17.961680">
				<ele>242.414566</ele>
			</trkpt>
			<trkpt lat="49.918249" lon="17.961949">
				<ele>243.001343</ele>
			</trkpt>
			<trkpt lat="49.918064" lon="17.962479">
				<ele>243.052917</ele>
			</trkpt>
			<trkpt lat="49.917879" lon="17.963018">
				<ele>242.920029</ele>
			</trkpt>
			<trkpt lat="49.917746" lon="17.963467">
				<ele>242.738510</ele>
			</trkpt>
			<trkpt lat="49.917653" lon="17.963835">
				<ele>242.501923</ele>
			</trkpt>
			<trkpt lat="49.917601" lon="17.964069">
				<ele>242.400009</ele>
			</trkpt>
			<trkpt lat="49.917549" lon="17.964051">
				<ele>242.399994</ele>
			</trkpt>
			<trkpt lat="49.917491" lon="17.964051">
				<ele>242.400009</ele>
			</trkpt>
			<trkpt lat="49.917439" lon="17.964077">
				<ele>242.290100</ele>
			</trkpt>
			<trkpt lat="49.917347" lon="17.964114">
				<ele>242.200012</ele>
			</trkpt>
			<trkpt lat="49.917092" lon="17.964267">
				<ele>242.199982</ele>
			</trkpt>
			<trkpt lat="49.917092" lon="17.964267">
				<ele>242.199982</ele>
			</trkpt>
			<trkpt lat="49.917063" lon="17.964284">
				<ele>242.200012</ele>
			</trkpt>
			<trkpt lat="49.916797" lon="17.964482">
				<ele>242.199997</ele>
			</trkpt>
			<trkpt lat="49.916497" lon="17.964689">
				<ele>242.621231</ele>
			</trkpt>
			<trkpt lat="49.915790" lon="17.965201">
				<ele>242.959930</ele>
			</trkpt>
			<trkpt lat="49.915160" lon="17.965677">
				<ele>243.526978</ele>
			</trkpt>
			<trkpt lat="49.914466" lon="17.966171">
				<ele>244.877884</ele>
			</trkpt>
			<trkpt lat="49.914466" lon="17.966171">
				<ele>244.877884</ele>
			</trkpt>
			<trkpt lat="49.914443" lon="17.966188">
				<ele>244.952591</ele>
			</trkpt>
			<trkpt lat="49.913922" lon="17.966521">
				<ele>245.801804</ele>
			</trkpt>
			<trkpt lat="49.913847" lon="17.966557">
				<ele>245.638214</ele>
			</trkpt>
			<trkpt lat="49.913760" lon="17.966584">
				<ele>245.896347</ele>
			</trkpt>
			<trkpt lat="49.913523" lon="17.966567">
				<ele>246.640121</ele>
			</trkpt>
			<trkpt lat="49.913297" lon="17.966575">
				<ele>247.107788</ele>
			</trkpt>
			<trkpt lat="49.913020" lon="17.966620">
				<ele>247.911591</ele>
			</trkpt>
			<trkpt lat="49.912782" lon="17.966683">
				<ele>247.531570</ele>
			</trkpt>
			<trkpt lat="49.912592" lon="17.966754">
				<ele>247.047897</ele>
			</trkpt>
			<trkpt lat="49.912401" lon="17.966890">
				<ele>247.400009</ele>
			</trkpt>
			<trkpt lat="49.912181" lon="17.967069">
				<ele>247.877792</ele>
			</trkpt>
			<trkpt lat="49.911944" lon="17.967293">
				<ele>249.199982</ele>
			</trkpt>
			<trkpt lat="49.911764" lon="17.967429">
				<ele>249.747894</ele>
			</trkpt>
			<trkpt lat="49.911573" lon="17.967536">
				<ele>250.657654</ele>
			</trkpt>
			<trkpt lat="49.911018" lon="17.967752">
				<ele>251.814545</ele>
			</trkpt>
			<trkpt lat="49.910694" lon="17.967869">
				<ele>252.472336</ele>
			</trkpt>
			<trkpt lat="49.910393" lon="17.967949">
				<ele>253.217560</ele>
			</trkpt>
			<trkpt lat="49.910040" lon="17.967985">
				<ele>254.151901</ele>
			</trkpt>
			<trkpt lat="49.909763" lon="17.968003">
				<ele>254.936554</ele>
			</trkpt>
			<trkpt lat="49.909763" lon="17.968003">
				<ele>254.936554</ele>
			</trkpt>
			<trkpt lat="49.909109" lon="17.968039">
				<ele>255.400009</ele>
			</trkpt>
			<trkpt lat="49.908618" lon="17.968093">
				<ele>256.161194</ele>
			</trkpt>
			<trkpt lat="49.908241" lon="17.968138">
				<ele>256.667786</ele>
			</trkpt>
			<trkpt lat="49.907894" lon="17.968211">
				<ele>257.055359</ele>
			</trkpt>
			<trkpt lat="49.906696" lon="17.968417">
				<ele>258.600037</ele>
			</trkpt>
			<trkpt lat="49.905273" lon="17.968677">
				<ele>260.600037</ele>
			</trkpt>
			<trkpt lat="49.904504" lon="17.968857">
				<ele>262.159210</ele>
			</trkpt>
			<trkpt lat="49.903381" lon="17.969144">
				<ele>263.605652</ele>
			</trkpt>
			<trkpt lat="49.900384" lon="17.969953">
				<ele>269.767944</ele>
			</trkpt>
			<trkpt lat="49.899875" lon="17.970069">
				<ele>270.597565</ele>
			</trkpt>
			<trkpt lat="49.899424" lon="17.970159">
				<ele>271.400024</ele>
			</trkpt>
			<trkpt lat="49.898915" lon="17.970213">
				<ele>272.802185</ele>
			</trkpt>
			<trkpt lat="49.898255" lon="17.970222">
				<ele>274.288605</ele>
			</trkpt>
			<trkpt lat="49.896716" lon="17.970232">
				<ele>280.395172</ele>
			</trkpt>
			<trkpt lat="49.896177" lon="17.970249">
				<ele>283.628174</ele>
			</trkpt>
			<trkpt lat="49.895715" lon="17.970295">
				<ele>285.752045</ele>
			</trkpt>
			<trkpt lat="49.895564" lon="17.970312">
				<ele>285.817657</ele>
			</trkpt>
			<trkpt lat="49.895437" lon="17.970339">
				<ele>286.309204</ele>
			</trkpt>
			<trkpt lat="49.895379" lon="17.970375">
				<ele>286.540833</ele>
			</trkpt>
			<trkpt lat="49.895379" lon="17.970375">
				<ele>286.540833</ele>
			</trkpt>
			<trkpt lat="49.895315" lon="17.970420">
				<ele>286.862762</ele>
			</trkpt>
			<trkpt lat="49.895182" lon="17.970519">
				<ele>287.744141</ele>
			</trkpt>
			<trkpt lat="49.895090" lon="17.970599">
				<ele>288.169708</ele>
			</trkpt>
			<trkpt lat="49.894736" lon="17.970922">
				<ele>291.628662</ele>
			</trkpt>
			<trkpt lat="49.894592" lon="17.971031">
				<ele>293.106476</ele>
			</trkpt>
			<trkpt lat="49.894470" lon="17.971102">
				<ele>294.485535</ele>
			</trkpt>
			<trkpt lat="49.894280" lon="17.971201">
				<ele>295.984436</ele>
			</trkpt>
			<trkpt lat="49.894106" lon="17.971247">
				<ele>297.081818</ele>
			</trkpt>
			<trkpt lat="49.893926" lon="17.971264">
				<ele>298.169556</ele>
			</trkpt>
			<trkpt lat="49.893701" lon="17.971255">
				<ele>298.708801</ele>
			</trkpt>
			<trkpt lat="49.893562" lon="17.971228">
				<ele>300.108368</ele>
			</trkpt>
			<trkpt lat="49.893423" lon="17.971211">
				<ele>300.664307</ele>
			</trkpt>
			<trkpt lat="49.893290" lon="17.971157">
				<ele>302.042175</ele>
			</trkpt>
			<trkpt lat="49.893088" lon="17.971067">
				<ele>303.608704</ele>
			</trkpt>
			<trkpt lat="49.892642" lon="17.970851">
				<ele>306.706451</ele>
			</trkpt>
			<trkpt lat="49.892277" lon="17.970662">
				<ele>308.587738</ele>
			</trkpt>
			<trkpt lat="49.891970" lon="17.970483">
				<ele>312.000488</ele>
			</trkpt>
			<trkpt lat="49.891675" lon="17.970295">
				<ele>314.258118</ele>
			</trkpt>
			<trkpt lat="49.891386" lon="17.970079">
				<ele>317.134949</ele>
			</trkpt>
			<trkpt lat="49.891085" lon="17.969854">
				<ele>319.191772</ele>
			</trkpt>
			<trkpt lat="49.890842" lon="17.969630">
				<ele>320.799988</ele>
			</trkpt>
			<trkpt lat="49.890541" lon="17.969377">
				<ele>322.100220</ele>
			</trkpt>
			<trkpt lat="49.890246" lon="17.969163">
				<ele>322.406311</ele>
			</trkpt>
			<trkpt lat="49.890096" lon="17.969073">
				<ele>323.032288</ele>
			</trkpt>
			<trkpt lat="49.889945" lon="17.968991">
				<ele>322.823242</ele>
			</trkpt>
			<trkpt lat="49.889661" lon="17.968875">
				<ele>322.295593</ele>
			</trkpt>
			<trkpt lat="49.888301" lon="17.968335">
				<ele>322.586945</ele>
			</trkpt>
			<trkpt lat="49.888174" lon="17.968282">
				<ele>322.799988</ele>
			</trkpt>
			<trkpt lat="49.888087" lon="17.968264">
				<ele>322.811401</ele>
			</trkpt>
			<trkpt lat="49.887995" lon="17.968255">
				<ele>323.127319</ele>
			</trkpt>
			<trkpt lat="49.887925" lon="17.968264">
				<ele>323.347290</ele>
			</trkpt>
			<trkpt lat="49.887850" lon="17.968291">
				<ele>323.677856</ele>
			</trkpt>
			<trkpt lat="49.887804" lon="17.968345">
				<ele>323.768646</ele>
			</trkpt>
			<trkpt lat="49.887740" lon="17.968408">
				<ele>323.777222</ele>
			</trkpt>
			<trkpt lat="49.887699" lon="17.968488">
				<ele>324.159241</ele>
			</trkpt>
			<trkpt lat="49.887606" lon="17.968749">
				<ele>326.005310</ele>
			</trkpt>
			<trkpt lat="49.887526" lon="17.969010">
				<ele>327.966034</ele>
			</trkpt>
			<trkpt lat="49.887427" lon="17.969396">
				<ele>329.825897</ele>
			</trkpt>
			<trkpt lat="49.887386" lon="17.969513">
				<ele>330.528625</ele>
			</trkpt>
			<trkpt lat="49.887340" lon="17.969620">
				<ele>330.554596</ele>
			</trkpt>
			<trkpt lat="49.887283" lon="17.969719">
				<ele>330.712799</ele>
			</trkpt>
			<trkpt lat="49.887230" lon="17.969773">
				<ele>330.729187</ele>
			</trkpt>
			<trkpt lat="49.887144" lon="17.969836">
				<ele>330.825806</ele>
			</trkpt>
			<trkpt lat="49.887074" lon="17.969872">
				<ele>331.171906</ele>
			</trkpt>
			<trkpt lat="49.886912" lon="17.969899">
				<ele>332.538757</ele>
			</trkpt>
			<trkpt lat="49.886675" lon="17.969917">
				<ele>334.776794</ele>
			</trkpt>
			<trkpt lat="49.886055" lon="17.969943">
				<ele>338.987976</ele>
			</trkpt>
			<trkpt lat="49.885697" lon="17.969926">
				<ele>339.902100</ele>
			</trkpt>
			<trkpt lat="49.885453" lon="17.969880">
				<ele>341.203369</ele>
			</trkpt>
			<trkpt lat="49.885193" lon="17.969800">
				<ele>343.650360</ele>
			</trkpt>
			<trkpt lat="49.884742" lon="17.969603">
				<ele>347.133698</ele>
			</trkpt>
			<trkpt lat="49.884209" lon="17.969333">
				<ele>350.943024</ele>
			</trkpt>
			<trkpt lat="49.883462" lon="17.968938">
				<ele>356.623199</ele>
			</trkpt>
			<trkpt lat="49.883161" lon="17.968767">
				<ele>359.421570</ele>
			</trkpt>
			<trkpt lat="49.882860" lon="17.968569">
				<ele>361.504364</ele>
			</trkpt>
			<trkpt lat="49.882791" lon="17.968525">
				<ele>362.122803</ele>
			</trkpt>
			<trkpt lat="49.882623" lon="17.968398">
				<ele>363.846466</ele>
			</trkpt>
			<trkpt lat="49.882525" lon="17.968309">
				<ele>364.683228</ele>
			</trkpt>
			<trkpt lat="49.882420" lon="17.968211">
				<ele>365.377136</ele>
			</trkpt>
			<trkpt lat="49.882322" lon="17.968093">
				<ele>366.560852</ele>
			</trkpt>
			<trkpt lat="49.882079" lon="17.967770">
				<ele>368.028564</ele>
			</trkpt>
			<trkpt lat="49.881992" lon="17.967635">
				<ele>368.411926</ele>
			</trkpt>
			<trkpt lat="49.881923" lon="17.967536">
				<ele>368.888733</ele>
			</trkpt>
			<trkpt lat="49.881848" lon="17.967446">
				<ele>369.206421</ele>
			</trkpt>
			<trkpt lat="49.881767" lon="17.967375">
				<ele>369.478973</ele>
			</trkpt>
			<trkpt lat="49.881622" lon="17.967267">
				<ele>369.378021</ele>
			</trkpt>
			<trkpt lat="49.881246" lon="17.966980">
				<ele>370.105164</ele>
			</trkpt>
			<trkpt lat="49.880927" lon="17.966710">
				<ele>370.753723</ele>
			</trkpt>
			<trkpt lat="49.880690" lon="17.966504">
				<ele>371.114594</ele>
			</trkpt>
			<trkpt lat="49.880603" lon="17.966414">
				<ele>371.414856</ele>
			</trkpt>
			<trkpt lat="49.880516" lon="17.966297">
				<ele>371.452148</ele>
			</trkpt>
			<trkpt lat="49.880401" lon="17.966135">
				<ele>371.792633</ele>
			</trkpt>
			<trkpt lat="49.880401" lon="17.966135">
				<ele>371.792633</ele>
			</trkpt>
			<trkpt lat="49.880342" lon="17.966045">
				<ele>372.047180</ele>
			</trkpt>
			<trkpt lat="49.880186" lon="17.965829">
				<ele>372.382263</ele>
			</trkpt>
			<trkpt lat="49.880059" lon="17.965614">
				<ele>372.962280</ele>
			</trkpt>
			<trkpt lat="49.879990" lon="17.965506">
				<ele>373.110016</ele>
			</trkpt>
			<trkpt lat="49.879926" lon="17.965425">
				<ele>373.387299</ele>
			</trkpt>
			<trkpt lat="49.879723" lon="17.965201">
				<ele>374.070160</ele>
			</trkpt>
			<trkpt lat="49.879538" lon="17.965471">
				<ele>373.196167</ele>
			</trkpt>
			<trkpt lat="49.879463" lon="17.965578">
				<ele>373.229126</ele>
			</trkpt>
			<trkpt lat="49.879416" lon="17.965712">
				<ele>373.287079</ele>
			</trkpt>
			<trkpt lat="49.879387" lon="17.965848">
				<ele>373.390717</ele>
			</trkpt>
			<trkpt lat="49.879359" lon="17.966072">
				<ele>373.609497</ele>
			</trkpt>
			<trkpt lat="49.879219" lon="17.967123">
				<ele>374.604950</ele>
			</trkpt>
			<trkpt lat="49.878913" lon="17.969270">
				<ele>385.069061</ele>
			</trkpt>
			<trkpt lat="49.878803" lon="17.969980">
				<ele>388.748169</ele>
			</trkpt>
			<trkpt lat="49.878652" lon="17.970914">
				<ele>392.277771</ele>
			</trkpt>
			<trkpt lat="49.878589" lon="17.971247">
				<ele>393.337006</ele>
			</trkpt>
			<trkpt lat="49.878508" lon="17.971570">
				<ele>394.001068</ele>
			</trkpt>
			<trkpt lat="49.878421" lon="17.971875">
				<ele>395.003052</ele>
			</trkpt>
			<trkpt lat="49.878282" lon="17.972280">
				<ele>396.275146</ele>
			</trkpt>
			<trkpt lat="49.878201" lon="17.972666">
				<ele>397.344818</ele>
			</trkpt>
			<trkpt lat="49.878114" lon="17.972998">
				<ele>397.919617</ele>
			</trkpt>
			<trkpt lat="49.877790" lon="17.974121">
				<ele>399.158447</ele>
			</trkpt>
			<trkpt lat="49.877708" lon="17.974381">
				<ele>399.036041</ele>
			</trkpt>
			<trkpt lat="49.877581" lon="17.974687">
				<ele>398.818817</ele>
			</trkpt>
			<trkpt lat="49.877523" lon="17.974840">
				<ele>398.702881</ele>
			</trkpt>
			<trkpt lat="49.877413" lon="17.975109">
				<ele>398.086670</ele>
			</trkpt>
			<trkpt lat="49.877356" lon="17.975209">
				<ele>398.178955</ele>
			</trkpt>
			<trkpt lat="49.877280" lon="17.975298">
				<ele>398.438751</ele>
			</trkpt>
			<trkpt lat="49.877066" lon="17.975513">
				<ele>398.952820</ele>
			</trkpt>
			<trkpt lat="49.877066" lon="17.975513">
				<ele>398.952820</ele>
			</trkpt>
			<trkpt lat="49.876973" lon="17.975612">
				<ele>399.082123</ele>
			</trkpt>
			<trkpt lat="49.876945" lon="17.975657">
				<ele>398.981537</ele>
			</trkpt>
			<trkpt lat="49.876846" lon="17.975746">
				<ele>399.176514</ele>
			</trkpt>
			<trkpt lat="49.876771" lon="17.975783">
				<ele>399.606445</ele>
			</trkpt>
			<trkpt lat="49.876719" lon="17.975809">
				<ele>399.778473</ele>
			</trkpt>
			<trkpt lat="49.876666" lon="17.975819">
				<ele>399.902100</ele>
			</trkpt>
			<trkpt lat="49.876556" lon="17.975801">
				<ele>400.262238</ele>
			</trkpt>
			<trkpt lat="49.876099" lon="17.975702">
				<ele>401.467102</ele>
			</trkpt>
			<trkpt lat="49.875590" lon="17.975540">
				<ele>403.611481</ele>
			</trkpt>
			<trkpt lat="49.875410" lon="17.975486">
				<ele>404.072235</ele>
			</trkpt>
			<trkpt lat="49.875208" lon="17.975433">
				<ele>404.594299</ele>
			</trkpt>
			<trkpt lat="49.874958" lon="17.975333">
				<ele>405.073761</ele>
			</trkpt>
			<trkpt lat="49.874843" lon="17.975270">
				<ele>405.251129</ele>
			</trkpt>
			<trkpt lat="49.874745" lon="17.975209">
				<ele>405.428497</ele>
			</trkpt>
			<trkpt lat="49.874658" lon="17.975127">
				<ele>405.599976</ele>
			</trkpt>
			<trkpt lat="49.874571" lon="17.975037">
				<ele>405.617615</ele>
			</trkpt>
			<trkpt lat="49.874484" lon="17.974930">
				<ele>405.671326</ele>
			</trkpt>
			<trkpt lat="49.874380" lon="17.974767">
				<ele>405.957275</ele>
			</trkpt>
			<trkpt lat="49.874270" lon="17.974570">
				<ele>406.085205</ele>
			</trkpt>
			<trkpt lat="49.874114" lon="17.974238">
				<ele>406.012787</ele>
			</trkpt>
			<trkpt lat="49.874021" lon="17.974022">
				<ele>406.146851</ele>
			</trkpt>
			<trkpt lat="49.873911" lon="17.973654">
				<ele>406.100433</ele>
			</trkpt>
			<trkpt lat="49.873714" lon="17.972953">
				<ele>406.867950</ele>
			</trkpt>
			<trkpt lat="49.873633" lon="17.972693">
				<ele>407.261261</ele>
			</trkpt>
			<trkpt lat="49.873546" lon="17.972469">
				<ele>407.174133</ele>
			</trkpt>
			<trkpt lat="49.873436" lon="17.972234">
				<ele>407.407227</ele>
			</trkpt>
			<trkpt lat="49.873314" lon="17.972019">
				<ele>407.331146</ele>
			</trkpt>
			<trkpt lat="49.872782" lon="17.971138">
				<ele>407.930389</ele>
			</trkpt>
			<trkpt lat="49.872331" lon="17.970429">
				<ele>408.296753</ele>
			</trkpt>
			<trkpt lat="49.871665" lon="17.969396">
				<ele>409.714844</ele>
			</trkpt>
			<trkpt lat="49.871352" lon="17.968920">
				<ele>410.562683</ele>
			</trkpt>
			<trkpt lat="49.871080" lon="17.968561">
				<ele>411.417847</ele>
			</trkpt>
		</trkseg>
	</trk>
</gpx>

