<?xml version="1.0" encoding="utf-8"?>
<gpx xmlns="http://www.topografix.com/GPX/1/1" version="1.1" creator="https://mapy.com/">
	<trk>
		<name>215</name>
		<trkseg>
			<trkpt lat="49.937414" lon="17.881756">
				<ele>271.770996</ele>
			</trkpt>
			<trkpt lat="49.937015" lon="17.881810">
				<ele>270.453156</ele>
			</trkpt>
			<trkpt lat="49.937194" lon="17.883229">
				<ele>268.604431</ele>
			</trkpt>
			<trkpt lat="49.937194" lon="17.883229">
				<ele>268.604431</ele>
			</trkpt>
			<trkpt lat="49.937292" lon="17.884030">
				<ele>267.637817</ele>
			</trkpt>
			<trkpt lat="49.937535" lon="17.883867">
				<ele>268.003967</ele>
			</trkpt>
			<trkpt lat="49.937957" lon="17.883598">
				<ele>269.252258</ele>
			</trkpt>
			<trkpt lat="49.938078" lon="17.883525">
				<ele>270.035736</ele>
			</trkpt>
			<trkpt lat="49.938223" lon="17.883445">
				<ele>270.649719</ele>
			</trkpt>
			<trkpt lat="49.938379" lon="17.883374">
				<ele>271.303619</ele>
			</trkpt>
			<trkpt lat="49.938541" lon="17.883328">
				<ele>271.924927</ele>
			</trkpt>
			<trkpt lat="49.938737" lon="17.883284">
				<ele>272.749390</ele>
			</trkpt>
			<trkpt lat="49.938911" lon="17.883248">
				<ele>273.345947</ele>
			</trkpt>
			<trkpt lat="49.939252" lon="17.883158">
				<ele>275.303894</ele>
			</trkpt>
			<trkpt lat="49.939582" lon="17.883059">
				<ele>276.569794</ele>
			</trkpt>
			<trkpt lat="49.940062" lon="17.882870">
				<ele>278.053162</ele>
			</trkpt>
			<trkpt lat="49.940691" lon="17.882573">
				<ele>279.059204</ele>
			</trkpt>
			<trkpt lat="49.940825" lon="17.882502">
				<ele>279.391205</ele>
			</trkpt>
			<trkpt lat="49.940825" lon="17.882502">
				<ele>279.391205</ele>
			</trkpt>
			<trkpt lat="49.940888" lon="17.882475">
				<ele>279.503906</ele>
			</trkpt>
			<trkpt lat="49.941229" lon="17.882313">
				<ele>280.420563</ele>
			</trkpt>
			<trkpt lat="49.941975" lon="17.881980">
				<ele>275.782593</ele>
			</trkpt>
			<trkpt lat="49.942230" lon="17.881927">
				<ele>275.141296</ele>
			</trkpt>
			<trkpt lat="49.942351" lon="17.881900">
				<ele>275.099060</ele>
			</trkpt>
			<trkpt lat="49.942507" lon="17.881891">
				<ele>273.939972</ele>
			</trkpt>
			<trkpt lat="49.942657" lon="17.881900">
				<ele>273.064117</ele>
			</trkpt>
			<trkpt lat="49.942802" lon="17.881936">
				<ele>272.139282</ele>
			</trkpt>
			<trkpt lat="49.942946" lon="17.881972">
				<ele>271.903717</ele>
			</trkpt>
			<trkpt lat="49.943114" lon="17.882035">
				<ele>271.400055</ele>
			</trkpt>
			<trkpt lat="49.943461" lon="17.882214">
				<ele>270.368652</ele>
			</trkpt>
			<trkpt lat="49.944010" lon="17.882511">
				<ele>267.892151</ele>
			</trkpt>
			<trkpt lat="49.944357" lon="17.882726">
				<ele>266.205902</ele>
			</trkpt>
			<trkpt lat="49.944709" lon="17.882933">
				<ele>264.866486</ele>
			</trkpt>
			<trkpt lat="49.944969" lon="17.883068">
				<ele>263.326965</ele>
			</trkpt>
			<trkpt lat="49.945183" lon="17.883238">
				<ele>262.533661</ele>
			</trkpt>
			<trkpt lat="49.945455" lon="17.883464">
				<ele>260.657104</ele>
			</trkpt>
			<trkpt lat="49.945664" lon="17.883643">
				<ele>259.265503</ele>
			</trkpt>
			<trkpt lat="49.945912" lon="17.883858">
				<ele>258.511414</ele>
			</trkpt>
			<trkpt lat="49.945912" lon="17.883858">
				<ele>258.511414</ele>
			</trkpt>
			<trkpt lat="49.946403" lon="17.884298">
				<ele>257.088989</ele>
			</trkpt>
			<trkpt lat="49.946392" lon="17.884370">
				<ele>256.994507</ele>
			</trkpt>
			<trkpt lat="49.946392" lon="17.884433">
				<ele>256.929108</ele>
			</trkpt>
			<trkpt lat="49.946409" lon="17.884496">
				<ele>256.883240</ele>
			</trkpt>
			<trkpt lat="49.946444" lon="17.884550">
				<ele>256.761200</ele>
			</trkpt>
			<trkpt lat="49.946276" lon="17.884864">
				<ele>256.798828</ele>
			</trkpt>
			<trkpt lat="49.946160" lon="17.885116">
				<ele>256.781921</ele>
			</trkpt>
			<trkpt lat="49.945999" lon="17.885529">
				<ele>256.569122</ele>
			</trkpt>
			<trkpt lat="49.945854" lon="17.885871">
				<ele>257.041809</ele>
			</trkpt>
			<trkpt lat="49.945721" lon="17.886212">
				<ele>257.418091</ele>
			</trkpt>
			<trkpt lat="49.945461" lon="17.886850">
				<ele>258.496735</ele>
			</trkpt>
			<trkpt lat="49.945051" lon="17.887856">
				<ele>260.619690</ele>
			</trkpt>
			<trkpt lat="49.944750" lon="17.888592">
				<ele>261.296509</ele>
			</trkpt>
			<trkpt lat="49.944744" lon="17.888601">
				<ele>261.339478</ele>
			</trkpt>
			<trkpt lat="49.944744" lon="17.888601">
				<ele>261.339478</ele>
			</trkpt>
			<trkpt lat="49.944299" lon="17.889706">
				<ele>261.379761</ele>
			</trkpt>
			<trkpt lat="49.944004" lon="17.890416">
				<ele>261.621338</ele>
			</trkpt>
			<trkpt lat="49.943727" lon="17.891027">
				<ele>263.211304</ele>
			</trkpt>
			<trkpt lat="49.943692" lon="17.891108">
				<ele>263.336426</ele>
			</trkpt>
			<trkpt lat="49.943397" lon="17.891728">
				<ele>263.799988</ele>
			</trkpt>
			<trkpt lat="49.942946" lon="17.892689">
				<ele>264.579712</ele>
			</trkpt>
			<trkpt lat="49.942709" lon="17.893183">
				<ele>264.775665</ele>
			</trkpt>
			<trkpt lat="49.942340" lon="17.894009">
				<ele>265.149750</ele>
			</trkpt>
			<trkpt lat="49.942235" lon="17.894251">
				<ele>264.799988</ele>
			</trkpt>
			<trkpt lat="49.942021" lon="17.894773">
				<ele>264.644409</ele>
			</trkpt>
			<trkpt lat="49.941998" lon="17.894836">
				<ele>264.604584</ele>
			</trkpt>
			<trkpt lat="49.941998" lon="17.894836">
				<ele>264.604584</ele>
			</trkpt>
			<trkpt lat="49.941813" lon="17.895249">
				<ele>264.400024</ele>
			</trkpt>
			<trkpt lat="49.941357" lon="17.896246">
				<ele>263.600037</ele>
			</trkpt>
			<trkpt lat="49.941090" lon="17.896821">
				<ele>263.100891</ele>
			</trkpt>
			<trkpt lat="49.940738" lon="17.897567">
				<ele>261.945374</ele>
			</trkpt>
			<trkpt lat="49.940570" lon="17.897917">
				<ele>261.734650</ele>
			</trkpt>
			<trkpt lat="49.940304" lon="17.898483">
				<ele>261.208069</ele>
			</trkpt>
			<trkpt lat="49.940229" lon="17.898636">
				<ele>260.896393</ele>
			</trkpt>
			<trkpt lat="49.940131" lon="17.898851">
				<ele>260.965088</ele>
			</trkpt>
			<trkpt lat="49.939981" lon="17.899148">
				<ele>260.945770</ele>
			</trkpt>
			<trkpt lat="49.939836" lon="17.899435">
				<ele>260.796509</ele>
			</trkpt>
			<trkpt lat="49.939755" lon="17.899615">
				<ele>260.570801</ele>
			</trkpt>
			<trkpt lat="49.939610" lon="17.899938">
				<ele>260.162323</ele>
			</trkpt>
			<trkpt lat="49.939507" lon="17.900207">
				<ele>260.000000</ele>
			</trkpt>
			<trkpt lat="49.939420" lon="17.900441">
				<ele>260.000000</ele>
			</trkpt>
			<trkpt lat="49.939368" lon="17.900630">
				<ele>259.600067</ele>
			</trkpt>
			<trkpt lat="49.939327" lon="17.900809">
				<ele>259.229950</ele>
			</trkpt>
			<trkpt lat="49.939327" lon="17.900809">
				<ele>259.229950</ele>
			</trkpt>
			<trkpt lat="49.939298" lon="17.900953">
				<ele>258.684174</ele>
			</trkpt>
			<trkpt lat="49.939240" lon="17.901393">
				<ele>257.999969</ele>
			</trkpt>
			<trkpt lat="49.939183" lon="17.901852">
				<ele>257.800018</ele>
			</trkpt>
			<trkpt lat="49.939096" lon="17.902444">
				<ele>257.400024</ele>
			</trkpt>
			<trkpt lat="49.939079" lon="17.902570">
				<ele>257.200012</ele>
			</trkpt>
			<trkpt lat="49.939021" lon="17.903056">
				<ele>257.000000</ele>
			</trkpt>
			<trkpt lat="49.939009" lon="17.903173">
				<ele>257.000000</ele>
			</trkpt>
			<trkpt lat="49.939015" lon="17.903262">
				<ele>256.979248</ele>
			</trkpt>
			<trkpt lat="49.939021" lon="17.903333">
				<ele>256.893005</ele>
			</trkpt>
			<trkpt lat="49.939044" lon="17.903469">
				<ele>256.799988</ele>
			</trkpt>
			<trkpt lat="49.939084" lon="17.903586">
				<ele>256.799988</ele>
			</trkpt>
			<trkpt lat="49.939374" lon="17.904358">
				<ele>256.600037</ele>
			</trkpt>
			<trkpt lat="49.939408" lon="17.904457">
				<ele>256.587128</ele>
			</trkpt>
			<trkpt lat="49.939431" lon="17.904555">
				<ele>256.313019</ele>
			</trkpt>
			<trkpt lat="49.939437" lon="17.904654">
				<ele>256.200012</ele>
			</trkpt>
			<trkpt lat="49.939437" lon="17.904754">
				<ele>256.121368</ele>
			</trkpt>
			<trkpt lat="49.939414" lon="17.904915">
				<ele>255.992737</ele>
			</trkpt>
			<trkpt lat="49.939374" lon="17.905050">
				<ele>255.904114</ele>
			</trkpt>
			<trkpt lat="49.939344" lon="17.905148">
				<ele>255.831665</ele>
			</trkpt>
			<trkpt lat="49.939183" lon="17.905507">
				<ele>255.267349</ele>
			</trkpt>
			<trkpt lat="49.939183" lon="17.905507">
				<ele>255.267349</ele>
			</trkpt>
			<trkpt lat="49.939114" lon="17.905660">
				<ele>255.030899</ele>
			</trkpt>
			<trkpt lat="49.938772" lon="17.906370">
				<ele>255.199997</ele>
			</trkpt>
			<trkpt lat="49.938697" lon="17.906505">
				<ele>255.014984</ele>
			</trkpt>
			<trkpt lat="49.938616" lon="17.906639">
				<ele>254.800003</ele>
			</trkpt>
			<trkpt lat="49.938426" lon="17.906999">
				<ele>254.423004</ele>
			</trkpt>
			<trkpt lat="49.938292" lon="17.907259">
				<ele>254.199997</ele>
			</trkpt>
			<trkpt lat="49.938153" lon="17.907125">
				<ele>254.200012</ele>
			</trkpt>
			<trkpt lat="49.937905" lon="17.906873">
				<ele>254.400009</ele>
			</trkpt>
			<trkpt lat="49.937448" lon="17.906415">
				<ele>254.399994</ele>
			</trkpt>
			<trkpt lat="49.937344" lon="17.906316">
				<ele>254.416534</ele>
			</trkpt>
			<trkpt lat="49.937344" lon="17.906316">
				<ele>254.416534</ele>
			</trkpt>
			<trkpt lat="49.937229" lon="17.906209">
				<ele>254.638718</ele>
			</trkpt>
			<trkpt lat="49.937038" lon="17.906037">
				<ele>255.056488</ele>
			</trkpt>
			<trkpt lat="49.936841" lon="17.905903">
				<ele>255.441315</ele>
			</trkpt>
			<trkpt lat="49.936621" lon="17.905796">
				<ele>255.854004</ele>
			</trkpt>
			<trkpt lat="49.936407" lon="17.905741">
				<ele>256.399994</ele>
			</trkpt>
			<trkpt lat="49.936263" lon="17.905714">
				<ele>256.645386</ele>
			</trkpt>
			<trkpt lat="49.936089" lon="17.905706">
				<ele>256.866852</ele>
			</trkpt>
			<trkpt lat="49.935991" lon="17.905696">
				<ele>257.093750</ele>
			</trkpt>
			<trkpt lat="49.935812" lon="17.905706">
				<ele>257.410400</ele>
			</trkpt>
			<trkpt lat="49.935748" lon="17.905723">
				<ele>257.533997</ele>
			</trkpt>
			<trkpt lat="49.935673" lon="17.905796">
				<ele>257.730469</ele>
			</trkpt>
			<trkpt lat="49.935558" lon="17.905544">
				<ele>258.376648</ele>
			</trkpt>
			<trkpt lat="49.935309" lon="17.905014">
				<ele>259.813446</ele>
			</trkpt>
			<trkpt lat="49.935205" lon="17.904815">
				<ele>260.629333</ele>
			</trkpt>
			<trkpt lat="49.935095" lon="17.904601">
				<ele>261.337585</ele>
			</trkpt>
			<trkpt lat="49.934719" lon="17.903989">
				<ele>263.912354</ele>
			</trkpt>
			<trkpt lat="49.934656" lon="17.903863">
				<ele>264.059387</ele>
			</trkpt>
			<trkpt lat="49.934615" lon="17.903702">
				<ele>264.523682</ele>
			</trkpt>
			<trkpt lat="49.934586" lon="17.903567">
				<ele>264.881775</ele>
			</trkpt>
			<trkpt lat="49.934592" lon="17.903469">
				<ele>265.064606</ele>
			</trkpt>
			<trkpt lat="49.934603" lon="17.903370">
				<ele>265.160583</ele>
			</trkpt>
			<trkpt lat="49.934632" lon="17.903262">
				<ele>265.011108</ele>
			</trkpt>
			<trkpt lat="49.934719" lon="17.903046">
				<ele>264.635376</ele>
			</trkpt>
			<trkpt lat="49.935055" lon="17.902310">
				<ele>265.071777</ele>
			</trkpt>
			<trkpt lat="49.935194" lon="17.901968">
				<ele>265.000305</ele>
			</trkpt>
			<trkpt lat="49.935153" lon="17.901924">
				<ele>265.119568</ele>
			</trkpt>
			<trkpt lat="49.935106" lon="17.901878">
				<ele>265.200012</ele>
			</trkpt>
			<trkpt lat="49.934974" lon="17.901815">
				<ele>265.481812</ele>
			</trkpt>
			<trkpt lat="49.934904" lon="17.901798">
				<ele>265.600037</ele>
			</trkpt>
			<trkpt lat="49.934707" lon="17.901771">
				<ele>266.049927</ele>
			</trkpt>
			<trkpt lat="49.934581" lon="17.901735">
				<ele>266.600067</ele>
			</trkpt>
			<trkpt lat="49.934418" lon="17.901672">
				<ele>266.844360</ele>
			</trkpt>
			<trkpt lat="49.934251" lon="17.901582">
				<ele>267.453430</ele>
			</trkpt>
			<trkpt lat="49.934083" lon="17.901456">
				<ele>267.761597</ele>
			</trkpt>
			<trkpt lat="49.933909" lon="17.901312">
				<ele>268.296448</ele>
			</trkpt>
			<trkpt lat="49.933713" lon="17.901115">
				<ele>268.905457</ele>
			</trkpt>
			<trkpt lat="49.933580" lon="17.900980">
				<ele>269.231567</ele>
			</trkpt>
			<trkpt lat="49.933453" lon="17.900873">
				<ele>269.300659</ele>
			</trkpt>
			<trkpt lat="49.933325" lon="17.900783">
				<ele>269.602814</ele>
			</trkpt>
			<trkpt lat="49.933175" lon="17.900693">
				<ele>269.970978</ele>
			</trkpt>
			<trkpt lat="49.932626" lon="17.900396">
				<ele>271.518829</ele>
			</trkpt>
			<trkpt lat="49.932527" lon="17.900333">
				<ele>271.798248</ele>
			</trkpt>
			<trkpt lat="49.932429" lon="17.900270">
				<ele>272.200928</ele>
			</trkpt>
			<trkpt lat="49.931811" lon="17.899930">
				<ele>274.460114</ele>
			</trkpt>
			<trkpt lat="49.931544" lon="17.899777">
				<ele>274.799988</ele>
			</trkpt>
			<trkpt lat="49.931348" lon="17.899660">
				<ele>275.319672</ele>
			</trkpt>
			<trkpt lat="49.931174" lon="17.899597">
				<ele>276.003326</ele>
			</trkpt>
			<trkpt lat="49.931174" lon="17.899597">
				<ele>276.003326</ele>
			</trkpt>
			<trkpt lat="49.931163" lon="17.899597">
				<ele>276.035583</ele>
			</trkpt>
			<trkpt lat="49.930909" lon="17.899552">
				<ele>276.773743</ele>
			</trkpt>
			<trkpt lat="49.930209" lon="17.899480">
				<ele>279.522827</ele>
			</trkpt>
			<trkpt lat="49.929995" lon="17.899454">
				<ele>279.768311</ele>
			</trkpt>
			<trkpt lat="49.929810" lon="17.899391">
				<ele>279.897156</ele>
			</trkpt>
			<trkpt lat="49.929388" lon="17.899211">
				<ele>279.799988</ele>
			</trkpt>
			<trkpt lat="49.929133" lon="17.899094">
				<ele>279.776978</ele>
			</trkpt>
			<trkpt lat="49.929162" lon="17.898949">
				<ele>279.799988</ele>
			</trkpt>
			<trkpt lat="49.929203" lon="17.898869">
				<ele>279.652863</ele>
			</trkpt>
			<trkpt lat="49.929249" lon="17.898788">
				<ele>279.440155</ele>
			</trkpt>
			<trkpt lat="49.929468" lon="17.898519">
				<ele>278.964661</ele>
			</trkpt>
			<trkpt lat="49.929717" lon="17.898240">
				<ele>277.984589</ele>
			</trkpt>
			<trkpt lat="49.929717" lon="17.898240">
				<ele>277.984589</ele>
			</trkpt>
			<trkpt lat="49.930174" lon="17.897728">
				<ele>277.051941</ele>
			</trkpt>
			<trkpt lat="49.930359" lon="17.897530">
				<ele>276.493042</ele>
			</trkpt>
			<trkpt lat="49.930521" lon="17.897414">
				<ele>276.006561</ele>
			</trkpt>
			<trkpt lat="49.930816" lon="17.897234">
				<ele>275.004120</ele>
			</trkpt>
			<trkpt lat="49.931273" lon="17.896983">
				<ele>274.000000</ele>
			</trkpt>
			<trkpt lat="49.931863" lon="17.896659">
				<ele>273.068573</ele>
			</trkpt>
			<trkpt lat="49.932082" lon="17.896534">
				<ele>272.645172</ele>
			</trkpt>
			<trkpt lat="49.932256" lon="17.896425">
				<ele>272.161438</ele>
			</trkpt>
			<trkpt lat="49.932412" lon="17.896354">
				<ele>271.927704</ele>
			</trkpt>
			<trkpt lat="49.932586" lon="17.896255">
				<ele>271.799988</ele>
			</trkpt>
			<trkpt lat="49.932725" lon="17.896165">
				<ele>271.749725</ele>
			</trkpt>
			<trkpt lat="49.932811" lon="17.896129">
				<ele>271.592133</ele>
			</trkpt>
			<trkpt lat="49.932880" lon="17.896093">
				<ele>271.398651</ele>
			</trkpt>
			<trkpt lat="49.932915" lon="17.896075">
				<ele>271.301880</ele>
			</trkpt>
			<trkpt lat="49.932961" lon="17.896066">
				<ele>271.172913</ele>
			</trkpt>
			<trkpt lat="49.932996" lon="17.896066">
				<ele>271.076172</ele>
			</trkpt>
			<trkpt lat="49.933031" lon="17.896075">
				<ele>270.979401</ele>
			</trkpt>
			<trkpt lat="49.933060" lon="17.896102">
				<ele>270.893433</ele>
			</trkpt>
			<trkpt lat="49.933083" lon="17.896148">
				<ele>270.828949</ele>
			</trkpt>
			<trkpt lat="49.933100" lon="17.896183">
				<ele>270.775177</ele>
			</trkpt>
			<trkpt lat="49.933100" lon="17.896246">
				<ele>270.775177</ele>
			</trkpt>
			<trkpt lat="49.933042" lon="17.896641">
				<ele>270.894348</ele>
			</trkpt>
			<trkpt lat="49.933042" lon="17.896641">
				<ele>270.894348</ele>
			</trkpt>
			<trkpt lat="49.933042" lon="17.896641">
				<ele>270.894348</ele>
			</trkpt>
			<trkpt lat="49.932822" lon="17.898349">
				<ele>270.959839</ele>
			</trkpt>
			<trkpt lat="49.932551" lon="17.900181">
				<ele>271.723022</ele>
			</trkpt>
			<trkpt lat="49.932527" lon="17.900333">
				<ele>271.798248</ele>
			</trkpt>
			<trkpt lat="49.932429" lon="17.900270">
				<ele>272.200928</ele>
			</trkpt>
			<trkpt lat="49.931811" lon="17.899930">
				<ele>274.460114</ele>
			</trkpt>
			<trkpt lat="49.931544" lon="17.899777">
				<ele>274.799988</ele>
			</trkpt>
			<trkpt lat="49.931348" lon="17.899660">
				<ele>275.319672</ele>
			</trkpt>
			<trkpt lat="49.931163" lon="17.899597">
				<ele>276.035583</ele>
			</trkpt>
			<trkpt lat="49.930909" lon="17.899552">
				<ele>276.773743</ele>
			</trkpt>
			<trkpt lat="49.930209" lon="17.899480">
				<ele>279.522827</ele>
			</trkpt>
			<trkpt lat="49.929995" lon="17.899454">
				<ele>279.768311</ele>
			</trkpt>
			<trkpt lat="49.929810" lon="17.899391">
				<ele>279.897156</ele>
			</trkpt>
			<trkpt lat="49.929388" lon="17.899211">
				<ele>279.799988</ele>
			</trkpt>
			<trkpt lat="49.929133" lon="17.899094">
				<ele>279.776978</ele>
			</trkpt>
			<trkpt lat="49.928445" lon="17.898779">
				<ele>280.001007</ele>
			</trkpt>
			<trkpt lat="49.928098" lon="17.898609">
				<ele>279.564972</ele>
			</trkpt>
			<trkpt lat="49.927757" lon="17.898429">
				<ele>278.961151</ele>
			</trkpt>
			<trkpt lat="49.926971" lon="17.898033">
				<ele>278.888153</ele>
			</trkpt>
			<trkpt lat="49.926687" lon="17.897917">
				<ele>279.454773</ele>
			</trkpt>
			<trkpt lat="49.926294" lon="17.897728">
				<ele>279.400024</ele>
			</trkpt>
			<trkpt lat="49.925658" lon="17.897423">
				<ele>278.812225</ele>
			</trkpt>
			<trkpt lat="49.925149" lon="17.897162">
				<ele>277.871277</ele>
			</trkpt>
			<trkpt lat="49.924599" lon="17.896830">
				<ele>275.668884</ele>
			</trkpt>
			<trkpt lat="49.924096" lon="17.896507">
				<ele>273.458771</ele>
			</trkpt>
			<trkpt lat="49.923795" lon="17.896328">
				<ele>270.688202</ele>
			</trkpt>
			<trkpt lat="49.923633" lon="17.896542">
				<ele>268.838654</ele>
			</trkpt>
			<trkpt lat="49.923494" lon="17.896741">
				<ele>267.691620</ele>
			</trkpt>
			<trkpt lat="49.923171" lon="17.897280">
				<ele>264.650665</ele>
			</trkpt>
			<trkpt lat="49.922784" lon="17.897907">
				<ele>260.970337</ele>
			</trkpt>
			<trkpt lat="49.922448" lon="17.898456">
				<ele>260.111450</ele>
			</trkpt>
			<trkpt lat="49.922182" lon="17.898878">
				<ele>259.171417</ele>
			</trkpt>
			<trkpt lat="49.921875" lon="17.899328">
				<ele>258.772980</ele>
			</trkpt>
			<trkpt lat="49.921575" lon="17.899750">
				<ele>258.497223</ele>
			</trkpt>
			<trkpt lat="49.921308" lon="17.900109">
				<ele>258.960846</ele>
			</trkpt>
			<trkpt lat="49.921002" lon="17.900504">
				<ele>258.660645</ele>
			</trkpt>
			<trkpt lat="49.920279" lon="17.901366">
				<ele>258.302032</ele>
			</trkpt>
			<trkpt lat="49.920083" lon="17.901591">
				<ele>258.066071</ele>
			</trkpt>
			<trkpt lat="49.919961" lon="17.901771">
				<ele>258.446198</ele>
			</trkpt>
			<trkpt lat="49.919845" lon="17.901968">
				<ele>258.526764</ele>
			</trkpt>
			<trkpt lat="49.919724" lon="17.902265">
				<ele>258.716858</ele>
			</trkpt>
			<trkpt lat="49.919602" lon="17.902525">
				<ele>258.714691</ele>
			</trkpt>
			<trkpt lat="49.919527" lon="17.902641">
				<ele>258.422272</ele>
			</trkpt>
			<trkpt lat="49.919440" lon="17.902768">
				<ele>258.463684</ele>
			</trkpt>
			<trkpt lat="49.919359" lon="17.902857">
				<ele>258.352905</ele>
			</trkpt>
			<trkpt lat="49.919267" lon="17.902966">
				<ele>258.629181</ele>
			</trkpt>
			<trkpt lat="49.919065" lon="17.903136">
				<ele>258.453796</ele>
			</trkpt>
			<trkpt lat="49.918064" lon="17.903828">
				<ele>256.719025</ele>
			</trkpt>
			<trkpt lat="49.917624" lon="17.904106">
				<ele>256.762726</ele>
			</trkpt>
			<trkpt lat="49.917318" lon="17.904268">
				<ele>256.799988</ele>
			</trkpt>
			<trkpt lat="49.917005" lon="17.904429">
				<ele>257.335266</ele>
			</trkpt>
			<trkpt lat="49.915953" lon="17.904897">
				<ele>257.382446</ele>
			</trkpt>
			<trkpt lat="49.915275" lon="17.905202">
				<ele>257.906494</ele>
			</trkpt>
			<trkpt lat="49.915363" lon="17.905696">
				<ele>257.357300</ele>
			</trkpt>
			<trkpt lat="49.915444" lon="17.906163">
				<ele>257.131561</ele>
			</trkpt>
			<trkpt lat="49.915524" lon="17.906532">
				<ele>256.799988</ele>
			</trkpt>
			<trkpt lat="49.915594" lon="17.906855">
				<ele>256.512360</ele>
			</trkpt>
			<trkpt lat="49.915669" lon="17.907152">
				<ele>256.297394</ele>
			</trkpt>
			<trkpt lat="49.915785" lon="17.907494">
				<ele>255.800003</ele>
			</trkpt>
			<trkpt lat="49.915906" lon="17.907807">
				<ele>255.552902</ele>
			</trkpt>
			<trkpt lat="49.916034" lon="17.908104">
				<ele>255.134552</ele>
			</trkpt>
			<trkpt lat="49.916201" lon="17.908454">
				<ele>255.000015</ele>
			</trkpt>
			<trkpt lat="49.916305" lon="17.908652">
				<ele>254.902313</ele>
			</trkpt>
			<trkpt lat="49.916305" lon="17.908652">
				<ele>254.902313</ele>
			</trkpt>
			<trkpt lat="49.916502" lon="17.909029">
				<ele>254.451630</ele>
			</trkpt>
			<trkpt lat="49.916814" lon="17.909586">
				<ele>254.031525</ele>
			</trkpt>
			<trkpt lat="49.917237" lon="17.910295">
				<ele>253.225479</ele>
			</trkpt>
			<trkpt lat="49.917398" lon="17.910601">
				<ele>253.217407</ele>
			</trkpt>
			<trkpt lat="49.917543" lon="17.910897">
				<ele>252.819702</ele>
			</trkpt>
			<trkpt lat="49.917607" lon="17.911041">
				<ele>252.636978</ele>
			</trkpt>
			<trkpt lat="49.917647" lon="17.911157">
				<ele>252.600037</ele>
			</trkpt>
			<trkpt lat="49.917682" lon="17.911310">
				<ele>252.600021</ele>
			</trkpt>
			<trkpt lat="49.917728" lon="17.911509">
				<ele>252.492996</ele>
			</trkpt>
			<trkpt lat="49.918076" lon="17.911373">
				<ele>252.085159</ele>
			</trkpt>
			<trkpt lat="49.918104" lon="17.911634">
				<ele>252.236832</ele>
			</trkpt>
			<trkpt lat="49.918133" lon="17.911886">
				<ele>252.600021</ele>
			</trkpt>
			<trkpt lat="49.918180" lon="17.912119">
				<ele>252.800018</ele>
			</trkpt>
			<trkpt lat="49.918231" lon="17.912362">
				<ele>252.927322</ele>
			</trkpt>
			<trkpt lat="49.918249" lon="17.912442">
				<ele>253.000015</ele>
			</trkpt>
			<trkpt lat="49.918249" lon="17.912442">
				<ele>253.000015</ele>
			</trkpt>
			<trkpt lat="49.918312" lon="17.912685">
				<ele>253.000031</ele>
			</trkpt>
			<trkpt lat="49.918400" lon="17.913071">
				<ele>253.201706</ele>
			</trkpt>
			<trkpt lat="49.918457" lon="17.913368">
				<ele>253.239960</ele>
			</trkpt>
			<trkpt lat="49.918486" lon="17.913826">
				<ele>253.200012</ele>
			</trkpt>
			<trkpt lat="49.918526" lon="17.914096">
				<ele>253.000000</ele>
			</trkpt>
			<trkpt lat="49.918544" lon="17.914167">
				<ele>253.000015</ele>
			</trkpt>
			<trkpt lat="49.918735" lon="17.915039">
				<ele>252.633499</ele>
			</trkpt>
			<trkpt lat="49.918856" lon="17.915677">
				<ele>252.311340</ele>
			</trkpt>
			<trkpt lat="49.919001" lon="17.916440">
				<ele>251.902878</ele>
			</trkpt>
			<trkpt lat="49.919012" lon="17.916494">
				<ele>251.870636</ele>
			</trkpt>
			<trkpt lat="49.919012" lon="17.916494">
				<ele>251.870636</ele>
			</trkpt>
			<trkpt lat="49.919094" lon="17.916916">
				<ele>251.600021</ele>
			</trkpt>
			<trkpt lat="49.919116" lon="17.917023">
				<ele>251.580429</ele>
			</trkpt>
			<trkpt lat="49.919169" lon="17.917222">
				<ele>251.456635</ele>
			</trkpt>
			<trkpt lat="49.919301" lon="17.917734">
				<ele>251.256638</ele>
			</trkpt>
			<trkpt lat="49.919389" lon="17.918102">
				<ele>250.895981</ele>
			</trkpt>
			<trkpt lat="49.919504" lon="17.918560">
				<ele>251.071716</ele>
			</trkpt>
			<trkpt lat="49.919845" lon="17.919916">
				<ele>250.937363</ele>
			</trkpt>
			<trkpt lat="49.919978" lon="17.920438">
				<ele>250.551193</ele>
			</trkpt>
			<trkpt lat="49.919995" lon="17.920501">
				<ele>250.508179</ele>
			</trkpt>
			<trkpt lat="49.919995" lon="17.920501">
				<ele>250.508179</ele>
			</trkpt>
			<trkpt lat="49.920100" lon="17.920931">
				<ele>250.607239</ele>
			</trkpt>
			<trkpt lat="49.920158" lon="17.921201">
				<ele>250.445999</ele>
			</trkpt>
			<trkpt lat="49.920187" lon="17.921444">
				<ele>250.466125</ele>
			</trkpt>
			<trkpt lat="49.920193" lon="17.921579">
				<ele>250.549255</ele>
			</trkpt>
			<trkpt lat="49.920187" lon="17.921723">
				<ele>250.517731</ele>
			</trkpt>
			<trkpt lat="49.920175" lon="17.921813">
				<ele>250.401291</ele>
			</trkpt>
			<trkpt lat="49.920163" lon="17.921902">
				<ele>250.400024</ele>
			</trkpt>
			<trkpt lat="49.920146" lon="17.921983">
				<ele>250.279205</ele>
			</trkpt>
			<trkpt lat="49.920105" lon="17.922063">
				<ele>250.372742</ele>
			</trkpt>
			<trkpt lat="49.920071" lon="17.922126">
				<ele>250.293213</ele>
			</trkpt>
			<trkpt lat="49.920030" lon="17.922180">
				<ele>250.411453</ele>
			</trkpt>
			<trkpt lat="49.919978" lon="17.922235">
				<ele>250.469666</ele>
			</trkpt>
			<trkpt lat="49.919920" lon="17.922270">
				<ele>250.512421</ele>
			</trkpt>
			<trkpt lat="49.919788" lon="17.922352">
				<ele>250.600037</ele>
			</trkpt>
			<trkpt lat="49.919759" lon="17.922387">
				<ele>250.600037</ele>
			</trkpt>
			<trkpt lat="49.919741" lon="17.922413">
				<ele>250.600006</ele>
			</trkpt>
			<trkpt lat="49.919729" lon="17.922486">
				<ele>250.658783</ele>
			</trkpt>
			<trkpt lat="49.919729" lon="17.922539">
				<ele>250.771774</ele>
			</trkpt>
			<trkpt lat="49.919735" lon="17.922621">
				<ele>250.993500</ele>
			</trkpt>
			<trkpt lat="49.919759" lon="17.922719">
				<ele>251.072952</ele>
			</trkpt>
			<trkpt lat="49.919793" lon="17.922836">
				<ele>251.278336</ele>
			</trkpt>
			<trkpt lat="49.919834" lon="17.922935">
				<ele>251.400024</ele>
			</trkpt>
			<trkpt lat="49.919874" lon="17.923034">
				<ele>251.400009</ele>
			</trkpt>
			<trkpt lat="49.919944" lon="17.923124">
				<ele>251.402954</ele>
			</trkpt>
			<trkpt lat="49.920140" lon="17.923375">
				<ele>251.400009</ele>
			</trkpt>
			<trkpt lat="49.920193" lon="17.923455">
				<ele>251.400009</ele>
			</trkpt>
			<trkpt lat="49.920233" lon="17.923564">
				<ele>251.400009</ele>
			</trkpt>
			<trkpt lat="49.920297" lon="17.923744">
				<ele>251.259033</ele>
			</trkpt>
			<trkpt lat="49.920400" lon="17.924058">
				<ele>251.400024</ele>
			</trkpt>
			<trkpt lat="49.920424" lon="17.924184">
				<ele>251.400024</ele>
			</trkpt>
			<trkpt lat="49.920441" lon="17.924283">
				<ele>251.399979</ele>
			</trkpt>
			<trkpt lat="49.920441" lon="17.924507">
				<ele>251.600021</ele>
			</trkpt>
			<trkpt lat="49.920441" lon="17.925010">
				<ele>251.199982</ele>
			</trkpt>
			<trkpt lat="49.920435" lon="17.925153">
				<ele>251.159943</ele>
			</trkpt>
			<trkpt lat="49.920435" lon="17.925153">
				<ele>251.159943</ele>
			</trkpt>
			<trkpt lat="49.920429" lon="17.925396">
				<ele>251.000031</ele>
			</trkpt>
			<trkpt lat="49.920360" lon="17.926421">
				<ele>248.810410</ele>
			</trkpt>
			<trkpt lat="49.920290" lon="17.927210">
				<ele>247.120926</ele>
			</trkpt>
			<trkpt lat="49.920256" lon="17.927687">
				<ele>246.675232</ele>
			</trkpt>
			<trkpt lat="49.920175" lon="17.928352">
				<ele>246.937653</ele>
			</trkpt>
			<trkpt lat="49.920117" lon="17.928845">
				<ele>246.764221</ele>
			</trkpt>
			<trkpt lat="49.920111" lon="17.929025">
				<ele>247.035690</ele>
			</trkpt>
			<trkpt lat="49.920105" lon="17.929197">
				<ele>247.198639</ele>
			</trkpt>
			<trkpt lat="49.920117" lon="17.929430">
				<ele>247.235779</ele>
			</trkpt>
			<trkpt lat="49.920158" lon="17.929816">
				<ele>247.228088</ele>
			</trkpt>
			<trkpt lat="49.920204" lon="17.930103">
				<ele>243.834015</ele>
			</trkpt>
			<trkpt lat="49.920262" lon="17.930553">
				<ele>244.059158</ele>
			</trkpt>
			<trkpt lat="49.920325" lon="17.930975">
				<ele>246.719086</ele>
			</trkpt>
			<trkpt lat="49.920412" lon="17.931684">
				<ele>246.178650</ele>
			</trkpt>
			<trkpt lat="49.920435" lon="17.931891">
				<ele>246.165314</ele>
			</trkpt>
			<trkpt lat="49.920435" lon="17.931891">
				<ele>246.165314</ele>
			</trkpt>
			<trkpt lat="49.920470" lon="17.932214">
				<ele>245.942566</ele>
			</trkpt>
			<trkpt lat="49.920504" lon="17.932619">
				<ele>245.532196</ele>
			</trkpt>
			<trkpt lat="49.920516" lon="17.932987">
				<ele>245.529449</ele>
			</trkpt>
			<trkpt lat="49.920499" lon="17.933401">
				<ele>245.510696</ele>
			</trkpt>
			<trkpt lat="49.920458" lon="17.933778">
				<ele>245.403198</ele>
			</trkpt>
			<trkpt lat="49.920209" lon="17.935359">
				<ele>245.341141</ele>
			</trkpt>
			<trkpt lat="49.920181" lon="17.935539">
				<ele>245.400009</ele>
			</trkpt>
			<trkpt lat="49.920140" lon="17.935709">
				<ele>245.300079</ele>
			</trkpt>
			<trkpt lat="49.920100" lon="17.935843">
				<ele>245.400009</ele>
			</trkpt>
			<trkpt lat="49.920053" lon="17.935952">
				<ele>245.399994</ele>
			</trkpt>
			<trkpt lat="49.919978" lon="17.936113">
				<ele>245.199997</ele>
			</trkpt>
			<trkpt lat="49.919874" lon="17.936275">
				<ele>245.199982</ele>
			</trkpt>
			<trkpt lat="49.919718" lon="17.936464">
				<ele>245.199997</ele>
			</trkpt>
			<trkpt lat="49.919174" lon="17.936967">
				<ele>245.199997</ele>
			</trkpt>
			<trkpt lat="49.919342" lon="17.937424">
				<ele>245.000000</ele>
			</trkpt>
			<trkpt lat="49.919475" lon="17.937820">
				<ele>244.818878</ele>
			</trkpt>
			<trkpt lat="49.919585" lon="17.938197">
				<ele>244.800034</ele>
			</trkpt>
			<trkpt lat="49.919683" lon="17.938602">
				<ele>244.800003</ele>
			</trkpt>
			<trkpt lat="49.919816" lon="17.939248">
				<ele>244.440140</ele>
			</trkpt>
			<trkpt lat="49.919944" lon="17.939904">
				<ele>244.295837</ele>
			</trkpt>
			<trkpt lat="49.920048" lon="17.940380">
				<ele>244.600021</ele>
			</trkpt>
			<trkpt lat="49.920140" lon="17.940766">
				<ele>244.437271</ele>
			</trkpt>
			<trkpt lat="49.920239" lon="17.941099">
				<ele>244.199997</ele>
			</trkpt>
			<trkpt lat="49.920319" lon="17.941359">
				<ele>244.200226</ele>
			</trkpt>
			<trkpt lat="49.920499" lon="17.941845">
				<ele>244.199997</ele>
			</trkpt>
			<trkpt lat="49.920661" lon="17.942185">
				<ele>244.200012</ele>
			</trkpt>
			<trkpt lat="49.920788" lon="17.942447">
				<ele>244.199997</ele>
			</trkpt>
			<trkpt lat="49.920903" lon="17.942617">
				<ele>244.250031</ele>
			</trkpt>
			<trkpt lat="49.921060" lon="17.942841">
				<ele>244.400024</ele>
			</trkpt>
			<trkpt lat="49.921204" lon="17.943003">
				<ele>244.400024</ele>
			</trkpt>
			<trkpt lat="49.921349" lon="17.943147">
				<ele>244.215210</ele>
			</trkpt>
			<trkpt lat="49.921488" lon="17.943273">
				<ele>244.094650</ele>
			</trkpt>
			<trkpt lat="49.921638" lon="17.943372">
				<ele>244.124573</ele>
			</trkpt>
			<trkpt lat="49.921771" lon="17.943470">
				<ele>244.128830</ele>
			</trkpt>
			<trkpt lat="49.921892" lon="17.943533">
				<ele>243.973480</ele>
			</trkpt>
			<trkpt lat="49.922182" lon="17.943650">
				<ele>243.799988</ele>
			</trkpt>
			<trkpt lat="49.922494" lon="17.943695">
				<ele>243.799988</ele>
			</trkpt>
			<trkpt lat="49.922806" lon="17.943695">
				<ele>243.600021</ele>
			</trkpt>
			<trkpt lat="49.923020" lon="17.943713">
				<ele>243.600006</ele>
			</trkpt>
			<trkpt lat="49.923280" lon="17.943740">
				<ele>243.746567</ele>
			</trkpt>
			<trkpt lat="49.923408" lon="17.943776">
				<ele>243.800003</ele>
			</trkpt>
			<trkpt lat="49.923524" lon="17.943829">
				<ele>243.773865</ele>
			</trkpt>
			<trkpt lat="49.923639" lon="17.943875">
				<ele>243.600006</ele>
			</trkpt>
			<trkpt lat="49.923784" lon="17.943965">
				<ele>243.600037</ele>
			</trkpt>
			<trkpt lat="49.924102" lon="17.944198">
				<ele>243.666367</ele>
			</trkpt>
			<trkpt lat="49.924079" lon="17.944261">
				<ele>243.603851</ele>
			</trkpt>
			<trkpt lat="49.924079" lon="17.944315">
				<ele>243.603836</ele>
			</trkpt>
			<trkpt lat="49.924079" lon="17.944387">
				<ele>243.730164</ele>
			</trkpt>
			<trkpt lat="49.924084" lon="17.944458">
				<ele>243.823700</ele>
			</trkpt>
			<trkpt lat="49.924102" lon="17.944531">
				<ele>244.066040</ele>
			</trkpt>
			<trkpt lat="49.924125" lon="17.944584">
				<ele>244.292465</ele>
			</trkpt>
			<trkpt lat="49.924160" lon="17.944648">
				<ele>244.429565</ele>
			</trkpt>
			<trkpt lat="49.924194" lon="17.944674">
				<ele>244.526306</ele>
			</trkpt>
			<trkpt lat="49.924241" lon="17.944701">
				<ele>244.542603</ele>
			</trkpt>
			<trkpt lat="49.924281" lon="17.944719">
				<ele>244.373184</ele>
			</trkpt>
			<trkpt lat="49.924322" lon="17.944728">
				<ele>243.987671</ele>
			</trkpt>
			<trkpt lat="49.924373" lon="17.944711">
				<ele>243.507904</ele>
			</trkpt>
			<trkpt lat="49.924420" lon="17.944674">
				<ele>243.279068</ele>
			</trkpt>
			<trkpt lat="49.924449" lon="17.944648">
				<ele>243.199997</ele>
			</trkpt>
			<trkpt lat="49.924483" lon="17.944594">
				<ele>243.226486</ele>
			</trkpt>
			<trkpt lat="49.924512" lon="17.944531">
				<ele>243.181564</ele>
			</trkpt>
			<trkpt lat="49.924524" lon="17.944468">
				<ele>243.153290</ele>
			</trkpt>
			<trkpt lat="49.924536" lon="17.944405">
				<ele>243.226898</ele>
			</trkpt>
			<trkpt lat="49.924536" lon="17.944332">
				<ele>243.412628</ele>
			</trkpt>
			<trkpt lat="49.924530" lon="17.944261">
				<ele>243.484024</ele>
			</trkpt>
			<trkpt lat="49.924512" lon="17.944189">
				<ele>243.795746</ele>
			</trkpt>
			<trkpt lat="49.924489" lon="17.944135">
				<ele>244.075226</ele>
			</trkpt>
			<trkpt lat="49.924455" lon="17.944082">
				<ele>244.419189</ele>
			</trkpt>
			<trkpt lat="49.924408" lon="17.944045">
				<ele>244.600006</ele>
			</trkpt>
			<trkpt lat="49.924750" lon="17.942950">
				<ele>244.800003</ele>
			</trkpt>
			<trkpt lat="49.924975" lon="17.942267">
				<ele>244.929810</ele>
			</trkpt>
			<trkpt lat="49.925369" lon="17.941055">
				<ele>245.549347</ele>
			</trkpt>
			<trkpt lat="49.925496" lon="17.940659">
				<ele>245.784088</ele>
			</trkpt>
			<trkpt lat="49.925646" lon="17.940237">
				<ele>245.756805</ele>
			</trkpt>
			<trkpt lat="49.925820" lon="17.939824">
				<ele>246.036499</ele>
			</trkpt>
			<trkpt lat="49.926010" lon="17.939419">
				<ele>246.146164</ele>
			</trkpt>
			<trkpt lat="49.926230" lon="17.939005">
				<ele>246.080994</ele>
			</trkpt>
			<trkpt lat="49.926468" lon="17.938556">
				<ele>245.667435</ele>
			</trkpt>
			<trkpt lat="49.926785" lon="17.937990">
				<ele>244.409866</ele>
			</trkpt>
			<trkpt lat="49.926872" lon="17.937856">
				<ele>245.547668</ele>
			</trkpt>
			<trkpt lat="49.926924" lon="17.937776">
				<ele>245.788940</ele>
			</trkpt>
			<trkpt lat="49.926982" lon="17.937721">
				<ele>245.800003</ele>
			</trkpt>
			<trkpt lat="49.927052" lon="17.937703">
				<ele>245.893600</ele>
			</trkpt>
			<trkpt lat="49.927080" lon="17.937776">
				<ele>245.732544</ele>
			</trkpt>
			<trkpt lat="49.927121" lon="17.937847">
				<ele>245.590073</ele>
			</trkpt>
			<trkpt lat="49.927173" lon="17.937900">
				<ele>245.521149</ele>
			</trkpt>
			<trkpt lat="49.927225" lon="17.937946">
				<ele>245.600006</ele>
			</trkpt>
			<trkpt lat="49.927283" lon="17.937963">
				<ele>245.603424</ele>
			</trkpt>
			<trkpt lat="49.927341" lon="17.937973">
				<ele>245.691330</ele>
			</trkpt>
			<trkpt lat="49.927404" lon="17.937946">
				<ele>245.800003</ele>
			</trkpt>
			<trkpt lat="49.927462" lon="17.937910">
				<ele>245.800018</ele>
			</trkpt>
			<trkpt lat="49.927508" lon="17.937866">
				<ele>245.749329</ele>
			</trkpt>
			<trkpt lat="49.927543" lon="17.937803">
				<ele>245.800018</ele>
			</trkpt>
			<trkpt lat="49.927572" lon="17.937730">
				<ele>245.800003</ele>
			</trkpt>
			<trkpt lat="49.927595" lon="17.937667">
				<ele>245.803757</ele>
			</trkpt>
			<trkpt lat="49.927607" lon="17.937569">
				<ele>245.853516</ele>
			</trkpt>
			<trkpt lat="49.927607" lon="17.937451">
				<ele>246.000015</ele>
			</trkpt>
			<trkpt lat="49.927583" lon="17.937344">
				<ele>245.956772</ele>
			</trkpt>
			<trkpt lat="49.927543" lon="17.937227">
				<ele>246.036255</ele>
			</trkpt>
			<trkpt lat="49.927479" lon="17.937155">
				<ele>246.132629</ele>
			</trkpt>
			<trkpt lat="49.927410" lon="17.937093">
				<ele>245.998398</ele>
			</trkpt>
			<trkpt lat="49.927456" lon="17.936805">
				<ele>245.782318</ele>
			</trkpt>
			<trkpt lat="49.927473" lon="17.936697">
				<ele>245.626968</ele>
			</trkpt>
			<trkpt lat="49.927502" lon="17.936598">
				<ele>245.577209</ele>
			</trkpt>
			<trkpt lat="49.927665" lon="17.936195">
				<ele>245.400024</ele>
			</trkpt>
			<trkpt lat="49.927792" lon="17.935835">
				<ele>245.199997</ele>
			</trkpt>
			<trkpt lat="49.927919" lon="17.935457">
				<ele>245.400024</ele>
			</trkpt>
			<trkpt lat="49.927994" lon="17.935403">
				<ele>245.400009</ele>
			</trkpt>
			<trkpt lat="49.928057" lon="17.935376">
				<ele>245.389801</ele>
			</trkpt>
			<trkpt lat="49.928127" lon="17.935367">
				<ele>245.285583</ele>
			</trkpt>
			<trkpt lat="49.928202" lon="17.935386">
				<ele>245.200012</ele>
			</trkpt>
			<trkpt lat="49.928237" lon="17.935449">
				<ele>245.200012</ele>
			</trkpt>
			<trkpt lat="49.928260" lon="17.935512">
				<ele>245.199997</ele>
			</trkpt>
			<trkpt lat="49.928277" lon="17.935583">
				<ele>245.070709</ele>
			</trkpt>
			<trkpt lat="49.928300" lon="17.935682">
				<ele>245.000000</ele>
			</trkpt>
			<trkpt lat="49.928346" lon="17.935979">
				<ele>244.796799</ele>
			</trkpt>
			<trkpt lat="49.928393" lon="17.936239">
				<ele>244.639252</ele>
			</trkpt>
			<trkpt lat="49.928422" lon="17.936292">
				<ele>244.600021</ele>
			</trkpt>
			<trkpt lat="49.928456" lon="17.936338">
				<ele>244.600037</ele>
			</trkpt>
			<trkpt lat="49.928491" lon="17.936365">
				<ele>244.570541</ele>
			</trkpt>
			<trkpt lat="49.928532" lon="17.936401">
				<ele>244.452301</ele>
			</trkpt>
			<trkpt lat="49.928740" lon="17.936464">
				<ele>244.061111</ele>
			</trkpt>
			<trkpt lat="49.928873" lon="17.936545">
				<ele>243.986084</ele>
			</trkpt>
			<trkpt lat="49.928971" lon="17.936644">
				<ele>243.800018</ele>
			</trkpt>
			<trkpt lat="49.929006" lon="17.936707">
				<ele>243.719452</ele>
			</trkpt>
			<trkpt lat="49.929029" lon="17.936760">
				<ele>243.645630</ele>
			</trkpt>
			<trkpt lat="49.929053" lon="17.936850">
				<ele>243.600006</ele>
			</trkpt>
			<trkpt lat="49.929069" lon="17.936931">
				<ele>243.600037</ele>
			</trkpt>
			<trkpt lat="49.929087" lon="17.937011">
				<ele>243.743469</ele>
			</trkpt>
			<trkpt lat="49.929081" lon="17.937128">
				<ele>244.009811</ele>
			</trkpt>
			<trkpt lat="49.929069" lon="17.937227">
				<ele>244.200012</ele>
			</trkpt>
			<trkpt lat="49.929058" lon="17.937308">
				<ele>244.553009</ele>
			</trkpt>
			<trkpt lat="49.929023" lon="17.937434">
				<ele>244.977417</ele>
			</trkpt>
			<trkpt lat="49.928965" lon="17.937541">
				<ele>245.000031</ele>
			</trkpt>
			<trkpt lat="49.928879" lon="17.937631">
				<ele>245.130859</ele>
			</trkpt>
			<trkpt lat="49.928752" lon="17.937757">
				<ele>245.400040</ele>
			</trkpt>
			<trkpt lat="49.928515" lon="17.937955">
				<ele>245.293503</ele>
			</trkpt>
			<trkpt lat="49.928469" lon="17.937927">
				<ele>245.400024</ele>
			</trkpt>
			<trkpt lat="49.928422" lon="17.937919">
				<ele>245.400024</ele>
			</trkpt>
			<trkpt lat="49.928376" lon="17.937946">
				<ele>245.400009</ele>
			</trkpt>
			<trkpt lat="49.928324" lon="17.938000">
				<ele>245.400009</ele>
			</trkpt>
			<trkpt lat="49.928202" lon="17.938143">
				<ele>245.384811</ele>
			</trkpt>
			<trkpt lat="49.928115" lon="17.938279">
				<ele>245.400009</ele>
			</trkpt>
			<trkpt lat="49.928092" lon="17.938315">
				<ele>245.392105</ele>
			</trkpt>
		</trkseg>
	</trk>
</gpx>

