<?xml version="1.0" encoding="utf-8"?>
<gpx xmlns="http://www.topografix.com/GPX/1/1" version="1.1" creator="https://mapy.com/">
	<trk>
		<name>217</name>
		<trkseg>
			<trkpt lat="49.950640" lon="17.885125">
				<ele>253.600006</ele>
			</trkpt>
			<trkpt lat="49.950837" lon="17.885493">
				<ele>253.600021</ele>
			</trkpt>
			<trkpt lat="49.951212" lon="17.886204">
				<ele>253.400009</ele>
			</trkpt>
			<trkpt lat="49.951247" lon="17.886257">
				<ele>253.399994</ele>
			</trkpt>
			<trkpt lat="49.951276" lon="17.886275">
				<ele>253.400024</ele>
			</trkpt>
			<trkpt lat="49.951305" lon="17.886293">
				<ele>253.400009</ele>
			</trkpt>
			<trkpt lat="49.951346" lon="17.886311">
				<ele>253.436508</ele>
			</trkpt>
			<trkpt lat="49.951409" lon="17.886311">
				<ele>253.600021</ele>
			</trkpt>
			<trkpt lat="49.951444" lon="17.886355">
				<ele>253.597977</ele>
			</trkpt>
			<trkpt lat="49.951473" lon="17.886401">
				<ele>253.594162</ele>
			</trkpt>
			<trkpt lat="49.951490" lon="17.886445">
				<ele>253.600006</ele>
			</trkpt>
			<trkpt lat="49.951496" lon="17.886481">
				<ele>253.600021</ele>
			</trkpt>
			<trkpt lat="49.951496" lon="17.886527">
				<ele>253.600021</ele>
			</trkpt>
			<trkpt lat="49.951461" lon="17.886724">
				<ele>253.400009</ele>
			</trkpt>
			<trkpt lat="49.951444" lon="17.886859">
				<ele>253.385025</ele>
			</trkpt>
			<trkpt lat="49.950305" lon="17.886984">
				<ele>252.622177</ele>
			</trkpt>
			<trkpt lat="49.950224" lon="17.886993">
				<ele>252.718948</ele>
			</trkpt>
			<trkpt lat="49.950051" lon="17.887030">
				<ele>252.799988</ele>
			</trkpt>
			<trkpt lat="49.949871" lon="17.887101">
				<ele>252.800003</ele>
			</trkpt>
			<trkpt lat="49.949854" lon="17.887110">
				<ele>252.800003</ele>
			</trkpt>
			<trkpt lat="49.949854" lon="17.887110">
				<ele>252.800003</ele>
			</trkpt>
			<trkpt lat="49.949282" lon="17.887317">
				<ele>252.978638</ele>
			</trkpt>
			<trkpt lat="49.948652" lon="17.887542">
				<ele>252.837067</ele>
			</trkpt>
			<trkpt lat="49.948351" lon="17.887667">
				<ele>253.000000</ele>
			</trkpt>
			<trkpt lat="49.948207" lon="17.887712">
				<ele>252.969131</ele>
			</trkpt>
			<trkpt lat="49.947444" lon="17.888018">
				<ele>252.800018</ele>
			</trkpt>
			<trkpt lat="49.947328" lon="17.888009">
				<ele>252.800003</ele>
			</trkpt>
			<trkpt lat="49.947085" lon="17.887919">
				<ele>252.988678</ele>
			</trkpt>
			<trkpt lat="49.946970" lon="17.887919">
				<ele>252.988693</ele>
			</trkpt>
			<trkpt lat="49.946906" lon="17.887936">
				<ele>252.940323</ele>
			</trkpt>
			<trkpt lat="49.946837" lon="17.887972">
				<ele>252.838196</ele>
			</trkpt>
			<trkpt lat="49.946779" lon="17.888026">
				<ele>252.813110</ele>
			</trkpt>
			<trkpt lat="49.946721" lon="17.888125">
				<ele>252.800018</ele>
			</trkpt>
			<trkpt lat="49.946432" lon="17.888619">
				<ele>253.000977</ele>
			</trkpt>
			<trkpt lat="49.946386" lon="17.888701">
				<ele>253.147751</ele>
			</trkpt>
			<trkpt lat="49.946339" lon="17.888754">
				<ele>253.213318</ele>
			</trkpt>
			<trkpt lat="49.946282" lon="17.888808">
				<ele>253.237961</ele>
			</trkpt>
			<trkpt lat="49.946201" lon="17.888862">
				<ele>253.463715</ele>
			</trkpt>
			<trkpt lat="49.946143" lon="17.888646">
				<ele>253.824905</ele>
			</trkpt>
			<trkpt lat="49.946062" lon="17.888322">
				<ele>254.099945</ele>
			</trkpt>
			<trkpt lat="49.946016" lon="17.888053">
				<ele>254.590393</ele>
			</trkpt>
			<trkpt lat="49.945987" lon="17.887757">
				<ele>254.665634</ele>
			</trkpt>
			<trkpt lat="49.945970" lon="17.887326">
				<ele>255.059250</ele>
			</trkpt>
			<trkpt lat="49.945946" lon="17.886769">
				<ele>255.567719</ele>
			</trkpt>
			<trkpt lat="49.945935" lon="17.886544">
				<ele>256.106812</ele>
			</trkpt>
			<trkpt lat="49.945900" lon="17.886445">
				<ele>256.425720</ele>
			</trkpt>
			<trkpt lat="49.945849" lon="17.886347">
				<ele>256.770416</ele>
			</trkpt>
			<trkpt lat="49.945790" lon="17.886265">
				<ele>257.224579</ele>
			</trkpt>
			<trkpt lat="49.945721" lon="17.886212">
				<ele>257.418091</ele>
			</trkpt>
			<trkpt lat="49.945461" lon="17.886850">
				<ele>258.496735</ele>
			</trkpt>
			<trkpt lat="49.945051" lon="17.887856">
				<ele>260.619690</ele>
			</trkpt>
			<trkpt lat="49.944750" lon="17.888592">
				<ele>261.296509</ele>
			</trkpt>
			<trkpt lat="49.944744" lon="17.888601">
				<ele>261.339478</ele>
			</trkpt>
			<trkpt lat="49.944744" lon="17.888601">
				<ele>261.339478</ele>
			</trkpt>
			<trkpt lat="49.944299" lon="17.889706">
				<ele>261.379761</ele>
			</trkpt>
			<trkpt lat="49.944004" lon="17.890416">
				<ele>261.621338</ele>
			</trkpt>
			<trkpt lat="49.943727" lon="17.891027">
				<ele>263.211304</ele>
			</trkpt>
			<trkpt lat="49.943692" lon="17.891108">
				<ele>263.336426</ele>
			</trkpt>
			<trkpt lat="49.943397" lon="17.891728">
				<ele>263.799988</ele>
			</trkpt>
			<trkpt lat="49.942946" lon="17.892689">
				<ele>264.579712</ele>
			</trkpt>
			<trkpt lat="49.942709" lon="17.893183">
				<ele>264.775665</ele>
			</trkpt>
			<trkpt lat="49.942340" lon="17.894009">
				<ele>265.149750</ele>
			</trkpt>
			<trkpt lat="49.942235" lon="17.894251">
				<ele>264.799988</ele>
			</trkpt>
			<trkpt lat="49.942021" lon="17.894773">
				<ele>264.644409</ele>
			</trkpt>
			<trkpt lat="49.941998" lon="17.894836">
				<ele>264.604584</ele>
			</trkpt>
			<trkpt lat="49.941998" lon="17.894836">
				<ele>264.604584</ele>
			</trkpt>
			<trkpt lat="49.941813" lon="17.895249">
				<ele>264.400024</ele>
			</trkpt>
			<trkpt lat="49.941357" lon="17.896246">
				<ele>263.600037</ele>
			</trkpt>
			<trkpt lat="49.941090" lon="17.896821">
				<ele>263.100891</ele>
			</trkpt>
			<trkpt lat="49.940738" lon="17.897567">
				<ele>261.945374</ele>
			</trkpt>
			<trkpt lat="49.940570" lon="17.897917">
				<ele>261.734650</ele>
			</trkpt>
			<trkpt lat="49.940304" lon="17.898483">
				<ele>261.208069</ele>
			</trkpt>
			<trkpt lat="49.940050" lon="17.898456">
				<ele>261.400787</ele>
			</trkpt>
			<trkpt lat="49.939934" lon="17.898446">
				<ele>261.570374</ele>
			</trkpt>
			<trkpt lat="49.939610" lon="17.898420">
				<ele>261.997131</ele>
			</trkpt>
			<trkpt lat="49.939223" lon="17.898383">
				<ele>262.000000</ele>
			</trkpt>
			<trkpt lat="49.939044" lon="17.898357">
				<ele>262.000031</ele>
			</trkpt>
			<trkpt lat="49.939044" lon="17.898815">
				<ele>261.428528</ele>
			</trkpt>
			<trkpt lat="49.939055" lon="17.899723">
				<ele>260.194885</ele>
			</trkpt>
			<trkpt lat="49.939055" lon="17.900046">
				<ele>260.000000</ele>
			</trkpt>
			<trkpt lat="49.939194" lon="17.900037">
				<ele>260.000000</ele>
			</trkpt>
			<trkpt lat="49.939281" lon="17.900054">
				<ele>259.808746</ele>
			</trkpt>
			<trkpt lat="49.939356" lon="17.900091">
				<ele>259.910858</ele>
			</trkpt>
			<trkpt lat="49.939431" lon="17.900136">
				<ele>260.000000</ele>
			</trkpt>
			<trkpt lat="49.939449" lon="17.900154">
				<ele>260.000000</ele>
			</trkpt>
			<trkpt lat="49.939507" lon="17.900207">
				<ele>260.000000</ele>
			</trkpt>
			<trkpt lat="49.939610" lon="17.899938">
				<ele>260.162323</ele>
			</trkpt>
			<trkpt lat="49.939755" lon="17.899615">
				<ele>260.570801</ele>
			</trkpt>
			<trkpt lat="49.939836" lon="17.899435">
				<ele>260.796509</ele>
			</trkpt>
			<trkpt lat="49.939981" lon="17.899148">
				<ele>260.945770</ele>
			</trkpt>
			<trkpt lat="49.940131" lon="17.898851">
				<ele>260.965088</ele>
			</trkpt>
			<trkpt lat="49.940229" lon="17.898636">
				<ele>260.896393</ele>
			</trkpt>
			<trkpt lat="49.940287" lon="17.898510">
				<ele>261.144562</ele>
			</trkpt>
			<trkpt lat="49.940304" lon="17.898483">
				<ele>261.208069</ele>
			</trkpt>
			<trkpt lat="49.940050" lon="17.898456">
				<ele>261.400787</ele>
			</trkpt>
			<trkpt lat="49.939934" lon="17.898446">
				<ele>261.570374</ele>
			</trkpt>
			<trkpt lat="49.939610" lon="17.898420">
				<ele>261.997131</ele>
			</trkpt>
			<trkpt lat="49.939223" lon="17.898383">
				<ele>262.000000</ele>
			</trkpt>
			<trkpt lat="49.939044" lon="17.898357">
				<ele>262.000031</ele>
			</trkpt>
			<trkpt lat="49.939044" lon="17.898815">
				<ele>261.428528</ele>
			</trkpt>
			<trkpt lat="49.939055" lon="17.899723">
				<ele>260.194885</ele>
			</trkpt>
			<trkpt lat="49.939055" lon="17.900046">
				<ele>260.000000</ele>
			</trkpt>
			<trkpt lat="49.939194" lon="17.900037">
				<ele>260.000000</ele>
			</trkpt>
			<trkpt lat="49.939281" lon="17.900054">
				<ele>259.808746</ele>
			</trkpt>
			<trkpt lat="49.939281" lon="17.900054">
				<ele>259.808746</ele>
			</trkpt>
			<trkpt lat="49.939194" lon="17.900037">
				<ele>260.000000</ele>
			</trkpt>
			<trkpt lat="49.939055" lon="17.900046">
				<ele>260.000000</ele>
			</trkpt>
			<trkpt lat="49.939055" lon="17.899723">
				<ele>260.194885</ele>
			</trkpt>
			<trkpt lat="49.939044" lon="17.898815">
				<ele>261.428528</ele>
			</trkpt>
			<trkpt lat="49.939044" lon="17.898357">
				<ele>262.000031</ele>
			</trkpt>
			<trkpt lat="49.939223" lon="17.898383">
				<ele>262.000000</ele>
			</trkpt>
			<trkpt lat="49.939610" lon="17.898420">
				<ele>261.997131</ele>
			</trkpt>
			<trkpt lat="49.939934" lon="17.898446">
				<ele>261.570374</ele>
			</trkpt>
			<trkpt lat="49.940050" lon="17.898456">
				<ele>261.400787</ele>
			</trkpt>
			<trkpt lat="49.940304" lon="17.898483">
				<ele>261.208069</ele>
			</trkpt>
			<trkpt lat="49.940570" lon="17.897917">
				<ele>261.734650</ele>
			</trkpt>
			<trkpt lat="49.940477" lon="17.897674">
				<ele>261.799988</ele>
			</trkpt>
			<trkpt lat="49.940322" lon="17.897243">
				<ele>262.000000</ele>
			</trkpt>
			<trkpt lat="49.940206" lon="17.896920">
				<ele>262.039154</ele>
			</trkpt>
			<trkpt lat="49.939911" lon="17.896165">
				<ele>262.200012</ele>
			</trkpt>
			<trkpt lat="49.939507" lon="17.895150">
				<ele>262.214294</ele>
			</trkpt>
			<trkpt lat="49.939362" lon="17.894791">
				<ele>262.400024</ele>
			</trkpt>
			<trkpt lat="49.938749" lon="17.893246">
				<ele>263.400024</ele>
			</trkpt>
			<trkpt lat="49.938547" lon="17.892733">
				<ele>263.419342</ele>
			</trkpt>
			<trkpt lat="49.938483" lon="17.892572">
				<ele>263.591522</ele>
			</trkpt>
			<trkpt lat="49.938483" lon="17.892572">
				<ele>263.591522</ele>
			</trkpt>
			<trkpt lat="49.938356" lon="17.892240">
				<ele>263.425995</ele>
			</trkpt>
			<trkpt lat="49.937905" lon="17.891125">
				<ele>263.600037</ele>
			</trkpt>
			<trkpt lat="49.937708" lon="17.890622">
				<ele>263.600037</ele>
			</trkpt>
			<trkpt lat="49.937633" lon="17.890433">
				<ele>263.400055</ele>
			</trkpt>
			<trkpt lat="49.937315" lon="17.889607">
				<ele>263.842224</ele>
			</trkpt>
			<trkpt lat="49.937188" lon="17.889293">
				<ele>263.077820</ele>
			</trkpt>
			<trkpt lat="49.937119" lon="17.889114">
				<ele>263.143372</ele>
			</trkpt>
			<trkpt lat="49.937049" lon="17.888951">
				<ele>263.200012</ele>
			</trkpt>
			<trkpt lat="49.936772" lon="17.888242">
				<ele>263.462006</ele>
			</trkpt>
			<trkpt lat="49.936113" lon="17.886517">
				<ele>263.938904</ele>
			</trkpt>
			<trkpt lat="49.936113" lon="17.886517">
				<ele>263.938904</ele>
			</trkpt>
			<trkpt lat="49.935853" lon="17.885844">
				<ele>264.200012</ele>
			</trkpt>
			<trkpt lat="49.935511" lon="17.884999">
				<ele>264.633484</ele>
			</trkpt>
			<trkpt lat="49.935130" lon="17.884047">
				<ele>265.298798</ele>
			</trkpt>
			<trkpt lat="49.934528" lon="17.882529">
				<ele>265.400024</ele>
			</trkpt>
			<trkpt lat="49.933788" lon="17.880661">
				<ele>265.438385</ele>
			</trkpt>
			<trkpt lat="49.933788" lon="17.880661">
				<ele>265.438385</ele>
			</trkpt>
			<trkpt lat="49.933360" lon="17.879592">
				<ele>266.653412</ele>
			</trkpt>
			<trkpt lat="49.933308" lon="17.879456">
				<ele>266.839294</ele>
			</trkpt>
			<trkpt lat="49.932915" lon="17.878451">
				<ele>267.433044</ele>
			</trkpt>
			<trkpt lat="49.932770" lon="17.878101">
				<ele>267.630157</ele>
			</trkpt>
			<trkpt lat="49.932551" lon="17.877516">
				<ele>267.876984</ele>
			</trkpt>
			<trkpt lat="49.931522" lon="17.874974">
				<ele>269.724396</ele>
			</trkpt>
			<trkpt lat="49.931383" lon="17.874623">
				<ele>269.777100</ele>
			</trkpt>
			<trkpt lat="49.931383" lon="17.874623">
				<ele>269.777100</ele>
			</trkpt>
			<trkpt lat="49.931319" lon="17.874453">
				<ele>269.737183</ele>
			</trkpt>
			<trkpt lat="49.930938" lon="17.873510">
				<ele>270.121796</ele>
			</trkpt>
			<trkpt lat="49.930498" lon="17.872396">
				<ele>271.000000</ele>
			</trkpt>
			<trkpt lat="49.930429" lon="17.872208">
				<ele>271.121704</ele>
			</trkpt>
			<trkpt lat="49.930128" lon="17.871453">
				<ele>271.589661</ele>
			</trkpt>
			<trkpt lat="49.930058" lon="17.871282">
				<ele>271.600037</ele>
			</trkpt>
			<trkpt lat="49.929862" lon="17.870797">
				<ele>271.716644</ele>
			</trkpt>
			<trkpt lat="49.929619" lon="17.870195">
				<ele>271.942932</ele>
			</trkpt>
			<trkpt lat="49.929474" lon="17.869854">
				<ele>272.200012</ele>
			</trkpt>
			<trkpt lat="49.929330" lon="17.869495">
				<ele>272.200012</ele>
			</trkpt>
			<trkpt lat="49.929185" lon="17.869135">
				<ele>272.295715</ele>
			</trkpt>
			<trkpt lat="49.928954" lon="17.868551">
				<ele>272.422546</ele>
			</trkpt>
			<trkpt lat="49.928017" lon="17.866189">
				<ele>273.593262</ele>
			</trkpt>
			<trkpt lat="49.927728" lon="17.865461">
				<ele>274.266602</ele>
			</trkpt>
			<trkpt lat="49.927473" lon="17.864805">
				<ele>275.651398</ele>
			</trkpt>
			<trkpt lat="49.927473" lon="17.864805">
				<ele>275.651398</ele>
			</trkpt>
			<trkpt lat="49.927416" lon="17.864661">
				<ele>275.552460</ele>
			</trkpt>
			<trkpt lat="49.927253" lon="17.864212">
				<ele>276.974670</ele>
			</trkpt>
			<trkpt lat="49.927121" lon="17.863843">
				<ele>277.941315</ele>
			</trkpt>
			<trkpt lat="49.926947" lon="17.863306">
				<ele>279.080261</ele>
			</trkpt>
			<trkpt lat="49.926456" lon="17.861732">
				<ele>279.401398</ele>
			</trkpt>
			<trkpt lat="49.926213" lon="17.860933">
				<ele>279.649200</ele>
			</trkpt>
			<trkpt lat="49.925918" lon="17.860017">
				<ele>279.099457</ele>
			</trkpt>
			<trkpt lat="49.923668" lon="17.852857">
				<ele>284.420166</ele>
			</trkpt>
			<trkpt lat="49.923287" lon="17.851591">
				<ele>286.768066</ele>
			</trkpt>
			<trkpt lat="49.922934" lon="17.850413">
				<ele>283.857727</ele>
			</trkpt>
			<trkpt lat="49.922564" lon="17.849084">
				<ele>278.988159</ele>
			</trkpt>
			<trkpt lat="49.922170" lon="17.847692">
				<ele>279.903870</ele>
			</trkpt>
			<trkpt lat="49.922170" lon="17.847692">
				<ele>279.903870</ele>
			</trkpt>
			<trkpt lat="49.922159" lon="17.847639">
				<ele>280.124451</ele>
			</trkpt>
			<trkpt lat="49.922106" lon="17.847440">
				<ele>281.045380</ele>
			</trkpt>
			<trkpt lat="49.922043" lon="17.847216">
				<ele>281.872131</ele>
			</trkpt>
			<trkpt lat="49.921910" lon="17.846704">
				<ele>283.343628</ele>
			</trkpt>
			<trkpt lat="49.921297" lon="17.844539">
				<ele>290.757172</ele>
			</trkpt>
			<trkpt lat="49.920927" lon="17.843192">
				<ele>293.658142</ele>
			</trkpt>
			<trkpt lat="49.920927" lon="17.843192">
				<ele>293.658142</ele>
			</trkpt>
			<trkpt lat="49.920748" lon="17.842536">
				<ele>294.420105</ele>
			</trkpt>
			<trkpt lat="49.920412" lon="17.841332">
				<ele>297.044556</ele>
			</trkpt>
			<trkpt lat="49.919614" lon="17.838475">
				<ele>306.616974</ele>
			</trkpt>
			<trkpt lat="49.919574" lon="17.838331">
				<ele>307.135010</ele>
			</trkpt>
			<trkpt lat="49.919012" lon="17.836328">
				<ele>312.054169</ele>
			</trkpt>
			<trkpt lat="49.919012" lon="17.836328">
				<ele>312.054169</ele>
			</trkpt>
			<trkpt lat="49.918960" lon="17.836140">
				<ele>312.676147</ele>
			</trkpt>
			<trkpt lat="49.918231" lon="17.833561">
				<ele>318.154236</ele>
			</trkpt>
			<trkpt lat="49.918312" lon="17.833526">
				<ele>318.087036</ele>
			</trkpt>
			<trkpt lat="49.918387" lon="17.833481">
				<ele>318.030090</ele>
			</trkpt>
			<trkpt lat="49.918585" lon="17.833347">
				<ele>317.285278</ele>
			</trkpt>
			<trkpt lat="49.918585" lon="17.833347">
				<ele>317.285278</ele>
			</trkpt>
			<trkpt lat="49.918677" lon="17.833284">
				<ele>316.833038</ele>
			</trkpt>
			<trkpt lat="49.919001" lon="17.833058">
				<ele>314.611511</ele>
			</trkpt>
			<trkpt lat="49.919070" lon="17.833022">
				<ele>314.018799</ele>
			</trkpt>
			<trkpt lat="49.919151" lon="17.832987">
				<ele>313.567383</ele>
			</trkpt>
			<trkpt lat="49.919232" lon="17.832978">
				<ele>313.115875</ele>
			</trkpt>
			<trkpt lat="49.919313" lon="17.832978">
				<ele>312.664459</ele>
			</trkpt>
			<trkpt lat="49.919440" lon="17.833014">
				<ele>311.600281</ele>
			</trkpt>
			<trkpt lat="49.920256" lon="17.833230">
				<ele>304.909027</ele>
			</trkpt>
			<trkpt lat="49.920378" lon="17.833284">
				<ele>303.933075</ele>
			</trkpt>
			<trkpt lat="49.920424" lon="17.833310">
				<ele>303.728882</ele>
			</trkpt>
			<trkpt lat="49.920464" lon="17.833355">
				<ele>303.572174</ele>
			</trkpt>
			<trkpt lat="49.920516" lon="17.833471">
				<ele>303.271179</ele>
			</trkpt>
			<trkpt lat="49.920557" lon="17.833597">
				<ele>303.112427</ele>
			</trkpt>
			<trkpt lat="49.920736" lon="17.834217">
				<ele>301.163330</ele>
			</trkpt>
			<trkpt lat="49.920817" lon="17.834550">
				<ele>300.518036</ele>
			</trkpt>
			<trkpt lat="49.920857" lon="17.834720">
				<ele>299.915802</ele>
			</trkpt>
			<trkpt lat="49.920909" lon="17.834846">
				<ele>299.190186</ele>
			</trkpt>
			<trkpt lat="49.920973" lon="17.835026">
				<ele>298.237183</ele>
			</trkpt>
			<trkpt lat="49.921135" lon="17.835376">
				<ele>297.345459</ele>
			</trkpt>
			<trkpt lat="49.921204" lon="17.835492">
				<ele>296.803223</ele>
			</trkpt>
			<trkpt lat="49.921372" lon="17.835718">
				<ele>296.027832</ele>
			</trkpt>
			<trkpt lat="49.921511" lon="17.835880">
				<ele>295.816040</ele>
			</trkpt>
			<trkpt lat="49.921650" lon="17.835987">
				<ele>295.717926</ele>
			</trkpt>
			<trkpt lat="49.921795" lon="17.835997">
				<ele>295.947388</ele>
			</trkpt>
			<trkpt lat="49.922002" lon="17.835951">
				<ele>298.077271</ele>
			</trkpt>
			<trkpt lat="49.922118" lon="17.836580">
				<ele>296.669281</ele>
			</trkpt>
		</trkseg>
	</trk>
</gpx>

