<?xml version="1.0" encoding="utf-8"?>
<gpx xmlns="http://www.topografix.com/GPX/1/1" version="1.1" creator="https://mapy.com/">
	<trk>
		<name>217</name>
		<trkseg>
			<trkpt lat="49.922118" lon="17.836580">
				<ele>296.669281</ele>
			</trkpt>
			<trkpt lat="49.922251" lon="17.837289">
				<ele>295.549561</ele>
			</trkpt>
			<trkpt lat="49.922275" lon="17.837415">
				<ele>295.319641</ele>
			</trkpt>
			<trkpt lat="49.922471" lon="17.838179">
				<ele>294.194580</ele>
			</trkpt>
			<trkpt lat="49.922494" lon="17.838322">
				<ele>293.936615</ele>
			</trkpt>
			<trkpt lat="49.922535" lon="17.838538">
				<ele>293.782898</ele>
			</trkpt>
			<trkpt lat="49.922326" lon="17.838871">
				<ele>292.591858</ele>
			</trkpt>
			<trkpt lat="49.922066" lon="17.839257">
				<ele>292.362030</ele>
			</trkpt>
			<trkpt lat="49.921985" lon="17.839392">
				<ele>292.324646</ele>
			</trkpt>
			<trkpt lat="49.921910" lon="17.839544">
				<ele>292.206909</ele>
			</trkpt>
			<trkpt lat="49.921858" lon="17.839634">
				<ele>292.408020</ele>
			</trkpt>
			<trkpt lat="49.921829" lon="17.839779">
				<ele>292.689941</ele>
			</trkpt>
			<trkpt lat="49.921760" lon="17.840119">
				<ele>293.194427</ele>
			</trkpt>
			<trkpt lat="49.921725" lon="17.840469">
				<ele>293.684662</ele>
			</trkpt>
			<trkpt lat="49.921667" lon="17.841188">
				<ele>294.389465</ele>
			</trkpt>
			<trkpt lat="49.921609" lon="17.841853">
				<ele>294.800018</ele>
			</trkpt>
			<trkpt lat="49.921586" lon="17.841979">
				<ele>294.976654</ele>
			</trkpt>
			<trkpt lat="49.921557" lon="17.842069">
				<ele>295.000000</ele>
			</trkpt>
			<trkpt lat="49.921517" lon="17.842150">
				<ele>294.999969</ele>
			</trkpt>
			<trkpt lat="49.921453" lon="17.842230">
				<ele>295.001343</ele>
			</trkpt>
			<trkpt lat="49.921147" lon="17.842383">
				<ele>295.030243</ele>
			</trkpt>
			<trkpt lat="49.920962" lon="17.842455">
				<ele>294.893280</ele>
			</trkpt>
			<trkpt lat="49.920962" lon="17.842455">
				<ele>294.893280</ele>
			</trkpt>
			<trkpt lat="49.920748" lon="17.842536">
				<ele>294.420105</ele>
			</trkpt>
			<trkpt lat="49.921297" lon="17.844539">
				<ele>290.757172</ele>
			</trkpt>
			<trkpt lat="49.921910" lon="17.846704">
				<ele>283.343628</ele>
			</trkpt>
			<trkpt lat="49.922043" lon="17.847216">
				<ele>281.872131</ele>
			</trkpt>
			<trkpt lat="49.922106" lon="17.847440">
				<ele>281.045380</ele>
			</trkpt>
			<trkpt lat="49.922159" lon="17.847639">
				<ele>280.124451</ele>
			</trkpt>
			<trkpt lat="49.922297" lon="17.848132">
				<ele>279.364014</ele>
			</trkpt>
			<trkpt lat="49.922297" lon="17.848132">
				<ele>279.364014</ele>
			</trkpt>
			<trkpt lat="49.922564" lon="17.849084">
				<ele>278.988159</ele>
			</trkpt>
			<trkpt lat="49.922934" lon="17.850413">
				<ele>283.857727</ele>
			</trkpt>
			<trkpt lat="49.923287" lon="17.851591">
				<ele>286.768066</ele>
			</trkpt>
			<trkpt lat="49.923668" lon="17.852857">
				<ele>284.420166</ele>
			</trkpt>
			<trkpt lat="49.925918" lon="17.860017">
				<ele>279.099457</ele>
			</trkpt>
			<trkpt lat="49.926213" lon="17.860933">
				<ele>279.649200</ele>
			</trkpt>
			<trkpt lat="49.926456" lon="17.861732">
				<ele>279.401398</ele>
			</trkpt>
			<trkpt lat="49.926947" lon="17.863306">
				<ele>279.080261</ele>
			</trkpt>
			<trkpt lat="49.927046" lon="17.863610">
				<ele>278.657288</ele>
			</trkpt>
			<trkpt lat="49.927046" lon="17.863610">
				<ele>278.657288</ele>
			</trkpt>
			<trkpt lat="49.927121" lon="17.863843">
				<ele>277.941315</ele>
			</trkpt>
			<trkpt lat="49.927253" lon="17.864212">
				<ele>276.974670</ele>
			</trkpt>
			<trkpt lat="49.927416" lon="17.864661">
				<ele>275.552460</ele>
			</trkpt>
			<trkpt lat="49.927728" lon="17.865461">
				<ele>274.266602</ele>
			</trkpt>
			<trkpt lat="49.928017" lon="17.866189">
				<ele>273.593262</ele>
			</trkpt>
			<trkpt lat="49.928954" lon="17.868551">
				<ele>272.422546</ele>
			</trkpt>
			<trkpt lat="49.929185" lon="17.869135">
				<ele>272.295715</ele>
			</trkpt>
			<trkpt lat="49.929330" lon="17.869495">
				<ele>272.200012</ele>
			</trkpt>
			<trkpt lat="49.929474" lon="17.869854">
				<ele>272.200012</ele>
			</trkpt>
			<trkpt lat="49.929619" lon="17.870195">
				<ele>271.942932</ele>
			</trkpt>
			<trkpt lat="49.929862" lon="17.870797">
				<ele>271.716644</ele>
			</trkpt>
			<trkpt lat="49.930058" lon="17.871282">
				<ele>271.600037</ele>
			</trkpt>
			<trkpt lat="49.930128" lon="17.871453">
				<ele>271.589661</ele>
			</trkpt>
			<trkpt lat="49.930429" lon="17.872208">
				<ele>271.121704</ele>
			</trkpt>
			<trkpt lat="49.930498" lon="17.872396">
				<ele>271.000000</ele>
			</trkpt>
			<trkpt lat="49.930938" lon="17.873510">
				<ele>270.121796</ele>
			</trkpt>
			<trkpt lat="49.931319" lon="17.874453">
				<ele>269.737183</ele>
			</trkpt>
			<trkpt lat="49.931522" lon="17.874974">
				<ele>269.724396</ele>
			</trkpt>
			<trkpt lat="49.931788" lon="17.875630">
				<ele>269.076355</ele>
			</trkpt>
			<trkpt lat="49.931788" lon="17.875630">
				<ele>269.076355</ele>
			</trkpt>
			<trkpt lat="49.932551" lon="17.877516">
				<ele>267.876984</ele>
			</trkpt>
			<trkpt lat="49.932770" lon="17.878101">
				<ele>267.630157</ele>
			</trkpt>
			<trkpt lat="49.932915" lon="17.878451">
				<ele>267.433044</ele>
			</trkpt>
			<trkpt lat="49.933308" lon="17.879456">
				<ele>266.839294</ele>
			</trkpt>
			<trkpt lat="49.933360" lon="17.879592">
				<ele>266.653412</ele>
			</trkpt>
			<trkpt lat="49.934308" lon="17.881972">
				<ele>265.215088</ele>
			</trkpt>
			<trkpt lat="49.934308" lon="17.881972">
				<ele>265.215088</ele>
			</trkpt>
			<trkpt lat="49.934528" lon="17.882529">
				<ele>265.400024</ele>
			</trkpt>
			<trkpt lat="49.935130" lon="17.884047">
				<ele>265.298798</ele>
			</trkpt>
			<trkpt lat="49.935511" lon="17.884999">
				<ele>264.633484</ele>
			</trkpt>
			<trkpt lat="49.935853" lon="17.885844">
				<ele>264.200012</ele>
			</trkpt>
			<trkpt lat="49.936656" lon="17.887936">
				<ele>263.600037</ele>
			</trkpt>
			<trkpt lat="49.936656" lon="17.887936">
				<ele>263.600037</ele>
			</trkpt>
			<trkpt lat="49.936772" lon="17.888242">
				<ele>263.462006</ele>
			</trkpt>
			<trkpt lat="49.937049" lon="17.888951">
				<ele>263.200012</ele>
			</trkpt>
			<trkpt lat="49.937119" lon="17.889114">
				<ele>263.143372</ele>
			</trkpt>
			<trkpt lat="49.937188" lon="17.889293">
				<ele>263.077820</ele>
			</trkpt>
			<trkpt lat="49.937315" lon="17.889607">
				<ele>263.842224</ele>
			</trkpt>
			<trkpt lat="49.937633" lon="17.890433">
				<ele>263.400055</ele>
			</trkpt>
			<trkpt lat="49.937708" lon="17.890622">
				<ele>263.600037</ele>
			</trkpt>
			<trkpt lat="49.937905" lon="17.891125">
				<ele>263.600037</ele>
			</trkpt>
			<trkpt lat="49.938356" lon="17.892240">
				<ele>263.425995</ele>
			</trkpt>
			<trkpt lat="49.938547" lon="17.892733">
				<ele>263.419342</ele>
			</trkpt>
			<trkpt lat="49.938749" lon="17.893246">
				<ele>263.400024</ele>
			</trkpt>
			<trkpt lat="49.939362" lon="17.894791">
				<ele>262.400024</ele>
			</trkpt>
			<trkpt lat="49.939449" lon="17.895007">
				<ele>262.400024</ele>
			</trkpt>
			<trkpt lat="49.939449" lon="17.895007">
				<ele>262.400024</ele>
			</trkpt>
			<trkpt lat="49.939507" lon="17.895150">
				<ele>262.214294</ele>
			</trkpt>
			<trkpt lat="49.939911" lon="17.896165">
				<ele>262.200012</ele>
			</trkpt>
			<trkpt lat="49.940206" lon="17.896920">
				<ele>262.039154</ele>
			</trkpt>
			<trkpt lat="49.940322" lon="17.897243">
				<ele>262.000000</ele>
			</trkpt>
			<trkpt lat="49.940477" lon="17.897674">
				<ele>261.799988</ele>
			</trkpt>
			<trkpt lat="49.940570" lon="17.897917">
				<ele>261.734650</ele>
			</trkpt>
			<trkpt lat="49.940304" lon="17.898483">
				<ele>261.208069</ele>
			</trkpt>
			<trkpt lat="49.940050" lon="17.898456">
				<ele>261.400787</ele>
			</trkpt>
			<trkpt lat="49.939934" lon="17.898446">
				<ele>261.570374</ele>
			</trkpt>
			<trkpt lat="49.939610" lon="17.898420">
				<ele>261.997131</ele>
			</trkpt>
			<trkpt lat="49.939223" lon="17.898383">
				<ele>262.000000</ele>
			</trkpt>
			<trkpt lat="49.939044" lon="17.898357">
				<ele>262.000031</ele>
			</trkpt>
			<trkpt lat="49.939044" lon="17.898815">
				<ele>261.428528</ele>
			</trkpt>
			<trkpt lat="49.939055" lon="17.899723">
				<ele>260.194885</ele>
			</trkpt>
			<trkpt lat="49.939055" lon="17.900046">
				<ele>260.000000</ele>
			</trkpt>
			<trkpt lat="49.939194" lon="17.900037">
				<ele>260.000000</ele>
			</trkpt>
			<trkpt lat="49.939281" lon="17.900054">
				<ele>259.808746</ele>
			</trkpt>
			<trkpt lat="49.939327" lon="17.900073">
				<ele>259.862488</ele>
			</trkpt>
			<trkpt lat="49.939327" lon="17.900073">
				<ele>259.862488</ele>
			</trkpt>
			<trkpt lat="49.939356" lon="17.900091">
				<ele>259.910858</ele>
			</trkpt>
			<trkpt lat="49.939431" lon="17.900136">
				<ele>260.000000</ele>
			</trkpt>
			<trkpt lat="49.939449" lon="17.900154">
				<ele>260.000000</ele>
			</trkpt>
			<trkpt lat="49.939507" lon="17.900207">
				<ele>260.000000</ele>
			</trkpt>
			<trkpt lat="49.939610" lon="17.899938">
				<ele>260.162323</ele>
			</trkpt>
			<trkpt lat="49.939755" lon="17.899615">
				<ele>260.570801</ele>
			</trkpt>
			<trkpt lat="49.939836" lon="17.899435">
				<ele>260.796509</ele>
			</trkpt>
			<trkpt lat="49.939981" lon="17.899148">
				<ele>260.945770</ele>
			</trkpt>
			<trkpt lat="49.940131" lon="17.898851">
				<ele>260.965088</ele>
			</trkpt>
			<trkpt lat="49.940229" lon="17.898636">
				<ele>260.896393</ele>
			</trkpt>
			<trkpt lat="49.940304" lon="17.898483">
				<ele>261.208069</ele>
			</trkpt>
			<trkpt lat="49.940570" lon="17.897917">
				<ele>261.734650</ele>
			</trkpt>
			<trkpt lat="49.940703" lon="17.897639">
				<ele>261.847229</ele>
			</trkpt>
			<trkpt lat="49.940738" lon="17.897567">
				<ele>261.945374</ele>
			</trkpt>
			<trkpt lat="49.941090" lon="17.896821">
				<ele>263.100891</ele>
			</trkpt>
			<trkpt lat="49.941357" lon="17.896246">
				<ele>263.600037</ele>
			</trkpt>
			<trkpt lat="49.941813" lon="17.895249">
				<ele>264.400024</ele>
			</trkpt>
			<trkpt lat="49.942021" lon="17.894773">
				<ele>264.644409</ele>
			</trkpt>
			<trkpt lat="49.942235" lon="17.894251">
				<ele>264.799988</ele>
			</trkpt>
			<trkpt lat="49.942340" lon="17.894009">
				<ele>265.149750</ele>
			</trkpt>
			<trkpt lat="49.942657" lon="17.893291">
				<ele>264.849365</ele>
			</trkpt>
			<trkpt lat="49.942657" lon="17.893291">
				<ele>264.849365</ele>
			</trkpt>
			<trkpt lat="49.942709" lon="17.893183">
				<ele>264.775665</ele>
			</trkpt>
			<trkpt lat="49.942946" lon="17.892689">
				<ele>264.579712</ele>
			</trkpt>
			<trkpt lat="49.943397" lon="17.891728">
				<ele>263.799988</ele>
			</trkpt>
			<trkpt lat="49.943692" lon="17.891108">
				<ele>263.336426</ele>
			</trkpt>
			<trkpt lat="49.943727" lon="17.891027">
				<ele>263.211304</ele>
			</trkpt>
			<trkpt lat="49.944004" lon="17.890416">
				<ele>261.621338</ele>
			</trkpt>
			<trkpt lat="49.944299" lon="17.889706">
				<ele>261.379761</ele>
			</trkpt>
			<trkpt lat="49.944750" lon="17.888592">
				<ele>261.296509</ele>
			</trkpt>
			<trkpt lat="49.945051" lon="17.887856">
				<ele>260.619690</ele>
			</trkpt>
			<trkpt lat="49.945357" lon="17.887101">
				<ele>258.878326</ele>
			</trkpt>
			<trkpt lat="49.945357" lon="17.887101">
				<ele>258.878326</ele>
			</trkpt>
			<trkpt lat="49.945461" lon="17.886850">
				<ele>258.496735</ele>
			</trkpt>
			<trkpt lat="49.945721" lon="17.886212">
				<ele>257.418091</ele>
			</trkpt>
			<trkpt lat="49.945854" lon="17.885871">
				<ele>257.041809</ele>
			</trkpt>
			<trkpt lat="49.945999" lon="17.885529">
				<ele>256.569122</ele>
			</trkpt>
			<trkpt lat="49.946160" lon="17.885116">
				<ele>256.781921</ele>
			</trkpt>
			<trkpt lat="49.946276" lon="17.884864">
				<ele>256.798828</ele>
			</trkpt>
			<trkpt lat="49.946444" lon="17.884550">
				<ele>256.761200</ele>
			</trkpt>
			<trkpt lat="49.946478" lon="17.884567">
				<ele>256.577118</ele>
			</trkpt>
			<trkpt lat="49.946531" lon="17.884567">
				<ele>256.370819</ele>
			</trkpt>
			<trkpt lat="49.946571" lon="17.884541">
				<ele>256.327820</ele>
			</trkpt>
			<trkpt lat="49.946600" lon="17.884487">
				<ele>256.345825</ele>
			</trkpt>
			<trkpt lat="49.946744" lon="17.884657">
				<ele>255.993423</ele>
			</trkpt>
			<trkpt lat="49.946906" lon="17.884820">
				<ele>255.645905</ele>
			</trkpt>
			<trkpt lat="49.947080" lon="17.885009">
				<ele>254.973389</ele>
			</trkpt>
			<trkpt lat="49.947149" lon="17.885107">
				<ele>254.597992</ele>
			</trkpt>
			<trkpt lat="49.947212" lon="17.885215">
				<ele>254.400330</ele>
			</trkpt>
			<trkpt lat="49.947311" lon="17.885430">
				<ele>254.333496</ele>
			</trkpt>
			<trkpt lat="49.947374" lon="17.885529">
				<ele>254.240982</ele>
			</trkpt>
			<trkpt lat="49.947444" lon="17.885619">
				<ele>254.159546</ele>
			</trkpt>
			<trkpt lat="49.947519" lon="17.885699">
				<ele>254.080276</ele>
			</trkpt>
			<trkpt lat="49.947634" lon="17.885808">
				<ele>253.822144</ele>
			</trkpt>
			<trkpt lat="49.947715" lon="17.885852">
				<ele>253.800003</ele>
			</trkpt>
			<trkpt lat="49.947802" lon="17.885888">
				<ele>253.892944</ele>
			</trkpt>
			<trkpt lat="49.947900" lon="17.885925">
				<ele>253.995071</ele>
			</trkpt>
			<trkpt lat="49.948242" lon="17.885961">
				<ele>253.654953</ele>
			</trkpt>
			<trkpt lat="49.948421" lon="17.885978">
				<ele>253.592178</ele>
			</trkpt>
			<trkpt lat="49.948531" lon="17.885969">
				<ele>253.600006</ele>
			</trkpt>
			<trkpt lat="49.948565" lon="17.885961">
				<ele>253.600006</ele>
			</trkpt>
			<trkpt lat="49.948606" lon="17.885934">
				<ele>253.600021</ele>
			</trkpt>
			<trkpt lat="49.948658" lon="17.885871">
				<ele>253.600037</ele>
			</trkpt>
			<trkpt lat="49.948698" lon="17.885799">
				<ele>253.600037</ele>
			</trkpt>
			<trkpt lat="49.948727" lon="17.885735">
				<ele>253.600037</ele>
			</trkpt>
			<trkpt lat="49.948767" lon="17.885601">
				<ele>253.617630</ele>
			</trkpt>
			<trkpt lat="49.949045" lon="17.884541">
				<ele>253.800018</ele>
			</trkpt>
			<trkpt lat="49.949311" lon="17.883499">
				<ele>254.400009</ele>
			</trkpt>
			<trkpt lat="49.949421" lon="17.883571">
				<ele>254.193207</ele>
			</trkpt>
			<trkpt lat="49.949513" lon="17.883651">
				<ele>254.000015</ele>
			</trkpt>
			<trkpt lat="49.949588" lon="17.883678">
				<ele>253.936035</ele>
			</trkpt>
			<trkpt lat="49.949721" lon="17.883705">
				<ele>253.843307</ele>
			</trkpt>
			<trkpt lat="49.949802" lon="17.883724">
				<ele>253.800018</ele>
			</trkpt>
			<trkpt lat="49.949871" lon="17.883768">
				<ele>253.799988</ele>
			</trkpt>
			<trkpt lat="49.949941" lon="17.883831">
				<ele>253.799988</ele>
			</trkpt>
			<trkpt lat="49.950010" lon="17.883940">
				<ele>253.800003</ele>
			</trkpt>
			<trkpt lat="49.950374" lon="17.884622">
				<ele>253.464951</ele>
			</trkpt>
			<trkpt lat="49.950640" lon="17.885125">
				<ele>253.600006</ele>
			</trkpt>
		</trkseg>
	</trk>
</gpx>

