<?xml version="1.0" encoding="utf-8"?>
<gpx xmlns="http://www.topografix.com/GPX/1/1" version="1.1" creator="https://mapy.com/">
	<trk>
		<name>218</name>
		<trkseg>
			<trkpt lat="49.950640" lon="17.885125">
				<ele>253.600006</ele>
			</trkpt>
			<trkpt lat="49.950467" lon="17.884793">
				<ele>253.449158</ele>
			</trkpt>
			<trkpt lat="49.950837" lon="17.885493">
				<ele>253.600021</ele>
			</trkpt>
			<trkpt lat="49.951212" lon="17.886204">
				<ele>253.400009</ele>
			</trkpt>
			<trkpt lat="49.951247" lon="17.886257">
				<ele>253.399994</ele>
			</trkpt>
			<trkpt lat="49.951276" lon="17.886275">
				<ele>253.400024</ele>
			</trkpt>
			<trkpt lat="49.951305" lon="17.886293">
				<ele>253.400009</ele>
			</trkpt>
			<trkpt lat="49.951346" lon="17.886311">
				<ele>253.436508</ele>
			</trkpt>
			<trkpt lat="49.951409" lon="17.886311">
				<ele>253.600021</ele>
			</trkpt>
			<trkpt lat="49.951444" lon="17.886355">
				<ele>253.597977</ele>
			</trkpt>
			<trkpt lat="49.951473" lon="17.886401">
				<ele>253.594162</ele>
			</trkpt>
			<trkpt lat="49.951490" lon="17.886445">
				<ele>253.600006</ele>
			</trkpt>
			<trkpt lat="49.951496" lon="17.886481">
				<ele>253.600021</ele>
			</trkpt>
			<trkpt lat="49.951496" lon="17.886527">
				<ele>253.600021</ele>
			</trkpt>
			<trkpt lat="49.951461" lon="17.886724">
				<ele>253.400009</ele>
			</trkpt>
			<trkpt lat="49.951444" lon="17.886859">
				<ele>253.385025</ele>
			</trkpt>
			<trkpt lat="49.950305" lon="17.886984">
				<ele>252.622177</ele>
			</trkpt>
			<trkpt lat="49.950224" lon="17.886993">
				<ele>252.718948</ele>
			</trkpt>
			<trkpt lat="49.950051" lon="17.887030">
				<ele>252.799988</ele>
			</trkpt>
			<trkpt lat="49.949871" lon="17.887101">
				<ele>252.800003</ele>
			</trkpt>
			<trkpt lat="49.949282" lon="17.887317">
				<ele>252.978638</ele>
			</trkpt>
			<trkpt lat="49.948652" lon="17.887542">
				<ele>252.837067</ele>
			</trkpt>
			<trkpt lat="49.948351" lon="17.887667">
				<ele>253.000000</ele>
			</trkpt>
			<trkpt lat="49.948236" lon="17.887703">
				<ele>252.996017</ele>
			</trkpt>
			<trkpt lat="49.948207" lon="17.887712">
				<ele>252.969131</ele>
			</trkpt>
			<trkpt lat="49.947444" lon="17.888018">
				<ele>252.800018</ele>
			</trkpt>
			<trkpt lat="49.947467" lon="17.888152">
				<ele>252.800003</ele>
			</trkpt>
			<trkpt lat="49.947496" lon="17.888215">
				<ele>252.800018</ele>
			</trkpt>
			<trkpt lat="49.947530" lon="17.888269">
				<ele>252.800018</ele>
			</trkpt>
			<trkpt lat="49.947709" lon="17.888502">
				<ele>252.800003</ele>
			</trkpt>
			<trkpt lat="49.947860" lon="17.888691">
				<ele>252.788666</ele>
			</trkpt>
			<trkpt lat="49.948132" lon="17.889014">
				<ele>252.498428</ele>
			</trkpt>
			<trkpt lat="49.948155" lon="17.889041">
				<ele>252.458282</ele>
			</trkpt>
			<trkpt lat="49.948155" lon="17.889041">
				<ele>252.458282</ele>
			</trkpt>
			<trkpt lat="49.948317" lon="17.889248">
				<ele>252.522888</ele>
			</trkpt>
			<trkpt lat="49.948375" lon="17.889320">
				<ele>252.438507</ele>
			</trkpt>
			<trkpt lat="49.948490" lon="17.889454">
				<ele>252.262283</ele>
			</trkpt>
			<trkpt lat="49.948611" lon="17.889617">
				<ele>252.331482</ele>
			</trkpt>
			<trkpt lat="49.948259" lon="17.890290">
				<ele>252.199997</ele>
			</trkpt>
			<trkpt lat="49.948196" lon="17.890399">
				<ele>252.200012</ele>
			</trkpt>
			<trkpt lat="49.948137" lon="17.890496">
				<ele>252.199982</ele>
			</trkpt>
			<trkpt lat="49.948028" lon="17.890632">
				<ele>252.200012</ele>
			</trkpt>
			<trkpt lat="49.948022" lon="17.890569">
				<ele>252.200012</ele>
			</trkpt>
			<trkpt lat="49.948010" lon="17.890533">
				<ele>252.199982</ele>
			</trkpt>
			<trkpt lat="49.947970" lon="17.890462">
				<ele>252.199997</ele>
			</trkpt>
			<trkpt lat="49.947918" lon="17.890416">
				<ele>252.199982</ele>
			</trkpt>
			<trkpt lat="49.947843" lon="17.890407">
				<ele>252.199997</ele>
			</trkpt>
			<trkpt lat="49.947675" lon="17.890999">
				<ele>252.062500</ele>
			</trkpt>
			<trkpt lat="49.947305" lon="17.892464">
				<ele>251.742706</ele>
			</trkpt>
			<trkpt lat="49.947276" lon="17.892572">
				<ele>251.600021</ele>
			</trkpt>
			<trkpt lat="49.946837" lon="17.894378">
				<ele>251.465530</ele>
			</trkpt>
			<trkpt lat="49.946791" lon="17.894540">
				<ele>251.467529</ele>
			</trkpt>
			<trkpt lat="49.946773" lon="17.894584">
				<ele>251.594940</ele>
			</trkpt>
			<trkpt lat="49.946773" lon="17.894584">
				<ele>251.594940</ele>
			</trkpt>
			<trkpt lat="49.946750" lon="17.894647">
				<ele>251.600021</ele>
			</trkpt>
			<trkpt lat="49.946704" lon="17.894754">
				<ele>251.498367</ele>
			</trkpt>
			<trkpt lat="49.946646" lon="17.894880">
				<ele>251.400024</ele>
			</trkpt>
			<trkpt lat="49.946525" lon="17.895043">
				<ele>251.399994</ele>
			</trkpt>
			<trkpt lat="49.946398" lon="17.895167">
				<ele>251.400009</ele>
			</trkpt>
			<trkpt lat="49.946230" lon="17.895312">
				<ele>251.264893</ele>
			</trkpt>
			<trkpt lat="49.945953" lon="17.895492">
				<ele>251.199997</ele>
			</trkpt>
			<trkpt lat="49.945727" lon="17.895609">
				<ele>251.200012</ele>
			</trkpt>
			<trkpt lat="49.945646" lon="17.895644">
				<ele>251.199997</ele>
			</trkpt>
			<trkpt lat="49.945565" lon="17.895707">
				<ele>251.154465</ele>
			</trkpt>
			<trkpt lat="49.945316" lon="17.895913">
				<ele>251.093353</ele>
			</trkpt>
			<trkpt lat="49.944779" lon="17.895133">
				<ele>252.600021</ele>
			</trkpt>
			<trkpt lat="49.944357" lon="17.895806">
				<ele>252.631607</ele>
			</trkpt>
			<trkpt lat="49.944270" lon="17.895941">
				<ele>252.502609</ele>
			</trkpt>
			<trkpt lat="49.944114" lon="17.895770">
				<ele>253.000015</ele>
			</trkpt>
			<trkpt lat="49.943923" lon="17.895582">
				<ele>253.000031</ele>
			</trkpt>
			<trkpt lat="49.943923" lon="17.895582">
				<ele>253.000031</ele>
			</trkpt>
			<trkpt lat="49.943606" lon="17.895267">
				<ele>254.000031</ele>
			</trkpt>
			<trkpt lat="49.943033" lon="17.894691">
				<ele>259.792114</ele>
			</trkpt>
			<trkpt lat="49.942750" lon="17.894423">
				<ele>261.897949</ele>
			</trkpt>
			<trkpt lat="49.942340" lon="17.894009">
				<ele>265.149750</ele>
			</trkpt>
			<trkpt lat="49.942235" lon="17.894251">
				<ele>264.799988</ele>
			</trkpt>
			<trkpt lat="49.942021" lon="17.894773">
				<ele>264.644409</ele>
			</trkpt>
			<trkpt lat="49.941998" lon="17.894836">
				<ele>264.604584</ele>
			</trkpt>
			<trkpt lat="49.941998" lon="17.894836">
				<ele>264.604584</ele>
			</trkpt>
			<trkpt lat="49.941813" lon="17.895249">
				<ele>264.400024</ele>
			</trkpt>
			<trkpt lat="49.941357" lon="17.896246">
				<ele>263.600037</ele>
			</trkpt>
			<trkpt lat="49.941090" lon="17.896821">
				<ele>263.100891</ele>
			</trkpt>
			<trkpt lat="49.940738" lon="17.897567">
				<ele>261.945374</ele>
			</trkpt>
			<trkpt lat="49.940570" lon="17.897917">
				<ele>261.734650</ele>
			</trkpt>
			<trkpt lat="49.940304" lon="17.898483">
				<ele>261.208069</ele>
			</trkpt>
			<trkpt lat="49.940229" lon="17.898636">
				<ele>260.896393</ele>
			</trkpt>
			<trkpt lat="49.940131" lon="17.898851">
				<ele>260.965088</ele>
			</trkpt>
			<trkpt lat="49.939981" lon="17.899148">
				<ele>260.945770</ele>
			</trkpt>
			<trkpt lat="49.939836" lon="17.899435">
				<ele>260.796509</ele>
			</trkpt>
			<trkpt lat="49.939755" lon="17.899615">
				<ele>260.570801</ele>
			</trkpt>
			<trkpt lat="49.939610" lon="17.899938">
				<ele>260.162323</ele>
			</trkpt>
			<trkpt lat="49.939507" lon="17.900207">
				<ele>260.000000</ele>
			</trkpt>
			<trkpt lat="49.939420" lon="17.900441">
				<ele>260.000000</ele>
			</trkpt>
			<trkpt lat="49.939368" lon="17.900630">
				<ele>259.600067</ele>
			</trkpt>
			<trkpt lat="49.939327" lon="17.900809">
				<ele>259.229950</ele>
			</trkpt>
			<trkpt lat="49.939327" lon="17.900809">
				<ele>259.229950</ele>
			</trkpt>
			<trkpt lat="49.939298" lon="17.900953">
				<ele>258.684174</ele>
			</trkpt>
			<trkpt lat="49.939240" lon="17.901393">
				<ele>257.999969</ele>
			</trkpt>
			<trkpt lat="49.939183" lon="17.901852">
				<ele>257.800018</ele>
			</trkpt>
			<trkpt lat="49.939096" lon="17.902444">
				<ele>257.400024</ele>
			</trkpt>
			<trkpt lat="49.939079" lon="17.902570">
				<ele>257.200012</ele>
			</trkpt>
			<trkpt lat="49.939021" lon="17.903056">
				<ele>257.000000</ele>
			</trkpt>
			<trkpt lat="49.939009" lon="17.903173">
				<ele>257.000000</ele>
			</trkpt>
			<trkpt lat="49.939015" lon="17.903262">
				<ele>256.979248</ele>
			</trkpt>
			<trkpt lat="49.939021" lon="17.903333">
				<ele>256.893005</ele>
			</trkpt>
			<trkpt lat="49.939044" lon="17.903469">
				<ele>256.799988</ele>
			</trkpt>
			<trkpt lat="49.939084" lon="17.903586">
				<ele>256.799988</ele>
			</trkpt>
			<trkpt lat="49.939374" lon="17.904358">
				<ele>256.600037</ele>
			</trkpt>
			<trkpt lat="49.939408" lon="17.904457">
				<ele>256.587128</ele>
			</trkpt>
			<trkpt lat="49.939431" lon="17.904555">
				<ele>256.313019</ele>
			</trkpt>
			<trkpt lat="49.939437" lon="17.904654">
				<ele>256.200012</ele>
			</trkpt>
			<trkpt lat="49.939437" lon="17.904754">
				<ele>256.121368</ele>
			</trkpt>
			<trkpt lat="49.939414" lon="17.904915">
				<ele>255.992737</ele>
			</trkpt>
			<trkpt lat="49.939374" lon="17.905050">
				<ele>255.904114</ele>
			</trkpt>
			<trkpt lat="49.939344" lon="17.905148">
				<ele>255.831665</ele>
			</trkpt>
			<trkpt lat="49.939183" lon="17.905507">
				<ele>255.267349</ele>
			</trkpt>
			<trkpt lat="49.939183" lon="17.905507">
				<ele>255.267349</ele>
			</trkpt>
			<trkpt lat="49.939114" lon="17.905660">
				<ele>255.030899</ele>
			</trkpt>
			<trkpt lat="49.938772" lon="17.906370">
				<ele>255.199997</ele>
			</trkpt>
			<trkpt lat="49.938697" lon="17.906505">
				<ele>255.014984</ele>
			</trkpt>
			<trkpt lat="49.938616" lon="17.906639">
				<ele>254.800003</ele>
			</trkpt>
			<trkpt lat="49.938426" lon="17.906999">
				<ele>254.423004</ele>
			</trkpt>
			<trkpt lat="49.938292" lon="17.907259">
				<ele>254.199997</ele>
			</trkpt>
			<trkpt lat="49.938153" lon="17.907125">
				<ele>254.200012</ele>
			</trkpt>
			<trkpt lat="49.937905" lon="17.906873">
				<ele>254.400009</ele>
			</trkpt>
			<trkpt lat="49.937448" lon="17.906415">
				<ele>254.399994</ele>
			</trkpt>
			<trkpt lat="49.937344" lon="17.906316">
				<ele>254.416534</ele>
			</trkpt>
			<trkpt lat="49.937344" lon="17.906316">
				<ele>254.416534</ele>
			</trkpt>
			<trkpt lat="49.937229" lon="17.906209">
				<ele>254.638718</ele>
			</trkpt>
			<trkpt lat="49.937038" lon="17.906037">
				<ele>255.056488</ele>
			</trkpt>
			<trkpt lat="49.936841" lon="17.905903">
				<ele>255.441315</ele>
			</trkpt>
			<trkpt lat="49.936621" lon="17.905796">
				<ele>255.854004</ele>
			</trkpt>
			<trkpt lat="49.936407" lon="17.905741">
				<ele>256.399994</ele>
			</trkpt>
			<trkpt lat="49.936263" lon="17.905714">
				<ele>256.645386</ele>
			</trkpt>
			<trkpt lat="49.936089" lon="17.905706">
				<ele>256.866852</ele>
			</trkpt>
			<trkpt lat="49.935991" lon="17.905696">
				<ele>257.093750</ele>
			</trkpt>
			<trkpt lat="49.935812" lon="17.905706">
				<ele>257.410400</ele>
			</trkpt>
			<trkpt lat="49.935748" lon="17.905723">
				<ele>257.533997</ele>
			</trkpt>
			<trkpt lat="49.935673" lon="17.905796">
				<ele>257.730469</ele>
			</trkpt>
			<trkpt lat="49.935517" lon="17.906029">
				<ele>256.841614</ele>
			</trkpt>
			<trkpt lat="49.935135" lon="17.906595">
				<ele>255.599792</ele>
			</trkpt>
			<trkpt lat="49.934974" lon="17.906783">
				<ele>255.297501</ele>
			</trkpt>
			<trkpt lat="49.934800" lon="17.907035">
				<ele>254.524078</ele>
			</trkpt>
			<trkpt lat="49.934656" lon="17.907259">
				<ele>254.200592</ele>
			</trkpt>
			<trkpt lat="49.934396" lon="17.907771">
				<ele>253.931351</ele>
			</trkpt>
			<trkpt lat="49.934396" lon="17.907771">
				<ele>253.931351</ele>
			</trkpt>
			<trkpt lat="49.934233" lon="17.908104">
				<ele>253.782806</ele>
			</trkpt>
			<trkpt lat="49.933985" lon="17.908597">
				<ele>253.692230</ele>
			</trkpt>
			<trkpt lat="49.933863" lon="17.908832">
				<ele>253.799988</ele>
			</trkpt>
			<trkpt lat="49.933759" lon="17.909047">
				<ele>253.747101</ele>
			</trkpt>
			<trkpt lat="49.933592" lon="17.909299">
				<ele>253.799805</ele>
			</trkpt>
			<trkpt lat="49.933493" lon="17.909496">
				<ele>253.792038</ele>
			</trkpt>
			<trkpt lat="49.932649" lon="17.911230">
				<ele>253.529037</ele>
			</trkpt>
			<trkpt lat="49.931817" lon="17.912945">
				<ele>254.461990</ele>
			</trkpt>
			<trkpt lat="49.931145" lon="17.914312">
				<ele>254.106842</ele>
			</trkpt>
			<trkpt lat="49.931047" lon="17.914463">
				<ele>253.701935</ele>
			</trkpt>
			<trkpt lat="49.931001" lon="17.914509">
				<ele>253.692184</ele>
			</trkpt>
			<trkpt lat="49.930949" lon="17.914563">
				<ele>253.875061</ele>
			</trkpt>
			<trkpt lat="49.930903" lon="17.914589">
				<ele>254.133011</ele>
			</trkpt>
			<trkpt lat="49.930839" lon="17.914599">
				<ele>254.498489</ele>
			</trkpt>
			<trkpt lat="49.930712" lon="17.914608">
				<ele>254.688416</ele>
			</trkpt>
			<trkpt lat="49.930573" lon="17.914553">
				<ele>255.203339</ele>
			</trkpt>
			<trkpt lat="49.930250" lon="17.914410">
				<ele>256.358765</ele>
			</trkpt>
			<trkpt lat="49.930111" lon="17.914347">
				<ele>256.923035</ele>
			</trkpt>
			<trkpt lat="49.929474" lon="17.914069">
				<ele>259.302734</ele>
			</trkpt>
			<trkpt lat="49.929283" lon="17.913987">
				<ele>260.200684</ele>
			</trkpt>
			<trkpt lat="49.929283" lon="17.913987">
				<ele>260.200684</ele>
			</trkpt>
			<trkpt lat="49.929191" lon="17.913943">
				<ele>260.400024</ele>
			</trkpt>
			<trkpt lat="49.928676" lon="17.913719">
				<ele>262.332764</ele>
			</trkpt>
			<trkpt lat="49.928451" lon="17.913620">
				<ele>263.000000</ele>
			</trkpt>
			<trkpt lat="49.928266" lon="17.913584">
				<ele>262.998383</ele>
			</trkpt>
			<trkpt lat="49.928104" lon="17.913584">
				<ele>262.780212</ele>
			</trkpt>
			<trkpt lat="49.927832" lon="17.913637">
				<ele>262.180664</ele>
			</trkpt>
			<trkpt lat="49.927387" lon="17.913727">
				<ele>260.590546</ele>
			</trkpt>
			<trkpt lat="49.927011" lon="17.913773">
				<ele>258.797394</ele>
			</trkpt>
			<trkpt lat="49.926936" lon="17.913763">
				<ele>258.499939</ele>
			</trkpt>
			<trkpt lat="49.926722" lon="17.913763">
				<ele>257.652771</ele>
			</trkpt>
			<trkpt lat="49.926409" lon="17.913736">
				<ele>256.411957</ele>
			</trkpt>
			<trkpt lat="49.925993" lon="17.913691">
				<ele>255.589005</ele>
			</trkpt>
			<trkpt lat="49.925589" lon="17.913656">
				<ele>254.649628</ele>
			</trkpt>
			<trkpt lat="49.924970" lon="17.913574">
				<ele>254.108307</ele>
			</trkpt>
			<trkpt lat="49.924622" lon="17.913539">
				<ele>253.730179</ele>
			</trkpt>
			<trkpt lat="49.924530" lon="17.913539">
				<ele>253.600021</ele>
			</trkpt>
			<trkpt lat="49.923582" lon="17.913440">
				<ele>251.795731</ele>
			</trkpt>
			<trkpt lat="49.923472" lon="17.913421">
				<ele>251.561798</ele>
			</trkpt>
			<trkpt lat="49.923333" lon="17.913394">
				<ele>251.297058</ele>
			</trkpt>
			<trkpt lat="49.922731" lon="17.913331">
				<ele>250.198761</ele>
			</trkpt>
			<trkpt lat="49.922506" lon="17.913287">
				<ele>250.000015</ele>
			</trkpt>
			<trkpt lat="49.922291" lon="17.913233">
				<ele>250.000015</ele>
			</trkpt>
			<trkpt lat="49.922165" lon="17.913188">
				<ele>250.000015</ele>
			</trkpt>
			<trkpt lat="49.921898" lon="17.913071">
				<ele>250.000000</ele>
			</trkpt>
			<trkpt lat="49.921586" lon="17.912901">
				<ele>249.999329</ele>
			</trkpt>
			<trkpt lat="49.921499" lon="17.912847">
				<ele>250.000015</ele>
			</trkpt>
			<trkpt lat="49.921499" lon="17.912847">
				<ele>250.000015</ele>
			</trkpt>
			<trkpt lat="49.921418" lon="17.912802">
				<ele>250.000015</ele>
			</trkpt>
			<trkpt lat="49.921066" lon="17.912614">
				<ele>250.000397</ele>
			</trkpt>
			<trkpt lat="49.920852" lon="17.912497">
				<ele>250.000000</ele>
			</trkpt>
			<trkpt lat="49.920614" lon="17.912371">
				<ele>250.000031</ele>
			</trkpt>
			<trkpt lat="49.920319" lon="17.912209">
				<ele>249.598511</ele>
			</trkpt>
			<trkpt lat="49.920100" lon="17.912083">
				<ele>249.799988</ele>
			</trkpt>
			<trkpt lat="49.919955" lon="17.911966">
				<ele>249.774170</ele>
			</trkpt>
			<trkpt lat="49.919799" lon="17.911805">
				<ele>249.856384</ele>
			</trkpt>
			<trkpt lat="49.919590" lon="17.911509">
				<ele>249.847565</ele>
			</trkpt>
			<trkpt lat="49.919475" lon="17.911365">
				<ele>249.970047</ele>
			</trkpt>
			<trkpt lat="49.919389" lon="17.911266">
				<ele>250.017258</ele>
			</trkpt>
			<trkpt lat="49.919313" lon="17.911203">
				<ele>250.199997</ele>
			</trkpt>
			<trkpt lat="49.919220" lon="17.911140">
				<ele>250.200012</ele>
			</trkpt>
			<trkpt lat="49.919134" lon="17.911104">
				<ele>250.239334</ele>
			</trkpt>
			<trkpt lat="49.919041" lon="17.911086">
				<ele>250.397858</ele>
			</trkpt>
			<trkpt lat="49.918955" lon="17.911096">
				<ele>250.625839</ele>
			</trkpt>
			<trkpt lat="49.918845" lon="17.911104">
				<ele>250.783844</ele>
			</trkpt>
			<trkpt lat="49.918601" lon="17.911176">
				<ele>251.031494</ele>
			</trkpt>
			<trkpt lat="49.918076" lon="17.911373">
				<ele>252.085159</ele>
			</trkpt>
			<trkpt lat="49.917728" lon="17.911509">
				<ele>252.492996</ele>
			</trkpt>
			<trkpt lat="49.917555" lon="17.911607">
				<ele>252.787430</ele>
			</trkpt>
			<trkpt lat="49.917393" lon="17.911723">
				<ele>253.200363</ele>
			</trkpt>
			<trkpt lat="49.917196" lon="17.911913">
				<ele>253.223907</ele>
			</trkpt>
			<trkpt lat="49.917040" lon="17.912083">
				<ele>253.380417</ele>
			</trkpt>
			<trkpt lat="49.916889" lon="17.912308">
				<ele>253.533997</ele>
			</trkpt>
			<trkpt lat="49.916704" lon="17.912631">
				<ele>254.199982</ele>
			</trkpt>
			<trkpt lat="49.916497" lon="17.912981">
				<ele>255.000031</ele>
			</trkpt>
			<trkpt lat="49.916253" lon="17.913314">
				<ele>254.775543</ele>
			</trkpt>
			<trkpt lat="49.915768" lon="17.913943">
				<ele>253.400009</ele>
			</trkpt>
			<trkpt lat="49.915629" lon="17.914159">
				<ele>253.140320</ele>
			</trkpt>
			<trkpt lat="49.915467" lon="17.914410">
				<ele>252.181046</ele>
			</trkpt>
			<trkpt lat="49.915322" lon="17.914652">
				<ele>251.747467</ele>
			</trkpt>
			<trkpt lat="49.914935" lon="17.915281">
				<ele>250.638885</ele>
			</trkpt>
			<trkpt lat="49.914674" lon="17.915740">
				<ele>249.897186</ele>
			</trkpt>
			<trkpt lat="49.914350" lon="17.916377">
				<ele>249.400192</ele>
			</trkpt>
			<trkpt lat="49.914160" lon="17.916755">
				<ele>249.600021</ele>
			</trkpt>
			<trkpt lat="49.913991" lon="17.917052">
				<ele>249.400009</ele>
			</trkpt>
			<trkpt lat="49.913691" lon="17.917555">
				<ele>249.400024</ele>
			</trkpt>
			<trkpt lat="49.913390" lon="17.918048">
				<ele>249.600021</ele>
			</trkpt>
			<trkpt lat="49.913390" lon="17.918048">
				<ele>249.600021</ele>
			</trkpt>
			<trkpt lat="49.913303" lon="17.918184">
				<ele>249.600037</ele>
			</trkpt>
			<trkpt lat="49.913222" lon="17.918300">
				<ele>249.787369</ele>
			</trkpt>
			<trkpt lat="49.913158" lon="17.918398">
				<ele>249.785858</ele>
			</trkpt>
			<trkpt lat="49.913072" lon="17.918507">
				<ele>248.928955</ele>
			</trkpt>
			<trkpt lat="49.913020" lon="17.918425">
				<ele>248.825836</ele>
			</trkpt>
			<trkpt lat="49.912951" lon="17.918407">
				<ele>248.246490</ele>
			</trkpt>
			<trkpt lat="49.912904" lon="17.918407">
				<ele>247.988342</ele>
			</trkpt>
			<trkpt lat="49.912858" lon="17.918444">
				<ele>247.819489</ele>
			</trkpt>
			<trkpt lat="49.912812" lon="17.918488">
				<ele>248.167435</ele>
			</trkpt>
			<trkpt lat="49.912777" lon="17.918551">
				<ele>248.839294</ele>
			</trkpt>
			<trkpt lat="49.912753" lon="17.918631">
				<ele>249.366272</ele>
			</trkpt>
			<trkpt lat="49.912753" lon="17.918731">
				<ele>249.574219</ele>
			</trkpt>
			<trkpt lat="49.912766" lon="17.918821">
				<ele>249.651642</ele>
			</trkpt>
			<trkpt lat="49.912800" lon="17.918901">
				<ele>249.544067</ele>
			</trkpt>
			<trkpt lat="49.912846" lon="17.918947">
				<ele>249.302994</ele>
			</trkpt>
			<trkpt lat="49.912771" lon="17.919073">
				<ele>248.612946</ele>
			</trkpt>
			<trkpt lat="49.912731" lon="17.919136">
				<ele>246.758072</ele>
			</trkpt>
			<trkpt lat="49.912302" lon="17.919845">
				<ele>248.976883</ele>
			</trkpt>
			<trkpt lat="49.912245" lon="17.919926">
				<ele>249.898468</ele>
			</trkpt>
			<trkpt lat="49.912112" lon="17.920159">
				<ele>249.944916</ele>
			</trkpt>
			<trkpt lat="49.912002" lon="17.920329">
				<ele>249.773010</ele>
			</trkpt>
			<trkpt lat="49.911892" lon="17.920482">
				<ele>249.621689</ele>
			</trkpt>
			<trkpt lat="49.911776" lon="17.920608">
				<ele>249.800018</ele>
			</trkpt>
			<trkpt lat="49.911666" lon="17.920717">
				<ele>249.800018</ele>
			</trkpt>
			<trkpt lat="49.911557" lon="17.920805">
				<ele>249.630814</ele>
			</trkpt>
			<trkpt lat="49.911429" lon="17.920887">
				<ele>249.400009</ele>
			</trkpt>
			<trkpt lat="49.910920" lon="17.921157">
				<ele>249.239670</ele>
			</trkpt>
			<trkpt lat="49.910474" lon="17.921399">
				<ele>249.048279</ele>
			</trkpt>
			<trkpt lat="49.909989" lon="17.921686">
				<ele>248.902374</ele>
			</trkpt>
			<trkpt lat="49.909549" lon="17.921965">
				<ele>248.755524</ele>
			</trkpt>
			<trkpt lat="49.909126" lon="17.922279">
				<ele>249.131622</ele>
			</trkpt>
			<trkpt lat="49.908843" lon="17.922495">
				<ele>249.122498</ele>
			</trkpt>
			<trkpt lat="49.908658" lon="17.922612">
				<ele>247.857819</ele>
			</trkpt>
			<trkpt lat="49.908450" lon="17.922738">
				<ele>248.755478</ele>
			</trkpt>
			<trkpt lat="49.907929" lon="17.922998">
				<ele>249.000000</ele>
			</trkpt>
			<trkpt lat="49.907484" lon="17.923195">
				<ele>249.199997</ele>
			</trkpt>
			<trkpt lat="49.907119" lon="17.923321">
				<ele>249.985519</ele>
			</trkpt>
			<trkpt lat="49.906922" lon="17.923411">
				<ele>250.199997</ele>
			</trkpt>
			<trkpt lat="49.906674" lon="17.923897">
				<ele>250.199997</ele>
			</trkpt>
			<trkpt lat="49.906401" lon="17.924426">
				<ele>250.400024</ele>
			</trkpt>
			<trkpt lat="49.906182" lon="17.924830">
				<ele>250.400009</ele>
			</trkpt>
			<trkpt lat="49.905950" lon="17.925235">
				<ele>250.216324</ele>
			</trkpt>
			<trkpt lat="49.905650" lon="17.925711">
				<ele>250.523804</ele>
			</trkpt>
			<trkpt lat="49.904805" lon="17.927031">
				<ele>251.000031</ele>
			</trkpt>
			<trkpt lat="49.904365" lon="17.927742">
				<ele>251.746170</ele>
			</trkpt>
			<trkpt lat="49.903926" lon="17.928495">
				<ele>253.528961</ele>
			</trkpt>
			<trkpt lat="49.903433" lon="17.929394">
				<ele>256.168915</ele>
			</trkpt>
			<trkpt lat="49.903301" lon="17.929637">
				<ele>257.105682</ele>
			</trkpt>
			<trkpt lat="49.903179" lon="17.929852">
				<ele>257.414307</ele>
			</trkpt>
			<trkpt lat="49.902832" lon="17.930346">
				<ele>257.413544</ele>
			</trkpt>
			<trkpt lat="49.902438" lon="17.930939">
				<ele>258.000000</ele>
			</trkpt>
			<trkpt lat="49.901727" lon="17.932026">
				<ele>259.487335</ele>
			</trkpt>
			<trkpt lat="49.901386" lon="17.932520">
				<ele>260.341003</ele>
			</trkpt>
			<trkpt lat="49.901235" lon="17.932690">
				<ele>260.405945</ele>
			</trkpt>
			<trkpt lat="49.901107" lon="17.932807">
				<ele>260.725677</ele>
			</trkpt>
			<trkpt lat="49.900981" lon="17.932897">
				<ele>260.819763</ele>
			</trkpt>
			<trkpt lat="49.900807" lon="17.932987">
				<ele>260.971832</ele>
			</trkpt>
			<trkpt lat="49.900356" lon="17.933221">
				<ele>261.949432</ele>
			</trkpt>
			<trkpt lat="49.900141" lon="17.933346">
				<ele>262.245117</ele>
			</trkpt>
			<trkpt lat="49.900055" lon="17.933401">
				<ele>262.400024</ele>
			</trkpt>
			<trkpt lat="49.899985" lon="17.933481">
				<ele>262.483887</ele>
			</trkpt>
			<trkpt lat="49.899835" lon="17.933634">
				<ele>263.040039</ele>
			</trkpt>
			<trkpt lat="49.899644" lon="17.933832">
				<ele>263.853210</ele>
			</trkpt>
			<trkpt lat="49.899458" lon="17.933958">
				<ele>264.200012</ele>
			</trkpt>
			<trkpt lat="49.898278" lon="17.934667">
				<ele>265.507080</ele>
			</trkpt>
			<trkpt lat="49.897966" lon="17.934874">
				<ele>266.217316</ele>
			</trkpt>
			<trkpt lat="49.897612" lon="17.935134">
				<ele>267.000000</ele>
			</trkpt>
			<trkpt lat="49.897537" lon="17.935206">
				<ele>267.244080</ele>
			</trkpt>
			<trkpt lat="49.897462" lon="17.935287">
				<ele>267.601562</ele>
			</trkpt>
			<trkpt lat="49.897405" lon="17.935367">
				<ele>267.762756</ele>
			</trkpt>
			<trkpt lat="49.897352" lon="17.935476">
				<ele>267.799988</ele>
			</trkpt>
			<trkpt lat="49.897271" lon="17.935665">
				<ele>267.938965</ele>
			</trkpt>
			<trkpt lat="49.897138" lon="17.936032">
				<ele>268.238464</ele>
			</trkpt>
			<trkpt lat="49.896641" lon="17.937451">
				<ele>270.321503</ele>
			</trkpt>
			<trkpt lat="49.896496" lon="17.937839">
				<ele>270.396088</ele>
			</trkpt>
			<trkpt lat="49.896328" lon="17.938242">
				<ele>270.584015</ele>
			</trkpt>
			<trkpt lat="49.896201" lon="17.938485">
				<ele>270.697327</ele>
			</trkpt>
			<trkpt lat="49.896062" lon="17.938709">
				<ele>270.946381</ele>
			</trkpt>
			<trkpt lat="49.895952" lon="17.938862">
				<ele>271.258087</ele>
			</trkpt>
			<trkpt lat="49.895628" lon="17.939258">
				<ele>272.171753</ele>
			</trkpt>
			<trkpt lat="49.895466" lon="17.939455">
				<ele>272.448029</ele>
			</trkpt>
			<trkpt lat="49.895339" lon="17.939625">
				<ele>272.694641</ele>
			</trkpt>
			<trkpt lat="49.894991" lon="17.940093">
				<ele>273.362335</ele>
			</trkpt>
			<trkpt lat="49.894870" lon="17.940246">
				<ele>273.700012</ele>
			</trkpt>
			<trkpt lat="49.894436" lon="17.940803">
				<ele>275.697601</ele>
			</trkpt>
			<trkpt lat="49.894250" lon="17.941027">
				<ele>276.158142</ele>
			</trkpt>
			<trkpt lat="49.893822" lon="17.941575">
				<ele>276.200012</ele>
			</trkpt>
			<trkpt lat="49.893637" lon="17.941827">
				<ele>276.571899</ele>
			</trkpt>
			<trkpt lat="49.893411" lon="17.942141">
				<ele>277.033234</ele>
			</trkpt>
			<trkpt lat="49.893411" lon="17.942141">
				<ele>277.033234</ele>
			</trkpt>
			<trkpt lat="49.893336" lon="17.942240">
				<ele>277.421082</ele>
			</trkpt>
			<trkpt lat="49.893116" lon="17.942545">
				<ele>277.414581</ele>
			</trkpt>
			<trkpt lat="49.892983" lon="17.942384">
				<ele>278.020660</ele>
			</trkpt>
			<trkpt lat="49.892734" lon="17.942132">
				<ele>278.299530</ele>
			</trkpt>
			<trkpt lat="49.892237" lon="17.941629">
				<ele>279.272583</ele>
			</trkpt>
			<trkpt lat="49.891918" lon="17.941332">
				<ele>280.103058</ele>
			</trkpt>
			<trkpt lat="49.891478" lon="17.940929">
				<ele>282.311493</ele>
			</trkpt>
			<trkpt lat="49.891351" lon="17.940793">
				<ele>283.041443</ele>
			</trkpt>
			<trkpt lat="49.891201" lon="17.940650">
				<ele>283.880768</ele>
			</trkpt>
			<trkpt lat="49.891062" lon="17.940506">
				<ele>284.448730</ele>
			</trkpt>
			<trkpt lat="49.891062" lon="17.940506">
				<ele>284.448730</ele>
			</trkpt>
			<trkpt lat="49.890883" lon="17.940309">
				<ele>285.364197</ele>
			</trkpt>
			<trkpt lat="49.890604" lon="17.939985">
				<ele>287.395081</ele>
			</trkpt>
			<trkpt lat="49.890512" lon="17.939868">
				<ele>287.621338</ele>
			</trkpt>
			<trkpt lat="49.890315" lon="17.939644">
				<ele>289.173981</ele>
			</trkpt>
			<trkpt lat="49.890240" lon="17.939545">
				<ele>289.698181</ele>
			</trkpt>
			<trkpt lat="49.890083" lon="17.939357">
				<ele>290.635834</ele>
			</trkpt>
			<trkpt lat="49.889401" lon="17.938529">
				<ele>293.913818</ele>
			</trkpt>
			<trkpt lat="49.888990" lon="17.938017">
				<ele>297.248352</ele>
			</trkpt>
			<trkpt lat="49.888562" lon="17.937487">
				<ele>300.475494</ele>
			</trkpt>
			<trkpt lat="49.887728" lon="17.936491">
				<ele>308.243683</ele>
			</trkpt>
			<trkpt lat="49.887636" lon="17.936374">
				<ele>309.165527</ele>
			</trkpt>
			<trkpt lat="49.887496" lon="17.936212">
				<ele>310.355042</ele>
			</trkpt>
			<trkpt lat="49.887323" lon="17.935979">
				<ele>313.082855</ele>
			</trkpt>
			<trkpt lat="49.887179" lon="17.935763">
				<ele>314.146454</ele>
			</trkpt>
			<trkpt lat="49.887039" lon="17.935529">
				<ele>316.102081</ele>
			</trkpt>
			<trkpt lat="49.886866" lon="17.935206">
				<ele>318.448242</ele>
			</trkpt>
			<trkpt lat="49.886594" lon="17.934631">
				<ele>322.225006</ele>
			</trkpt>
			<trkpt lat="49.886247" lon="17.933832">
				<ele>325.209442</ele>
			</trkpt>
			<trkpt lat="49.886154" lon="17.933616">
				<ele>325.877075</ele>
			</trkpt>
			<trkpt lat="49.886154" lon="17.933616">
				<ele>325.877075</ele>
			</trkpt>
			<trkpt lat="49.886073" lon="17.933428">
				<ele>326.679993</ele>
			</trkpt>
			<trkpt lat="49.886015" lon="17.933302">
				<ele>327.034363</ele>
			</trkpt>
			<trkpt lat="49.885992" lon="17.933239">
				<ele>327.082764</ele>
			</trkpt>
			<trkpt lat="49.885934" lon="17.933059">
				<ele>327.068909</ele>
			</trkpt>
			<trkpt lat="49.885876" lon="17.932807">
				<ele>326.211823</ele>
			</trkpt>
			<trkpt lat="49.885783" lon="17.932421">
				<ele>325.526093</ele>
			</trkpt>
			<trkpt lat="49.885552" lon="17.931379">
				<ele>318.838593</ele>
			</trkpt>
			<trkpt lat="49.885407" lon="17.930661">
				<ele>316.043488</ele>
			</trkpt>
			<trkpt lat="49.885274" lon="17.929897">
				<ele>312.807617</ele>
			</trkpt>
			<trkpt lat="49.885187" lon="17.929340">
				<ele>311.542236</ele>
			</trkpt>
			<trkpt lat="49.885135" lon="17.928945">
				<ele>310.012482</ele>
			</trkpt>
			<trkpt lat="49.885101" lon="17.928541">
				<ele>308.541718</ele>
			</trkpt>
			<trkpt lat="49.885072" lon="17.928065">
				<ele>307.313782</ele>
			</trkpt>
			<trkpt lat="49.885025" lon="17.927256">
				<ele>306.485504</ele>
			</trkpt>
			<trkpt lat="49.884950" lon="17.926061">
				<ele>304.430939</ele>
			</trkpt>
			<trkpt lat="49.884898" lon="17.925531">
				<ele>302.989777</ele>
			</trkpt>
			<trkpt lat="49.884806" lon="17.924902">
				<ele>302.746613</ele>
			</trkpt>
			<trkpt lat="49.884777" lon="17.924687">
				<ele>302.824249</ele>
			</trkpt>
			<trkpt lat="49.884620" lon="17.923734">
				<ele>303.582153</ele>
			</trkpt>
			<trkpt lat="49.884522" lon="17.923034">
				<ele>304.723206</ele>
			</trkpt>
			<trkpt lat="49.884498" lon="17.922836">
				<ele>304.978302</ele>
			</trkpt>
			<trkpt lat="49.884476" lon="17.922612">
				<ele>305.181183</ele>
			</trkpt>
			<trkpt lat="49.884470" lon="17.922180">
				<ele>305.236237</ele>
			</trkpt>
			<trkpt lat="49.884441" lon="17.920851">
				<ele>305.346649</ele>
			</trkpt>
			<trkpt lat="49.884441" lon="17.920627">
				<ele>305.549255</ele>
			</trkpt>
			<trkpt lat="49.884452" lon="17.920447">
				<ele>305.420319</ele>
			</trkpt>
			<trkpt lat="49.884476" lon="17.920302">
				<ele>305.181152</ele>
			</trkpt>
			<trkpt lat="49.884522" lon="17.920186">
				<ele>304.923218</ele>
			</trkpt>
			<trkpt lat="49.884574" lon="17.920268">
				<ele>304.533325</ele>
			</trkpt>
			<trkpt lat="49.884672" lon="17.920348">
				<ele>304.042419</ele>
			</trkpt>
			<trkpt lat="49.884979" lon="17.920608">
				<ele>301.943481</ele>
			</trkpt>
			<trkpt lat="49.885361" lon="17.920868">
				<ele>299.593719</ele>
			</trkpt>
			<trkpt lat="49.885719" lon="17.921084">
				<ele>297.199615</ele>
			</trkpt>
			<trkpt lat="49.886131" lon="17.921291">
				<ele>294.776764</ele>
			</trkpt>
			<trkpt lat="49.886189" lon="17.920528">
				<ele>295.164368</ele>
			</trkpt>
			<trkpt lat="49.886258" lon="17.919136">
				<ele>294.349030</ele>
			</trkpt>
			<trkpt lat="49.886328" lon="17.917455">
				<ele>291.977386</ele>
			</trkpt>
			<trkpt lat="49.886333" lon="17.917176">
				<ele>291.911804</ele>
			</trkpt>
			<trkpt lat="49.886339" lon="17.917042">
				<ele>291.890289</ele>
			</trkpt>
			<trkpt lat="49.886333" lon="17.916341">
				<ele>291.711761</ele>
			</trkpt>
			<trkpt lat="49.886316" lon="17.915731">
				<ele>291.609711</ele>
			</trkpt>
			<trkpt lat="49.886299" lon="17.915371">
				<ele>291.417969</ele>
			</trkpt>
			<trkpt lat="49.886287" lon="17.915155">
				<ele>291.151947</ele>
			</trkpt>
			<trkpt lat="49.886281" lon="17.915102">
				<ele>291.110382</ele>
			</trkpt>
			<trkpt lat="49.886281" lon="17.915102">
				<ele>291.110382</ele>
			</trkpt>
			<trkpt lat="49.886258" lon="17.914805">
				<ele>291.170898</ele>
			</trkpt>
			<trkpt lat="49.886165" lon="17.913880">
				<ele>291.828827</ele>
			</trkpt>
			<trkpt lat="49.886148" lon="17.913700">
				<ele>291.882568</ele>
			</trkpt>
			<trkpt lat="49.886159" lon="17.913360">
				<ele>292.076691</ele>
			</trkpt>
			<trkpt lat="49.886171" lon="17.912991">
				<ele>292.556702</ele>
			</trkpt>
			<trkpt lat="49.886189" lon="17.912469">
				<ele>293.130341</ele>
			</trkpt>
			<trkpt lat="49.886218" lon="17.912075">
				<ele>293.278412</ele>
			</trkpt>
			<trkpt lat="49.886229" lon="17.911742">
				<ele>293.554443</ele>
			</trkpt>
			<trkpt lat="49.886009" lon="17.911490">
				<ele>294.939117</ele>
			</trkpt>
			<trkpt lat="49.885864" lon="17.911373">
				<ele>295.834045</ele>
			</trkpt>
			<trkpt lat="49.885673" lon="17.911247">
				<ele>297.030884</ele>
			</trkpt>
			<trkpt lat="49.885656" lon="17.911140">
				<ele>297.116882</ele>
			</trkpt>
			<trkpt lat="49.885644" lon="17.911041">
				<ele>297.402893</ele>
			</trkpt>
			<trkpt lat="49.885616" lon="17.910970">
				<ele>297.631073</ele>
			</trkpt>
			<trkpt lat="49.885581" lon="17.910897">
				<ele>298.184540</ele>
			</trkpt>
			<trkpt lat="49.885529" lon="17.910834">
				<ele>298.719574</ele>
			</trkpt>
			<trkpt lat="49.885477" lon="17.910790">
				<ele>299.471954</ele>
			</trkpt>
			<trkpt lat="49.885280" lon="17.910673">
				<ele>301.060791</ele>
			</trkpt>
			<trkpt lat="49.885233" lon="17.910897">
				<ele>300.434265</ele>
			</trkpt>
		</trkseg>
	</trk>
</gpx>

