<?xml version="1.0" encoding="utf-8"?>
<gpx xmlns="http://www.topografix.com/GPX/1/1" version="1.1" creator="https://mapy.com/">
	<trk>
		<name>219</name>
		<trkseg>
			<trkpt lat="49.915079" lon="17.868893">
				<ele>263.000031</ele>
			</trkpt>
			<trkpt lat="49.915074" lon="17.868946">
				<ele>263.000000</ele>
			</trkpt>
			<trkpt lat="49.915062" lon="17.869063">
				<ele>262.999969</ele>
			</trkpt>
			<trkpt lat="49.915062" lon="17.869189">
				<ele>263.000000</ele>
			</trkpt>
			<trkpt lat="49.915074" lon="17.869279">
				<ele>263.000000</ele>
			</trkpt>
			<trkpt lat="49.915096" lon="17.869206">
				<ele>263.000000</ele>
			</trkpt>
			<trkpt lat="49.915125" lon="17.869126">
				<ele>263.000000</ele>
			</trkpt>
			<trkpt lat="49.915171" lon="17.869063">
				<ele>263.000000</ele>
			</trkpt>
			<trkpt lat="49.915218" lon="17.869009">
				<ele>262.907166</ele>
			</trkpt>
			<trkpt lat="49.915281" lon="17.868937">
				<ele>262.799988</ele>
			</trkpt>
			<trkpt lat="49.915374" lon="17.868874">
				<ele>262.799988</ele>
			</trkpt>
			<trkpt lat="49.915449" lon="17.868964">
				<ele>262.720428</ele>
			</trkpt>
			<trkpt lat="49.915542" lon="17.869027">
				<ele>262.274384</ele>
			</trkpt>
			<trkpt lat="49.915646" lon="17.869072">
				<ele>261.761841</ele>
			</trkpt>
			<trkpt lat="49.915756" lon="17.869090">
				<ele>261.483856</ele>
			</trkpt>
			<trkpt lat="49.915872" lon="17.869099">
				<ele>261.400024</ele>
			</trkpt>
			<trkpt lat="49.915918" lon="17.869090">
				<ele>261.400024</ele>
			</trkpt>
			<trkpt lat="49.916091" lon="17.869053">
				<ele>261.572449</ele>
			</trkpt>
			<trkpt lat="49.916253" lon="17.869036">
				<ele>261.006561</ele>
			</trkpt>
			<trkpt lat="49.916456" lon="17.869027">
				<ele>260.150726</ele>
			</trkpt>
			<trkpt lat="49.917063" lon="17.868973">
				<ele>261.799988</ele>
			</trkpt>
			<trkpt lat="49.916942" lon="17.869772">
				<ele>261.256073</ele>
			</trkpt>
			<trkpt lat="49.916942" lon="17.869772">
				<ele>261.256073</ele>
			</trkpt>
			<trkpt lat="49.916936" lon="17.869791">
				<ele>261.223938</ele>
			</trkpt>
			<trkpt lat="49.916913" lon="17.869889">
				<ele>261.006775</ele>
			</trkpt>
			<trkpt lat="49.916884" lon="17.870069">
				<ele>261.000000</ele>
			</trkpt>
			<trkpt lat="49.916508" lon="17.872890">
				<ele>260.132629</ele>
			</trkpt>
			<trkpt lat="49.916438" lon="17.873510">
				<ele>259.799988</ele>
			</trkpt>
			<trkpt lat="49.916433" lon="17.873770">
				<ele>259.799988</ele>
			</trkpt>
			<trkpt lat="49.916438" lon="17.874067">
				<ele>259.799988</ele>
			</trkpt>
			<trkpt lat="49.916490" lon="17.874363">
				<ele>260.000000</ele>
			</trkpt>
			<trkpt lat="49.916554" lon="17.874632">
				<ele>260.000000</ele>
			</trkpt>
			<trkpt lat="49.916612" lon="17.874803">
				<ele>260.000000</ele>
			</trkpt>
			<trkpt lat="49.916682" lon="17.874974">
				<ele>260.000000</ele>
			</trkpt>
			<trkpt lat="49.916953" lon="17.875531">
				<ele>259.799988</ele>
			</trkpt>
			<trkpt lat="49.917057" lon="17.875738">
				<ele>259.799988</ele>
			</trkpt>
			<trkpt lat="49.917260" lon="17.876151">
				<ele>260.000000</ele>
			</trkpt>
			<trkpt lat="49.917323" lon="17.876277">
				<ele>259.832367</ele>
			</trkpt>
			<trkpt lat="49.917323" lon="17.876277">
				<ele>259.832367</ele>
			</trkpt>
			<trkpt lat="49.917508" lon="17.876627">
				<ele>259.600037</ele>
			</trkpt>
			<trkpt lat="49.917549" lon="17.876707">
				<ele>259.600037</ele>
			</trkpt>
			<trkpt lat="49.917711" lon="17.877013">
				<ele>259.546783</ele>
			</trkpt>
			<trkpt lat="49.917977" lon="17.877498">
				<ele>259.000000</ele>
			</trkpt>
			<trkpt lat="49.918110" lon="17.877759">
				<ele>259.000031</ele>
			</trkpt>
			<trkpt lat="49.918174" lon="17.877848">
				<ele>259.000000</ele>
			</trkpt>
			<trkpt lat="49.918231" lon="17.877938">
				<ele>259.000000</ele>
			</trkpt>
			<trkpt lat="49.918307" lon="17.877992">
				<ele>259.140839</ele>
			</trkpt>
			<trkpt lat="49.918365" lon="17.878038">
				<ele>259.302094</ele>
			</trkpt>
			<trkpt lat="49.918440" lon="17.878082">
				<ele>259.506348</ele>
			</trkpt>
			<trkpt lat="49.918526" lon="17.878118">
				<ele>259.907074</ele>
			</trkpt>
			<trkpt lat="49.918706" lon="17.878154">
				<ele>260.329590</ele>
			</trkpt>
			<trkpt lat="49.919729" lon="17.878262">
				<ele>261.000031</ele>
			</trkpt>
			<trkpt lat="49.920614" lon="17.878343">
				<ele>262.243896</ele>
			</trkpt>
			<trkpt lat="49.921459" lon="17.878424">
				<ele>264.997345</ele>
			</trkpt>
			<trkpt lat="49.921581" lon="17.878424">
				<ele>265.719940</ele>
			</trkpt>
			<trkpt lat="49.922020" lon="17.878477">
				<ele>267.647247</ele>
			</trkpt>
			<trkpt lat="49.922338" lon="17.878540">
				<ele>268.747986</ele>
			</trkpt>
			<trkpt lat="49.922483" lon="17.878577">
				<ele>269.524567</ele>
			</trkpt>
			<trkpt lat="49.922615" lon="17.878640">
				<ele>270.112427</ele>
			</trkpt>
			<trkpt lat="49.922864" lon="17.878764">
				<ele>269.530579</ele>
			</trkpt>
			<trkpt lat="49.923084" lon="17.878917">
				<ele>269.652130</ele>
			</trkpt>
			<trkpt lat="49.923287" lon="17.879097">
				<ele>269.011261</ele>
			</trkpt>
			<trkpt lat="49.923518" lon="17.879322">
				<ele>269.412598</ele>
			</trkpt>
			<trkpt lat="49.923894" lon="17.879735">
				<ele>270.799988</ele>
			</trkpt>
			<trkpt lat="49.924368" lon="17.880248">
				<ele>271.390381</ele>
			</trkpt>
			<trkpt lat="49.924929" lon="17.880831">
				<ele>272.318359</ele>
			</trkpt>
			<trkpt lat="49.926664" lon="17.882592">
				<ele>274.920685</ele>
			</trkpt>
			<trkpt lat="49.926803" lon="17.882735">
				<ele>275.443054</ele>
			</trkpt>
			<trkpt lat="49.927040" lon="17.882978">
				<ele>276.353302</ele>
			</trkpt>
			<trkpt lat="49.927184" lon="17.883122">
				<ele>277.000031</ele>
			</trkpt>
			<trkpt lat="49.927277" lon="17.883256">
				<ele>277.541748</ele>
			</trkpt>
			<trkpt lat="49.927358" lon="17.883382">
				<ele>278.200012</ele>
			</trkpt>
			<trkpt lat="49.927439" lon="17.883554">
				<ele>279.052887</ele>
			</trkpt>
			<trkpt lat="49.927583" lon="17.883904">
				<ele>280.426941</ele>
			</trkpt>
			<trkpt lat="49.927901" lon="17.884640">
				<ele>282.172729</ele>
			</trkpt>
			<trkpt lat="49.928075" lon="17.885080">
				<ele>282.684296</ele>
			</trkpt>
			<trkpt lat="49.927954" lon="17.884766">
				<ele>282.286133</ele>
			</trkpt>
			<trkpt lat="49.927954" lon="17.884766">
				<ele>282.286133</ele>
			</trkpt>
			<trkpt lat="49.928121" lon="17.885188">
				<ele>282.546875</ele>
			</trkpt>
			<trkpt lat="49.928208" lon="17.885368">
				<ele>282.821350</ele>
			</trkpt>
			<trkpt lat="49.928283" lon="17.885556">
				<ele>282.915039</ele>
			</trkpt>
			<trkpt lat="49.928925" lon="17.887083">
				<ele>285.215729</ele>
			</trkpt>
			<trkpt lat="49.929139" lon="17.887667">
				<ele>286.000000</ele>
			</trkpt>
			<trkpt lat="49.929185" lon="17.887838">
				<ele>286.000000</ele>
			</trkpt>
			<trkpt lat="49.929272" lon="17.888099">
				<ele>286.196289</ele>
			</trkpt>
			<trkpt lat="49.929370" lon="17.888386">
				<ele>287.409058</ele>
			</trkpt>
			<trkpt lat="49.929463" lon="17.888628">
				<ele>288.000000</ele>
			</trkpt>
			<trkpt lat="49.929549" lon="17.888854">
				<ele>288.000000</ele>
			</trkpt>
			<trkpt lat="49.929677" lon="17.889122">
				<ele>288.000031</ele>
			</trkpt>
			<trkpt lat="49.929816" lon="17.889374">
				<ele>288.000000</ele>
			</trkpt>
			<trkpt lat="49.929902" lon="17.889500">
				<ele>288.000000</ele>
			</trkpt>
			<trkpt lat="49.930058" lon="17.889743">
				<ele>287.564758</ele>
			</trkpt>
			<trkpt lat="49.930058" lon="17.889743">
				<ele>287.564758</ele>
			</trkpt>
			<trkpt lat="49.930058" lon="17.889743">
				<ele>287.564758</ele>
			</trkpt>
			<trkpt lat="49.930463" lon="17.890372">
				<ele>285.085388</ele>
			</trkpt>
			<trkpt lat="49.930960" lon="17.891135">
				<ele>283.199982</ele>
			</trkpt>
			<trkpt lat="49.931464" lon="17.891907">
				<ele>280.937195</ele>
			</trkpt>
			<trkpt lat="49.932285" lon="17.893183">
				<ele>277.910583</ele>
			</trkpt>
			<trkpt lat="49.932423" lon="17.893399">
				<ele>277.036438</ele>
			</trkpt>
			<trkpt lat="49.932499" lon="17.893542">
				<ele>276.473541</ele>
			</trkpt>
			<trkpt lat="49.932574" lon="17.893731">
				<ele>275.865967</ele>
			</trkpt>
			<trkpt lat="49.932666" lon="17.894018">
				<ele>275.201294</ele>
			</trkpt>
			<trkpt lat="49.932985" lon="17.895060">
				<ele>271.908386</ele>
			</trkpt>
			<trkpt lat="49.933077" lon="17.895375">
				<ele>271.274384</ele>
			</trkpt>
			<trkpt lat="49.933158" lon="17.895743">
				<ele>270.613953</ele>
			</trkpt>
			<trkpt lat="49.933140" lon="17.895949">
				<ele>270.667725</ele>
			</trkpt>
			<trkpt lat="49.933100" lon="17.896246">
				<ele>270.775177</ele>
			</trkpt>
			<trkpt lat="49.933042" lon="17.896641">
				<ele>270.894348</ele>
			</trkpt>
			<trkpt lat="49.933042" lon="17.896641">
				<ele>270.894348</ele>
			</trkpt>
			<trkpt lat="49.933042" lon="17.896641">
				<ele>270.894348</ele>
			</trkpt>
			<trkpt lat="49.932822" lon="17.898349">
				<ele>270.959839</ele>
			</trkpt>
			<trkpt lat="49.932551" lon="17.900181">
				<ele>271.723022</ele>
			</trkpt>
			<trkpt lat="49.932527" lon="17.900333">
				<ele>271.798248</ele>
			</trkpt>
			<trkpt lat="49.932505" lon="17.900496">
				<ele>271.862732</ele>
			</trkpt>
			<trkpt lat="49.932308" lon="17.901932">
				<ele>274.432861</ele>
			</trkpt>
			<trkpt lat="49.932308" lon="17.901932">
				<ele>274.432861</ele>
			</trkpt>
			<trkpt lat="49.932140" lon="17.903163">
				<ele>275.980774</ele>
			</trkpt>
			<trkpt lat="49.932221" lon="17.903217">
				<ele>275.538666</ele>
			</trkpt>
			<trkpt lat="49.934112" lon="17.903603">
				<ele>266.724884</ele>
			</trkpt>
			<trkpt lat="49.934390" lon="17.903666">
				<ele>265.359589</ele>
			</trkpt>
			<trkpt lat="49.934453" lon="17.903683">
				<ele>265.170105</ele>
			</trkpt>
			<trkpt lat="49.934615" lon="17.903702">
				<ele>264.523682</ele>
			</trkpt>
			<trkpt lat="49.934656" lon="17.903863">
				<ele>264.059387</ele>
			</trkpt>
			<trkpt lat="49.934719" lon="17.903989">
				<ele>263.912354</ele>
			</trkpt>
			<trkpt lat="49.935095" lon="17.904601">
				<ele>261.337585</ele>
			</trkpt>
			<trkpt lat="49.935205" lon="17.904815">
				<ele>260.629333</ele>
			</trkpt>
			<trkpt lat="49.935309" lon="17.905014">
				<ele>259.813446</ele>
			</trkpt>
			<trkpt lat="49.935558" lon="17.905544">
				<ele>258.376648</ele>
			</trkpt>
			<trkpt lat="49.935673" lon="17.905796">
				<ele>257.730469</ele>
			</trkpt>
			<trkpt lat="49.935748" lon="17.905723">
				<ele>257.533997</ele>
			</trkpt>
			<trkpt lat="49.935812" lon="17.905706">
				<ele>257.410400</ele>
			</trkpt>
			<trkpt lat="49.935991" lon="17.905696">
				<ele>257.093750</ele>
			</trkpt>
			<trkpt lat="49.936089" lon="17.905706">
				<ele>256.866852</ele>
			</trkpt>
			<trkpt lat="49.936263" lon="17.905714">
				<ele>256.645386</ele>
			</trkpt>
			<trkpt lat="49.936407" lon="17.905741">
				<ele>256.399994</ele>
			</trkpt>
			<trkpt lat="49.936621" lon="17.905796">
				<ele>255.854004</ele>
			</trkpt>
			<trkpt lat="49.936841" lon="17.905903">
				<ele>255.441315</ele>
			</trkpt>
			<trkpt lat="49.937038" lon="17.906037">
				<ele>255.056488</ele>
			</trkpt>
			<trkpt lat="49.937229" lon="17.906209">
				<ele>254.638718</ele>
			</trkpt>
			<trkpt lat="49.937448" lon="17.906415">
				<ele>254.399994</ele>
			</trkpt>
			<trkpt lat="49.937679" lon="17.906649">
				<ele>254.400024</ele>
			</trkpt>
			<trkpt lat="49.937679" lon="17.906649">
				<ele>254.400024</ele>
			</trkpt>
			<trkpt lat="49.937905" lon="17.906873">
				<ele>254.400009</ele>
			</trkpt>
			<trkpt lat="49.938153" lon="17.907125">
				<ele>254.200012</ele>
			</trkpt>
			<trkpt lat="49.938292" lon="17.907259">
				<ele>254.199997</ele>
			</trkpt>
			<trkpt lat="49.938749" lon="17.907718">
				<ele>253.069153</ele>
			</trkpt>
			<trkpt lat="49.938975" lon="17.907970">
				<ele>252.287415</ele>
			</trkpt>
			<trkpt lat="49.939148" lon="17.908203">
				<ele>251.431763</ele>
			</trkpt>
			<trkpt lat="49.939350" lon="17.908481">
				<ele>250.800003</ele>
			</trkpt>
			<trkpt lat="49.939558" lon="17.908796">
				<ele>250.600021</ele>
			</trkpt>
			<trkpt lat="49.939738" lon="17.909146">
				<ele>250.585190</ele>
			</trkpt>
			<trkpt lat="49.939911" lon="17.909460">
				<ele>250.399994</ele>
			</trkpt>
			<trkpt lat="49.940067" lon="17.909748">
				<ele>247.389389</ele>
			</trkpt>
			<trkpt lat="49.940287" lon="17.910178">
				<ele>249.026886</ele>
			</trkpt>
			<trkpt lat="49.940339" lon="17.910278">
				<ele>249.800003</ele>
			</trkpt>
			<trkpt lat="49.940512" lon="17.910574">
				<ele>249.848633</ele>
			</trkpt>
			<trkpt lat="49.940674" lon="17.910834">
				<ele>249.838760</ele>
			</trkpt>
			<trkpt lat="49.940825" lon="17.911033">
				<ele>249.800003</ele>
			</trkpt>
			<trkpt lat="49.941033" lon="17.911302">
				<ele>249.600021</ele>
			</trkpt>
			<trkpt lat="49.941148" lon="17.911446">
				<ele>249.600006</ele>
			</trkpt>
			<trkpt lat="49.941853" lon="17.912263">
				<ele>249.397079</ele>
			</trkpt>
			<trkpt lat="49.941853" lon="17.912263">
				<ele>249.397079</ele>
			</trkpt>
			<trkpt lat="49.942073" lon="17.912515">
				<ele>249.200012</ele>
			</trkpt>
			<trkpt lat="49.942675" lon="17.913207">
				<ele>249.000000</ele>
			</trkpt>
			<trkpt lat="49.942773" lon="17.913331">
				<ele>248.992676</ele>
			</trkpt>
			<trkpt lat="49.943640" lon="17.914329">
				<ele>248.769150</ele>
			</trkpt>
			<trkpt lat="49.943866" lon="17.914643">
				<ele>248.800018</ele>
			</trkpt>
			<trkpt lat="49.944056" lon="17.914976">
				<ele>248.972412</ele>
			</trkpt>
			<trkpt lat="49.944241" lon="17.915371">
				<ele>249.011444</ele>
			</trkpt>
			<trkpt lat="49.944282" lon="17.915461">
				<ele>249.129669</ele>
			</trkpt>
			<trkpt lat="49.944282" lon="17.915461">
				<ele>249.129669</ele>
			</trkpt>
			<trkpt lat="49.944385" lon="17.915694">
				<ele>249.212036</ele>
			</trkpt>
			<trkpt lat="49.944507" lon="17.916027">
				<ele>249.400024</ele>
			</trkpt>
			<trkpt lat="49.944605" lon="17.916369">
				<ele>249.481445</ele>
			</trkpt>
			<trkpt lat="49.944704" lon="17.916736">
				<ele>249.712021</ele>
			</trkpt>
			<trkpt lat="49.944813" lon="17.917266">
				<ele>250.023758</ele>
			</trkpt>
			<trkpt lat="49.944964" lon="17.918120">
				<ele>250.622772</ele>
			</trkpt>
			<trkpt lat="49.945010" lon="17.918381">
				<ele>250.582703</ele>
			</trkpt>
			<trkpt lat="49.945051" lon="17.918650">
				<ele>250.890167</ele>
			</trkpt>
			<trkpt lat="49.945108" lon="17.919243">
				<ele>251.251419</ele>
			</trkpt>
			<trkpt lat="49.945155" lon="17.919826">
				<ele>251.600006</ele>
			</trkpt>
			<trkpt lat="49.945172" lon="17.920321">
				<ele>252.034149</ele>
			</trkpt>
			<trkpt lat="49.945183" lon="17.920878">
				<ele>252.081238</ele>
			</trkpt>
			<trkpt lat="49.945178" lon="17.921336">
				<ele>252.600021</ele>
			</trkpt>
			<trkpt lat="49.945161" lon="17.922226">
				<ele>253.680984</ele>
			</trkpt>
			<trkpt lat="49.945149" lon="17.922360">
				<ele>253.857178</ele>
			</trkpt>
			<trkpt lat="49.945149" lon="17.922360">
				<ele>253.857178</ele>
			</trkpt>
			<trkpt lat="49.945126" lon="17.922738">
				<ele>254.000000</ele>
			</trkpt>
			<trkpt lat="49.945068" lon="17.923294">
				<ele>255.121338</ele>
			</trkpt>
			<trkpt lat="49.944993" lon="17.923851">
				<ele>255.709717</ele>
			</trkpt>
			<trkpt lat="49.944866" lon="17.924579">
				<ele>256.000000</ele>
			</trkpt>
			<trkpt lat="49.944692" lon="17.925379">
				<ele>256.200012</ele>
			</trkpt>
			<trkpt lat="49.944629" lon="17.925648">
				<ele>256.266144</ele>
			</trkpt>
			<trkpt lat="49.944542" lon="17.925971">
				<ele>256.400024</ele>
			</trkpt>
			<trkpt lat="49.944542" lon="17.925971">
				<ele>256.400024</ele>
			</trkpt>
			<trkpt lat="49.944490" lon="17.926168">
				<ele>256.589905</ele>
			</trkpt>
			<trkpt lat="49.944247" lon="17.927220">
				<ele>256.200012</ele>
			</trkpt>
			<trkpt lat="49.944166" lon="17.927562">
				<ele>256.716461</ele>
			</trkpt>
			<trkpt lat="49.943854" lon="17.928891">
				<ele>254.866608</ele>
			</trkpt>
			<trkpt lat="49.943565" lon="17.930202">
				<ele>253.023544</ele>
			</trkpt>
			<trkpt lat="49.943501" lon="17.930463">
				<ele>252.926163</ele>
			</trkpt>
			<trkpt lat="49.943432" lon="17.930696">
				<ele>253.182739</ele>
			</trkpt>
			<trkpt lat="49.943333" lon="17.930966">
				<ele>253.115997</ele>
			</trkpt>
			<trkpt lat="49.943201" lon="17.931308">
				<ele>253.587753</ele>
			</trkpt>
			<trkpt lat="49.943085" lon="17.931595">
				<ele>254.560211</ele>
			</trkpt>
			<trkpt lat="49.943039" lon="17.931757">
				<ele>255.473877</ele>
			</trkpt>
			<trkpt lat="49.942998" lon="17.931891">
				<ele>255.672882</ele>
			</trkpt>
			<trkpt lat="49.942958" lon="17.932044">
				<ele>255.999939</ele>
			</trkpt>
			<trkpt lat="49.942923" lon="17.932241">
				<ele>256.152527</ele>
			</trkpt>
			<trkpt lat="49.942883" lon="17.932556">
				<ele>256.184845</ele>
			</trkpt>
			<trkpt lat="49.942842" lon="17.932763">
				<ele>255.908081</ele>
			</trkpt>
			<trkpt lat="49.942802" lon="17.932916">
				<ele>255.718384</ele>
			</trkpt>
			<trkpt lat="49.942744" lon="17.933050">
				<ele>255.214767</ele>
			</trkpt>
			<trkpt lat="49.942663" lon="17.933103">
				<ele>254.630142</ele>
			</trkpt>
			<trkpt lat="49.942576" lon="17.933176">
				<ele>254.324936</ele>
			</trkpt>
			<trkpt lat="49.942501" lon="17.933275">
				<ele>254.095001</ele>
			</trkpt>
			<trkpt lat="49.942437" lon="17.933365">
				<ele>253.538696</ele>
			</trkpt>
			<trkpt lat="49.942362" lon="17.933499">
				<ele>252.923004</ele>
			</trkpt>
			<trkpt lat="49.942305" lon="17.933669">
				<ele>252.561768</ele>
			</trkpt>
			<trkpt lat="49.942264" lon="17.933832">
				<ele>252.443527</ele>
			</trkpt>
			<trkpt lat="49.942235" lon="17.934011">
				<ele>252.376541</ele>
			</trkpt>
			<trkpt lat="49.942224" lon="17.934137">
				<ele>252.525299</ele>
			</trkpt>
			<trkpt lat="49.942218" lon="17.934263">
				<ele>252.713455</ele>
			</trkpt>
			<trkpt lat="49.942224" lon="17.934388">
				<ele>253.003662</ele>
			</trkpt>
			<trkpt lat="49.942241" lon="17.934497">
				<ele>253.220963</ele>
			</trkpt>
			<trkpt lat="49.942224" lon="17.934694">
				<ele>253.901794</ele>
			</trkpt>
			<trkpt lat="49.942183" lon="17.934856">
				<ele>254.582214</ele>
			</trkpt>
			<trkpt lat="49.942137" lon="17.935017">
				<ele>255.211914</ele>
			</trkpt>
			<trkpt lat="49.942039" lon="17.935296">
				<ele>256.190674</ele>
			</trkpt>
			<trkpt lat="49.941998" lon="17.935386">
				<ele>256.473358</ele>
			</trkpt>
			<trkpt lat="49.941969" lon="17.935476">
				<ele>256.784149</ele>
			</trkpt>
			<trkpt lat="49.941952" lon="17.935583">
				<ele>256.822327</ele>
			</trkpt>
			<trkpt lat="49.941941" lon="17.935682">
				<ele>256.870117</ele>
			</trkpt>
			<trkpt lat="49.941929" lon="17.935799">
				<ele>256.938843</ele>
			</trkpt>
			<trkpt lat="49.941923" lon="17.935916">
				<ele>256.913116</ele>
			</trkpt>
			<trkpt lat="49.941946" lon="17.936149">
				<ele>257.000000</ele>
			</trkpt>
			<trkpt lat="49.941987" lon="17.936535">
				<ele>257.141174</ele>
			</trkpt>
			<trkpt lat="49.942033" lon="17.936940">
				<ele>257.408508</ele>
			</trkpt>
			<trkpt lat="49.942045" lon="17.937147">
				<ele>257.600037</ele>
			</trkpt>
			<trkpt lat="49.942050" lon="17.937344">
				<ele>257.678619</ele>
			</trkpt>
			<trkpt lat="49.942045" lon="17.937569">
				<ele>258.020081</ele>
			</trkpt>
			<trkpt lat="49.942027" lon="17.937776">
				<ele>258.287354</ele>
			</trkpt>
			<trkpt lat="49.941998" lon="17.937982">
				<ele>258.327118</ele>
			</trkpt>
			<trkpt lat="49.941963" lon="17.938206">
				<ele>258.594391</ele>
			</trkpt>
			<trkpt lat="49.941923" lon="17.938466">
				<ele>259.106049</ele>
			</trkpt>
			<trkpt lat="49.941790" lon="17.939168">
				<ele>259.348572</ele>
			</trkpt>
			<trkpt lat="49.941646" lon="17.939743">
				<ele>258.922424</ele>
			</trkpt>
			<trkpt lat="49.941530" lon="17.940183">
				<ele>259.006561</ele>
			</trkpt>
			<trkpt lat="49.941403" lon="17.940577">
				<ele>258.414307</ele>
			</trkpt>
			<trkpt lat="49.941108" lon="17.941441">
				<ele>257.821320</ele>
			</trkpt>
			<trkpt lat="49.940986" lon="17.941782">
				<ele>257.642670</ele>
			</trkpt>
			<trkpt lat="49.940420" lon="17.943353">
				<ele>256.682220</ele>
			</trkpt>
			<trkpt lat="49.940327" lon="17.943642">
				<ele>256.383118</ele>
			</trkpt>
			<trkpt lat="49.939969" lon="17.944602">
				<ele>255.345444</ele>
			</trkpt>
			<trkpt lat="49.939871" lon="17.944854">
				<ele>255.113342</ele>
			</trkpt>
			<trkpt lat="49.939802" lon="17.944800">
				<ele>254.745972</ele>
			</trkpt>
			<trkpt lat="49.939703" lon="17.944782">
				<ele>254.240616</ele>
			</trkpt>
			<trkpt lat="49.939512" lon="17.944755">
				<ele>252.897949</ele>
			</trkpt>
			<trkpt lat="49.939350" lon="17.944711">
				<ele>252.634628</ele>
			</trkpt>
			<trkpt lat="49.939327" lon="17.944701">
				<ele>252.610321</ele>
			</trkpt>
			<trkpt lat="49.939327" lon="17.944701">
				<ele>252.610321</ele>
			</trkpt>
			<trkpt lat="49.938483" lon="17.944359">
				<ele>251.147675</ele>
			</trkpt>
			<trkpt lat="49.938240" lon="17.944252">
				<ele>250.799988</ele>
			</trkpt>
			<trkpt lat="49.938159" lon="17.944198">
				<ele>250.681305</ele>
			</trkpt>
			<trkpt lat="49.937859" lon="17.944019">
				<ele>250.400024</ele>
			</trkpt>
			<trkpt lat="49.937778" lon="17.943973">
				<ele>250.202896</ele>
			</trkpt>
			<trkpt lat="49.937708" lon="17.943956">
				<ele>250.199982</ele>
			</trkpt>
			<trkpt lat="49.937720" lon="17.943866">
				<ele>250.084229</ele>
			</trkpt>
			<trkpt lat="49.937714" lon="17.943766">
				<ele>250.020172</ele>
			</trkpt>
			<trkpt lat="49.937703" lon="17.943623">
				<ele>250.000015</ele>
			</trkpt>
			<trkpt lat="49.937703" lon="17.943623">
				<ele>250.000015</ele>
			</trkpt>
			<trkpt lat="49.937691" lon="17.943533">
				<ele>250.000031</ele>
			</trkpt>
			<trkpt lat="49.937639" lon="17.943516">
				<ele>250.000000</ele>
			</trkpt>
			<trkpt lat="49.937593" lon="17.943516">
				<ele>250.000000</ele>
			</trkpt>
			<trkpt lat="49.937558" lon="17.943552">
				<ele>249.997177</ele>
			</trkpt>
			<trkpt lat="49.937529" lon="17.943605">
				<ele>250.000000</ele>
			</trkpt>
			<trkpt lat="49.937489" lon="17.943785">
				<ele>249.971985</ele>
			</trkpt>
			<trkpt lat="49.937489" lon="17.943785">
				<ele>249.971985</ele>
			</trkpt>
		</trkseg>
	</trk>
</gpx>

