<?xml version="1.0" encoding="utf-8"?>
<gpx xmlns="http://www.topografix.com/GPX/1/1" version="1.1" creator="https://mapy.com/">
	<trk>
		<name>223</name>
		<trkseg>
			<trkpt lat="49.918984" lon="17.971767">
				<ele>239.447830</ele>
			</trkpt>
			<trkpt lat="49.918943" lon="17.971660">
				<ele>239.715332</ele>
			</trkpt>
			<trkpt lat="49.918098" lon="17.971821">
				<ele>241.527008</ele>
			</trkpt>
			<trkpt lat="49.917162" lon="17.972028">
				<ele>241.516312</ele>
			</trkpt>
			<trkpt lat="49.917017" lon="17.972046">
				<ele>240.896988</ele>
			</trkpt>
			<trkpt lat="49.916878" lon="17.972054">
				<ele>240.800018</ele>
			</trkpt>
			<trkpt lat="49.916739" lon="17.972028">
				<ele>241.000015</ele>
			</trkpt>
			<trkpt lat="49.916479" lon="17.971974">
				<ele>240.643799</ele>
			</trkpt>
			<trkpt lat="49.916248" lon="17.971903">
				<ele>241.129898</ele>
			</trkpt>
			<trkpt lat="49.916010" lon="17.971804">
				<ele>241.862411</ele>
			</trkpt>
			<trkpt lat="49.916317" lon="17.970259">
				<ele>240.470093</ele>
			</trkpt>
			<trkpt lat="49.916502" lon="17.969343">
				<ele>240.154114</ele>
			</trkpt>
			<trkpt lat="49.916658" lon="17.968588">
				<ele>240.000031</ele>
			</trkpt>
			<trkpt lat="49.917231" lon="17.965802">
				<ele>241.309662</ele>
			</trkpt>
			<trkpt lat="49.917532" lon="17.964401">
				<ele>242.020752</ele>
			</trkpt>
			<trkpt lat="49.917532" lon="17.964401">
				<ele>242.020752</ele>
			</trkpt>
			<trkpt lat="49.917601" lon="17.964069">
				<ele>242.400009</ele>
			</trkpt>
			<trkpt lat="49.917653" lon="17.963835">
				<ele>242.501923</ele>
			</trkpt>
			<trkpt lat="49.917746" lon="17.963467">
				<ele>242.738510</ele>
			</trkpt>
			<trkpt lat="49.917879" lon="17.963018">
				<ele>242.920029</ele>
			</trkpt>
			<trkpt lat="49.918064" lon="17.962479">
				<ele>243.052917</ele>
			</trkpt>
			<trkpt lat="49.918249" lon="17.961949">
				<ele>243.001343</ele>
			</trkpt>
			<trkpt lat="49.918336" lon="17.961680">
				<ele>242.414566</ele>
			</trkpt>
			<trkpt lat="49.918492" lon="17.961213">
				<ele>241.600037</ele>
			</trkpt>
			<trkpt lat="49.919163" lon="17.959190">
				<ele>241.800003</ele>
			</trkpt>
			<trkpt lat="49.919504" lon="17.958167">
				<ele>242.000000</ele>
			</trkpt>
			<trkpt lat="49.920759" lon="17.954456">
				<ele>242.400024</ele>
			</trkpt>
			<trkpt lat="49.921066" lon="17.953514">
				<ele>243.181183</ele>
			</trkpt>
			<trkpt lat="49.921170" lon="17.953200">
				<ele>243.004944</ele>
			</trkpt>
			<trkpt lat="49.921170" lon="17.953200">
				<ele>243.004944</ele>
			</trkpt>
			<trkpt lat="49.921337" lon="17.952705">
				<ele>243.199997</ele>
			</trkpt>
			<trkpt lat="49.921707" lon="17.951619">
				<ele>243.340546</ele>
			</trkpt>
			<trkpt lat="49.921881" lon="17.951106">
				<ele>243.327118</ele>
			</trkpt>
			<trkpt lat="49.922026" lon="17.950747">
				<ele>243.379059</ele>
			</trkpt>
			<trkpt lat="49.922199" lon="17.950351">
				<ele>242.198761</ele>
			</trkpt>
			<trkpt lat="49.922627" lon="17.949426">
				<ele>243.199997</ele>
			</trkpt>
			<trkpt lat="49.922835" lon="17.948969">
				<ele>242.846756</ele>
			</trkpt>
			<trkpt lat="49.922939" lon="17.948663">
				<ele>243.223007</ele>
			</trkpt>
			<trkpt lat="49.923234" lon="17.947693">
				<ele>243.800003</ele>
			</trkpt>
			<trkpt lat="49.923333" lon="17.947405">
				<ele>243.986115</ele>
			</trkpt>
			<trkpt lat="49.923610" lon="17.946533">
				<ele>244.000031</ele>
			</trkpt>
			<trkpt lat="49.924194" lon="17.944674">
				<ele>244.526306</ele>
			</trkpt>
			<trkpt lat="49.924241" lon="17.944701">
				<ele>244.542603</ele>
			</trkpt>
			<trkpt lat="49.924281" lon="17.944719">
				<ele>244.373184</ele>
			</trkpt>
			<trkpt lat="49.924322" lon="17.944728">
				<ele>243.987671</ele>
			</trkpt>
			<trkpt lat="49.924373" lon="17.944711">
				<ele>243.507904</ele>
			</trkpt>
			<trkpt lat="49.924420" lon="17.944674">
				<ele>243.279068</ele>
			</trkpt>
			<trkpt lat="49.924449" lon="17.944648">
				<ele>243.199997</ele>
			</trkpt>
			<trkpt lat="49.924483" lon="17.944594">
				<ele>243.226486</ele>
			</trkpt>
			<trkpt lat="49.924512" lon="17.944531">
				<ele>243.181564</ele>
			</trkpt>
			<trkpt lat="49.924524" lon="17.944468">
				<ele>243.153290</ele>
			</trkpt>
			<trkpt lat="49.924536" lon="17.944405">
				<ele>243.226898</ele>
			</trkpt>
			<trkpt lat="49.924536" lon="17.944332">
				<ele>243.412628</ele>
			</trkpt>
			<trkpt lat="49.924530" lon="17.944261">
				<ele>243.484024</ele>
			</trkpt>
			<trkpt lat="49.924512" lon="17.944189">
				<ele>243.795746</ele>
			</trkpt>
			<trkpt lat="49.924489" lon="17.944135">
				<ele>244.075226</ele>
			</trkpt>
			<trkpt lat="49.924455" lon="17.944082">
				<ele>244.419189</ele>
			</trkpt>
			<trkpt lat="49.924408" lon="17.944045">
				<ele>244.600006</ele>
			</trkpt>
			<trkpt lat="49.924373" lon="17.944019">
				<ele>244.600037</ele>
			</trkpt>
			<trkpt lat="49.924327" lon="17.944001">
				<ele>244.307495</ele>
			</trkpt>
			<trkpt lat="49.924287" lon="17.944001">
				<ele>243.984268</ele>
			</trkpt>
			<trkpt lat="49.924241" lon="17.944019">
				<ele>243.855270</ele>
			</trkpt>
			<trkpt lat="49.924194" lon="17.944045">
				<ele>243.726288</ele>
			</trkpt>
			<trkpt lat="49.924154" lon="17.944091">
				<ele>243.608063</ele>
			</trkpt>
			<trkpt lat="49.924125" lon="17.944145">
				<ele>243.629089</ele>
			</trkpt>
			<trkpt lat="49.924102" lon="17.944198">
				<ele>243.666367</ele>
			</trkpt>
			<trkpt lat="49.923784" lon="17.943965">
				<ele>243.600037</ele>
			</trkpt>
			<trkpt lat="49.923639" lon="17.943875">
				<ele>243.600006</ele>
			</trkpt>
			<trkpt lat="49.923524" lon="17.943829">
				<ele>243.773865</ele>
			</trkpt>
			<trkpt lat="49.923408" lon="17.943776">
				<ele>243.800003</ele>
			</trkpt>
			<trkpt lat="49.923280" lon="17.943740">
				<ele>243.746567</ele>
			</trkpt>
			<trkpt lat="49.923020" lon="17.943713">
				<ele>243.600006</ele>
			</trkpt>
			<trkpt lat="49.922806" lon="17.943695">
				<ele>243.600021</ele>
			</trkpt>
			<trkpt lat="49.922494" lon="17.943695">
				<ele>243.799988</ele>
			</trkpt>
			<trkpt lat="49.922182" lon="17.943650">
				<ele>243.799988</ele>
			</trkpt>
			<trkpt lat="49.921892" lon="17.943533">
				<ele>243.973480</ele>
			</trkpt>
			<trkpt lat="49.921771" lon="17.943470">
				<ele>244.128830</ele>
			</trkpt>
			<trkpt lat="49.921638" lon="17.943372">
				<ele>244.124573</ele>
			</trkpt>
			<trkpt lat="49.921488" lon="17.943273">
				<ele>244.094650</ele>
			</trkpt>
			<trkpt lat="49.921349" lon="17.943147">
				<ele>244.215210</ele>
			</trkpt>
			<trkpt lat="49.921204" lon="17.943003">
				<ele>244.400024</ele>
			</trkpt>
			<trkpt lat="49.921060" lon="17.942841">
				<ele>244.400024</ele>
			</trkpt>
			<trkpt lat="49.920903" lon="17.942617">
				<ele>244.250031</ele>
			</trkpt>
			<trkpt lat="49.920788" lon="17.942447">
				<ele>244.199997</ele>
			</trkpt>
			<trkpt lat="49.920661" lon="17.942185">
				<ele>244.200012</ele>
			</trkpt>
			<trkpt lat="49.920499" lon="17.941845">
				<ele>244.199997</ele>
			</trkpt>
			<trkpt lat="49.920319" lon="17.941359">
				<ele>244.200226</ele>
			</trkpt>
			<trkpt lat="49.920239" lon="17.941099">
				<ele>244.199997</ele>
			</trkpt>
			<trkpt lat="49.920140" lon="17.940766">
				<ele>244.437271</ele>
			</trkpt>
			<trkpt lat="49.920048" lon="17.940380">
				<ele>244.600021</ele>
			</trkpt>
			<trkpt lat="49.919944" lon="17.939904">
				<ele>244.295837</ele>
			</trkpt>
			<trkpt lat="49.919816" lon="17.939248">
				<ele>244.440140</ele>
			</trkpt>
			<trkpt lat="49.919683" lon="17.938602">
				<ele>244.800003</ele>
			</trkpt>
			<trkpt lat="49.919585" lon="17.938197">
				<ele>244.800034</ele>
			</trkpt>
			<trkpt lat="49.919475" lon="17.937820">
				<ele>244.818878</ele>
			</trkpt>
			<trkpt lat="49.919342" lon="17.937424">
				<ele>245.000000</ele>
			</trkpt>
			<trkpt lat="49.919174" lon="17.936967">
				<ele>245.199997</ele>
			</trkpt>
			<trkpt lat="49.919718" lon="17.936464">
				<ele>245.199997</ele>
			</trkpt>
			<trkpt lat="49.919874" lon="17.936275">
				<ele>245.199982</ele>
			</trkpt>
			<trkpt lat="49.919978" lon="17.936113">
				<ele>245.199997</ele>
			</trkpt>
			<trkpt lat="49.920053" lon="17.935952">
				<ele>245.399994</ele>
			</trkpt>
			<trkpt lat="49.920100" lon="17.935843">
				<ele>245.400009</ele>
			</trkpt>
			<trkpt lat="49.920140" lon="17.935709">
				<ele>245.300079</ele>
			</trkpt>
			<trkpt lat="49.920181" lon="17.935539">
				<ele>245.400009</ele>
			</trkpt>
			<trkpt lat="49.920209" lon="17.935359">
				<ele>245.341141</ele>
			</trkpt>
			<trkpt lat="49.920458" lon="17.933778">
				<ele>245.403198</ele>
			</trkpt>
			<trkpt lat="49.920499" lon="17.933401">
				<ele>245.510696</ele>
			</trkpt>
			<trkpt lat="49.920516" lon="17.932987">
				<ele>245.529449</ele>
			</trkpt>
			<trkpt lat="49.920504" lon="17.932619">
				<ele>245.532196</ele>
			</trkpt>
			<trkpt lat="49.920470" lon="17.932214">
				<ele>245.942566</ele>
			</trkpt>
			<trkpt lat="49.920412" lon="17.931684">
				<ele>246.178650</ele>
			</trkpt>
			<trkpt lat="49.920325" lon="17.930975">
				<ele>246.719086</ele>
			</trkpt>
			<trkpt lat="49.920325" lon="17.930975">
				<ele>246.719086</ele>
			</trkpt>
			<trkpt lat="49.920325" lon="17.930975">
				<ele>246.719086</ele>
			</trkpt>
			<trkpt lat="49.920262" lon="17.930553">
				<ele>244.059158</ele>
			</trkpt>
			<trkpt lat="49.920204" lon="17.930103">
				<ele>243.834015</ele>
			</trkpt>
			<trkpt lat="49.920158" lon="17.929816">
				<ele>247.228088</ele>
			</trkpt>
			<trkpt lat="49.920117" lon="17.929430">
				<ele>247.235779</ele>
			</trkpt>
			<trkpt lat="49.920105" lon="17.929197">
				<ele>247.198639</ele>
			</trkpt>
			<trkpt lat="49.920111" lon="17.929025">
				<ele>247.035690</ele>
			</trkpt>
			<trkpt lat="49.920117" lon="17.928845">
				<ele>246.764221</ele>
			</trkpt>
			<trkpt lat="49.920175" lon="17.928352">
				<ele>246.937653</ele>
			</trkpt>
			<trkpt lat="49.920256" lon="17.927687">
				<ele>246.675232</ele>
			</trkpt>
			<trkpt lat="49.920290" lon="17.927210">
				<ele>247.120926</ele>
			</trkpt>
			<trkpt lat="49.920360" lon="17.926421">
				<ele>248.810410</ele>
			</trkpt>
			<trkpt lat="49.920418" lon="17.925541">
				<ele>250.787521</ele>
			</trkpt>
			<trkpt lat="49.920418" lon="17.925541">
				<ele>250.787521</ele>
			</trkpt>
			<trkpt lat="49.920429" lon="17.925396">
				<ele>251.000031</ele>
			</trkpt>
			<trkpt lat="49.920441" lon="17.925010">
				<ele>251.199982</ele>
			</trkpt>
			<trkpt lat="49.920441" lon="17.924507">
				<ele>251.600021</ele>
			</trkpt>
			<trkpt lat="49.920441" lon="17.924283">
				<ele>251.399979</ele>
			</trkpt>
			<trkpt lat="49.920424" lon="17.924184">
				<ele>251.400024</ele>
			</trkpt>
			<trkpt lat="49.920400" lon="17.924058">
				<ele>251.400024</ele>
			</trkpt>
			<trkpt lat="49.920297" lon="17.923744">
				<ele>251.259033</ele>
			</trkpt>
			<trkpt lat="49.920233" lon="17.923564">
				<ele>251.400009</ele>
			</trkpt>
			<trkpt lat="49.920193" lon="17.923455">
				<ele>251.400009</ele>
			</trkpt>
			<trkpt lat="49.920140" lon="17.923375">
				<ele>251.400009</ele>
			</trkpt>
			<trkpt lat="49.919944" lon="17.923124">
				<ele>251.402954</ele>
			</trkpt>
			<trkpt lat="49.919874" lon="17.923034">
				<ele>251.400009</ele>
			</trkpt>
			<trkpt lat="49.919834" lon="17.922935">
				<ele>251.400024</ele>
			</trkpt>
			<trkpt lat="49.919793" lon="17.922836">
				<ele>251.278336</ele>
			</trkpt>
			<trkpt lat="49.919759" lon="17.922719">
				<ele>251.072952</ele>
			</trkpt>
			<trkpt lat="49.919735" lon="17.922621">
				<ele>250.993500</ele>
			</trkpt>
			<trkpt lat="49.919729" lon="17.922539">
				<ele>250.771774</ele>
			</trkpt>
			<trkpt lat="49.919729" lon="17.922486">
				<ele>250.658783</ele>
			</trkpt>
			<trkpt lat="49.919741" lon="17.922413">
				<ele>250.600006</ele>
			</trkpt>
			<trkpt lat="49.919759" lon="17.922387">
				<ele>250.600037</ele>
			</trkpt>
			<trkpt lat="49.919788" lon="17.922352">
				<ele>250.600037</ele>
			</trkpt>
			<trkpt lat="49.919920" lon="17.922270">
				<ele>250.512421</ele>
			</trkpt>
			<trkpt lat="49.919978" lon="17.922235">
				<ele>250.469666</ele>
			</trkpt>
			<trkpt lat="49.920030" lon="17.922180">
				<ele>250.411453</ele>
			</trkpt>
			<trkpt lat="49.920071" lon="17.922126">
				<ele>250.293213</ele>
			</trkpt>
			<trkpt lat="49.920105" lon="17.922063">
				<ele>250.372742</ele>
			</trkpt>
			<trkpt lat="49.920146" lon="17.921983">
				<ele>250.279205</ele>
			</trkpt>
			<trkpt lat="49.920163" lon="17.921902">
				<ele>250.400024</ele>
			</trkpt>
			<trkpt lat="49.920175" lon="17.921813">
				<ele>250.401291</ele>
			</trkpt>
			<trkpt lat="49.920187" lon="17.921723">
				<ele>250.517731</ele>
			</trkpt>
			<trkpt lat="49.920193" lon="17.921579">
				<ele>250.549255</ele>
			</trkpt>
			<trkpt lat="49.920187" lon="17.921444">
				<ele>250.466125</ele>
			</trkpt>
			<trkpt lat="49.920158" lon="17.921201">
				<ele>250.445999</ele>
			</trkpt>
			<trkpt lat="49.920100" lon="17.920931">
				<ele>250.607239</ele>
			</trkpt>
			<trkpt lat="49.919978" lon="17.920438">
				<ele>250.551193</ele>
			</trkpt>
			<trkpt lat="49.919938" lon="17.920276">
				<ele>250.669434</ele>
			</trkpt>
			<trkpt lat="49.919938" lon="17.920276">
				<ele>250.669434</ele>
			</trkpt>
			<trkpt lat="49.919845" lon="17.919916">
				<ele>250.937363</ele>
			</trkpt>
			<trkpt lat="49.919504" lon="17.918560">
				<ele>251.071716</ele>
			</trkpt>
			<trkpt lat="49.919389" lon="17.918102">
				<ele>250.895981</ele>
			</trkpt>
			<trkpt lat="49.919301" lon="17.917734">
				<ele>251.256638</ele>
			</trkpt>
			<trkpt lat="49.919169" lon="17.917222">
				<ele>251.456635</ele>
			</trkpt>
			<trkpt lat="49.919116" lon="17.917023">
				<ele>251.580429</ele>
			</trkpt>
			<trkpt lat="49.919094" lon="17.916916">
				<ele>251.600021</ele>
			</trkpt>
			<trkpt lat="49.919001" lon="17.916440">
				<ele>251.902878</ele>
			</trkpt>
			<trkpt lat="49.918908" lon="17.915947">
				<ele>252.200012</ele>
			</trkpt>
			<trkpt lat="49.918908" lon="17.915947">
				<ele>252.200012</ele>
			</trkpt>
			<trkpt lat="49.918856" lon="17.915677">
				<ele>252.311340</ele>
			</trkpt>
			<trkpt lat="49.918735" lon="17.915039">
				<ele>252.633499</ele>
			</trkpt>
			<trkpt lat="49.918544" lon="17.914167">
				<ele>253.000015</ele>
			</trkpt>
			<trkpt lat="49.918526" lon="17.914096">
				<ele>253.000000</ele>
			</trkpt>
			<trkpt lat="49.918486" lon="17.913826">
				<ele>253.200012</ele>
			</trkpt>
			<trkpt lat="49.918457" lon="17.913368">
				<ele>253.239960</ele>
			</trkpt>
			<trkpt lat="49.918400" lon="17.913071">
				<ele>253.201706</ele>
			</trkpt>
			<trkpt lat="49.918312" lon="17.912685">
				<ele>253.000031</ele>
			</trkpt>
			<trkpt lat="49.918231" lon="17.912362">
				<ele>252.927322</ele>
			</trkpt>
			<trkpt lat="49.918180" lon="17.912119">
				<ele>252.800018</ele>
			</trkpt>
			<trkpt lat="49.918133" lon="17.911886">
				<ele>252.600021</ele>
			</trkpt>
			<trkpt lat="49.918104" lon="17.911634">
				<ele>252.236832</ele>
			</trkpt>
			<trkpt lat="49.918076" lon="17.911373">
				<ele>252.085159</ele>
			</trkpt>
			<trkpt lat="49.918601" lon="17.911176">
				<ele>251.031494</ele>
			</trkpt>
			<trkpt lat="49.918654" lon="17.911157">
				<ele>251.000031</ele>
			</trkpt>
			<trkpt lat="49.918654" lon="17.911157">
				<ele>251.000031</ele>
			</trkpt>
			<trkpt lat="49.918845" lon="17.911104">
				<ele>250.783844</ele>
			</trkpt>
			<trkpt lat="49.918955" lon="17.911096">
				<ele>250.625839</ele>
			</trkpt>
			<trkpt lat="49.919041" lon="17.911086">
				<ele>250.397858</ele>
			</trkpt>
			<trkpt lat="49.919134" lon="17.911104">
				<ele>250.239334</ele>
			</trkpt>
			<trkpt lat="49.919220" lon="17.911140">
				<ele>250.200012</ele>
			</trkpt>
			<trkpt lat="49.919313" lon="17.911203">
				<ele>250.199997</ele>
			</trkpt>
			<trkpt lat="49.919389" lon="17.911266">
				<ele>250.017258</ele>
			</trkpt>
			<trkpt lat="49.919475" lon="17.911365">
				<ele>249.970047</ele>
			</trkpt>
			<trkpt lat="49.919590" lon="17.911509">
				<ele>249.847565</ele>
			</trkpt>
			<trkpt lat="49.919799" lon="17.911805">
				<ele>249.856384</ele>
			</trkpt>
			<trkpt lat="49.919955" lon="17.911966">
				<ele>249.774170</ele>
			</trkpt>
			<trkpt lat="49.920100" lon="17.912083">
				<ele>249.799988</ele>
			</trkpt>
			<trkpt lat="49.920319" lon="17.912209">
				<ele>249.598511</ele>
			</trkpt>
			<trkpt lat="49.920614" lon="17.912371">
				<ele>250.000031</ele>
			</trkpt>
			<trkpt lat="49.920852" lon="17.912497">
				<ele>250.000000</ele>
			</trkpt>
			<trkpt lat="49.921066" lon="17.912614">
				<ele>250.000397</ele>
			</trkpt>
			<trkpt lat="49.921129" lon="17.912649">
				<ele>250.049377</ele>
			</trkpt>
			<trkpt lat="49.921129" lon="17.912649">
				<ele>250.049377</ele>
			</trkpt>
			<trkpt lat="49.921418" lon="17.912802">
				<ele>250.000015</ele>
			</trkpt>
			<trkpt lat="49.921586" lon="17.912901">
				<ele>249.999329</ele>
			</trkpt>
			<trkpt lat="49.921898" lon="17.913071">
				<ele>250.000000</ele>
			</trkpt>
			<trkpt lat="49.922165" lon="17.913188">
				<ele>250.000015</ele>
			</trkpt>
			<trkpt lat="49.922291" lon="17.913233">
				<ele>250.000015</ele>
			</trkpt>
			<trkpt lat="49.922506" lon="17.913287">
				<ele>250.000015</ele>
			</trkpt>
			<trkpt lat="49.922731" lon="17.913331">
				<ele>250.198761</ele>
			</trkpt>
			<trkpt lat="49.923333" lon="17.913394">
				<ele>251.297058</ele>
			</trkpt>
			<trkpt lat="49.923472" lon="17.913421">
				<ele>251.561798</ele>
			</trkpt>
			<trkpt lat="49.923582" lon="17.913440">
				<ele>251.795731</ele>
			</trkpt>
			<trkpt lat="49.924530" lon="17.913539">
				<ele>253.600021</ele>
			</trkpt>
			<trkpt lat="49.924622" lon="17.913539">
				<ele>253.730179</ele>
			</trkpt>
			<trkpt lat="49.924970" lon="17.913574">
				<ele>254.108307</ele>
			</trkpt>
			<trkpt lat="49.925282" lon="17.913620">
				<ele>254.398407</ele>
			</trkpt>
			<trkpt lat="49.925282" lon="17.913620">
				<ele>254.398407</ele>
			</trkpt>
			<trkpt lat="49.925589" lon="17.913656">
				<ele>254.649628</ele>
			</trkpt>
			<trkpt lat="49.925993" lon="17.913691">
				<ele>255.589005</ele>
			</trkpt>
			<trkpt lat="49.926409" lon="17.913736">
				<ele>256.411957</ele>
			</trkpt>
			<trkpt lat="49.926722" lon="17.913763">
				<ele>257.652771</ele>
			</trkpt>
			<trkpt lat="49.926936" lon="17.913763">
				<ele>258.499939</ele>
			</trkpt>
			<trkpt lat="49.927011" lon="17.913773">
				<ele>258.797394</ele>
			</trkpt>
			<trkpt lat="49.927387" lon="17.913727">
				<ele>260.590546</ele>
			</trkpt>
			<trkpt lat="49.927832" lon="17.913637">
				<ele>262.180664</ele>
			</trkpt>
			<trkpt lat="49.928104" lon="17.913584">
				<ele>262.780212</ele>
			</trkpt>
			<trkpt lat="49.928266" lon="17.913584">
				<ele>262.998383</ele>
			</trkpt>
			<trkpt lat="49.928451" lon="17.913620">
				<ele>263.000000</ele>
			</trkpt>
			<trkpt lat="49.928676" lon="17.913719">
				<ele>262.332764</ele>
			</trkpt>
			<trkpt lat="49.929191" lon="17.913943">
				<ele>260.400024</ele>
			</trkpt>
			<trkpt lat="49.929474" lon="17.914069">
				<ele>259.302734</ele>
			</trkpt>
			<trkpt lat="49.929879" lon="17.914249">
				<ele>257.857941</ele>
			</trkpt>
			<trkpt lat="49.929879" lon="17.914249">
				<ele>257.857941</ele>
			</trkpt>
			<trkpt lat="49.930111" lon="17.914347">
				<ele>256.923035</ele>
			</trkpt>
			<trkpt lat="49.930250" lon="17.914410">
				<ele>256.358765</ele>
			</trkpt>
			<trkpt lat="49.930573" lon="17.914553">
				<ele>255.203339</ele>
			</trkpt>
			<trkpt lat="49.930712" lon="17.914608">
				<ele>254.688416</ele>
			</trkpt>
			<trkpt lat="49.930839" lon="17.914599">
				<ele>254.498489</ele>
			</trkpt>
			<trkpt lat="49.930903" lon="17.914589">
				<ele>254.133011</ele>
			</trkpt>
			<trkpt lat="49.930949" lon="17.914563">
				<ele>253.875061</ele>
			</trkpt>
			<trkpt lat="49.931001" lon="17.914509">
				<ele>253.692184</ele>
			</trkpt>
			<trkpt lat="49.931047" lon="17.914463">
				<ele>253.701935</ele>
			</trkpt>
			<trkpt lat="49.931145" lon="17.914312">
				<ele>254.106842</ele>
			</trkpt>
			<trkpt lat="49.931817" lon="17.912945">
				<ele>254.461990</ele>
			</trkpt>
			<trkpt lat="49.932649" lon="17.911230">
				<ele>253.529037</ele>
			</trkpt>
			<trkpt lat="49.933493" lon="17.909496">
				<ele>253.792038</ele>
			</trkpt>
			<trkpt lat="49.933592" lon="17.909299">
				<ele>253.799805</ele>
			</trkpt>
			<trkpt lat="49.933759" lon="17.909047">
				<ele>253.747101</ele>
			</trkpt>
			<trkpt lat="49.933863" lon="17.908832">
				<ele>253.799988</ele>
			</trkpt>
			<trkpt lat="49.933985" lon="17.908597">
				<ele>253.692230</ele>
			</trkpt>
			<trkpt lat="49.934233" lon="17.908104">
				<ele>253.782806</ele>
			</trkpt>
			<trkpt lat="49.934262" lon="17.908041">
				<ele>253.748489</ele>
			</trkpt>
			<trkpt lat="49.934262" lon="17.908041">
				<ele>253.748489</ele>
			</trkpt>
			<trkpt lat="49.934656" lon="17.907259">
				<ele>254.200592</ele>
			</trkpt>
			<trkpt lat="49.934800" lon="17.907035">
				<ele>254.524078</ele>
			</trkpt>
			<trkpt lat="49.934974" lon="17.906783">
				<ele>255.297501</ele>
			</trkpt>
			<trkpt lat="49.935135" lon="17.906595">
				<ele>255.599792</ele>
			</trkpt>
			<trkpt lat="49.935517" lon="17.906029">
				<ele>256.841614</ele>
			</trkpt>
			<trkpt lat="49.935673" lon="17.905796">
				<ele>257.730469</ele>
			</trkpt>
			<trkpt lat="49.935748" lon="17.905723">
				<ele>257.533997</ele>
			</trkpt>
			<trkpt lat="49.935812" lon="17.905706">
				<ele>257.410400</ele>
			</trkpt>
			<trkpt lat="49.935991" lon="17.905696">
				<ele>257.093750</ele>
			</trkpt>
			<trkpt lat="49.936089" lon="17.905706">
				<ele>256.866852</ele>
			</trkpt>
			<trkpt lat="49.936263" lon="17.905714">
				<ele>256.645386</ele>
			</trkpt>
			<trkpt lat="49.936407" lon="17.905741">
				<ele>256.399994</ele>
			</trkpt>
			<trkpt lat="49.936621" lon="17.905796">
				<ele>255.854004</ele>
			</trkpt>
			<trkpt lat="49.936841" lon="17.905903">
				<ele>255.441315</ele>
			</trkpt>
			<trkpt lat="49.937038" lon="17.906037">
				<ele>255.056488</ele>
			</trkpt>
			<trkpt lat="49.937229" lon="17.906209">
				<ele>254.638718</ele>
			</trkpt>
			<trkpt lat="49.937448" lon="17.906415">
				<ele>254.399994</ele>
			</trkpt>
			<trkpt lat="49.937679" lon="17.906649">
				<ele>254.400024</ele>
			</trkpt>
		</trkseg>
	</trk>
</gpx>

